"STATION","DATE","REPORT_TYPE","SOURCE","AWND","BackupDirection","BackupDistance","BackupDistanceUnit","BackupElements","BackupElevation","BackupElevationUnit","BackupEquipment","BackupLatitude","BackupLongitude","BackupName","CDSD","CLDD","DSNW","DYHF","DYTS","DailyAverageDewPointTemperature","DailyAverageDryBulbTemperature","DailyAverageRelativeHumidity","DailyAverageSeaLevelPressure","DailyAverageStationPressure","DailyAverageWetBulbTemperature","DailyAverageWindSpeed","DailyCoolingDegreeDays","DailyDepartureFromNormalAverageTemperature","DailyHeatingDegreeDays","DailyMaximumDryBulbTemperature","DailyMinimumDryBulbTemperature","DailyPeakWindDirection","DailyPeakWindSpeed","DailyPrecipitation","DailySnowDepth","DailySnowfall","DailySustainedWindDirection","DailySustainedWindSpeed","DailyWeather","HDSD","HTDD","HourlyAltimeterSetting","HourlyDewPointTemperature","HourlyDryBulbTemperature","HourlyPrecipitation","HourlyPresentWeatherType","HourlyPressureChange","HourlyPressureTendency","HourlyRelativeHumidity","HourlySeaLevelPressure","HourlySkyConditions","HourlyStationPressure","HourlyVisibility","HourlyWetBulbTemperature","HourlyWindDirection","HourlyWindGustSpeed","HourlyWindSpeed","MonthlyAverageRH","MonthlyDaysWithGT001Precip","MonthlyDaysWithGT010Precip","MonthlyDaysWithGT32Temp","MonthlyDaysWithGT90Temp","MonthlyDaysWithLT0Temp","MonthlyDaysWithLT32Temp","MonthlyDepartureFromNormalAverageTemperature","MonthlyDepartureFromNormalCoolingDegreeDays","MonthlyDepartureFromNormalHeatingDegreeDays","MonthlyDepartureFromNormalMaximumTemperature","MonthlyDepartureFromNormalMinimumTemperature","MonthlyDepartureFromNormalPrecipitation","MonthlyDewpointTemperature","MonthlyGreatestPrecip","MonthlyGreatestPrecipDate","MonthlyGreatestSnowDepth","MonthlyGreatestSnowDepthDate","MonthlyGreatestSnowfall","MonthlyGreatestSnowfallDate","MonthlyMaxSeaLevelPressureValue","MonthlyMaxSeaLevelPressureValueDate","MonthlyMaxSeaLevelPressureValueTime","MonthlyMaximumTemperature","MonthlyMeanTemperature","MonthlyMinSeaLevelPressureValue","MonthlyMinSeaLevelPressureValueDate","MonthlyMinSeaLevelPressureValueTime","MonthlyMinimumTemperature","MonthlySeaLevelPressure","MonthlyStationPressure","MonthlyTotalLiquidPrecipitation","MonthlyTotalSnowfall","MonthlyWetBulb","NormalsCoolingDegreeDay","NormalsHeatingDegreeDay","REM","REPORT_TYPE","SOURCE","ShortDurationEndDate005","ShortDurationEndDate010","ShortDurationEndDate015","ShortDurationEndDate020","ShortDurationEndDate030","ShortDurationEndDate045","ShortDurationEndDate060","ShortDurationEndDate080","ShortDurationEndDate100","ShortDurationEndDate120","ShortDurationEndDate150","ShortDurationEndDate180","ShortDurationPrecipitationValue005","ShortDurationPrecipitationValue010","ShortDurationPrecipitationValue015","ShortDurationPrecipitationValue020","ShortDurationPrecipitationValue030","ShortDurationPrecipitationValue045","ShortDurationPrecipitationValue060","ShortDurationPrecipitationValue080","ShortDurationPrecipitationValue100","ShortDurationPrecipitationValue120","ShortDurationPrecipitationValue150","ShortDurationPrecipitationValue180","Sunrise","Sunset","WindEquipmentChangeDate"
"72793024233","2020-09-01T00:53:00","FM-15","7",,,,,,,,,,,,,,,,,,,,,,,,,,,,,,,,,,,,,,,"30.17","51","59","0.00",,"+0.01","6","75","30.19","SCT:04 50","29.70","10.00","55","350",,"5",,,,,,,,,,,,,,,,,,,,,,,,,,,,,,,,,,,,,"MET10409/01/20 00:53:02 METAR KSEA 010853Z 35004KT 10SM SCT050 15/11 A3017 RMK AO2 SLP223 T01500106 56002 (LC)","FM-15","7",,,,,,,,,,,,,,,,,,,,,,,,,,,"2007-05-17"
"72793024233","2020-09-01T01:53:00","FM-15","7",,,,,,,,,,,,,,,,,,,,,,,,,,,,,,,,,,,,,,,"30.17","51","59","0.00",,,,"75","30.18","SCT:04 50","29.70","10.00","55","010",,"6",,,,,,,,,,,,,,,,,,,,,,,,,,,,,,,,,,,,,"MET09809/01/20 01:53:02 METAR KSEA 010953Z 01005KT 10SM SCT050 15/11 A3017 RMK AO2 SLP220 T01500106 (LC)","FM-15","7",,,,,,,,,,,,,,,,,,,,,,,,,,,"2007-05-17"
"72793024233","2020-09-01T02:53:00","FM-15","7",,,,,,,,,,,,,,,,,,,,,,,,,,,,,,,,,,,,,,,"30.17","52","59","0.00",,,,"78","30.18","FEW:02 45","29.70","10.00","55","000",,"0",,,,,,,,,,,,,,,,,,,,,,,,,,,,,,,,,,,,,"MET09809/01/20 02:53:02 METAR KSEA 011053Z 00000KT 10SM FEW045 15/11 A3017 RMK AO2 SLP220 T01500111 (LC)","FM-15","7",,,,,,,,,,,,,,,,,,,,,,,,,,,"2007-05-17"
"72793024233","2020-09-01T03:53:00","FM-15","7",,,,,,,,,,,,,,,,,,,,,,,,,,,,,,,,,,,,,,,"30.16","51","57","0.00",,"+0.01","6","81","30.18","CLR:00","29.69","10.00","54","000",,"0",,,,,,,,,,,,,,,,,,,,,,,,,,,,,,,,,,,,,"MET11309/01/20 03:53:02 METAR KSEA 011153Z 00000KT 10SM CLR 14/11 A3016 RMK AO2 SLP219 T01390106 10178 20139 56003 (LC)","FM-15","7",,,,,,,,,,,,,,,,,,,,,,,,,,,"2007-05-17"
"72793024233","2020-09-01T04:00:00","FM-12","4",,,,,,,,,,,,,,,,,,,,,,,,,,,,,,,,,,,,,,,,"51","57",,,"+0.01","6","81","30.18",,"29.68","9.94","54","000",,"0",,,,,,,,,,,,,,,,,,,,,,,,,,,,,,,,,,,,,"SYN08072793 32966 00000 10139 20106 30050 40219 56003 91153 333 10217 20139 555 90112=","FM-12","4",,,,,,,,,,,,,,,,,,,,,,,,,,,"2007-05-17"
"72793024233","2020-09-01T04:53:00","FM-15","7",,,,,,,,,,,,,,,,,,,,,,,,,,,,,,,,,,,,,,,"30.17","52","57","0.00",,,,"83","30.18","BKN:07 49","29.70","10.00","54","000",,"0",,,,,,,,,,,,,,,,,,,,,,,,,,,,,,,,,,,,,"MET09809/01/20 04:53:02 METAR KSEA 011253Z 00000KT 10SM BKN049 14/11 A3017 RMK AO2 SLP220 T01390111 (JC)","FM-15","7",,,,,,,,,,,,,,,,,,,,,,,,,,,"2007-05-17"
"72793024233","2020-09-01T05:53:00","FM-15","7",,,,,,,,,,,,,,,,,,,,,,,,,,,,,,,,,,,,,,,"30.17","53","57","0.00",,,,"87","30.18","BKN:07 49","29.70","10.00","55","310",,"3",,,,,,,,,,,,,,,,,,,,,,,,,,,,,,,,,,,,,"MET09809/01/20 05:53:02 METAR KSEA 011353Z 31003KT 10SM BKN049 14/12 A3017 RMK AO2 SLP221 T01390117 (JC)","FM-15","7",,,,,,,,,,,,,,,,,,,,,,,,,,,"2007-05-17"
"72793024233","2020-09-01T06:53:00","FM-15","7",,,,,,,,,,,,,,,,,,,,,,,,,,,,,,,,,,,,,,,"30.18","54","59","0.00",,"-0.02","3","83","30.20","SCT:04 50","29.71","10.00","56","300",,"5",,,,,,,,,,,,,,,,,,,,,,,,,,,,,,,,,,,,,"MET10409/01/20 06:53:02 METAR KSEA 011453Z 30004KT 10SM SCT050 15/12 A3018 RMK AO2 SLP226 T01500122 53007 (JC)","FM-15","7",,,,,,,,,,,,,,,,,,,,,,,,,,,"2007-05-17"
"72793024233","2020-09-01T07:53:00","FM-15","7",,,,,,,,,,,,,,,,,,,,,,,,,,,,,,,,,,,,,,,"30.18","55","63","0.00",,,,"75","30.19","FEW:02 50","29.71","10.00","58","290",,"5",,,,,,,,,,,,,,,,,,,,,,,,,,,,,,,,,,,,,"MET09809/01/20 07:53:02 METAR KSEA 011553Z 29004KT 10SM FEW050 17/13 A3018 RMK AO2 SLP225 T01720128 (JC)","FM-15","7",,,,,,,,,,,,,,,,,,,,,,,,,,,"2007-05-17"
"72793024233","2020-09-01T08:53:00","FM-15","7",,,,,,,,,,,,,,,,,,,,,,,,,,,,,,,,,,,,,,,"30.18","56","68","0.00",,,,"65","30.19","CLR:00","29.71","10.00","61","VRB",,"3",,,,,,,,,,,,,,,,,,,,,,,,,,,,,,,,,,,,,"MET09509/01/20 08:53:02 METAR KSEA 011653Z VRB03KT 10SM CLR 20/13 A3018 RMK AO2 SLP225 T02000133 (JC)","FM-15","7",,,,,,,,,,,,,,,,,,,,,,,,,,,"2007-05-17"
"72793024233","2020-09-01T09:53:00","FM-15","7",,,,,,,,,,,,,,,,,,,,,,,,,,,,,,,,,,,,,,,"30.19","54","72","0.00",,"-0.01","3","53","30.20","FEW:02 50","29.72","10.00","61","020",,"9",,,,,,,,,,,,,,,,,,,,,,,,,,,,,,,,,,,,,"MET11609/01/20 09:53:02 METAR KSEA 011753Z 02008KT 10SM FEW050 22/12 A3019 RMK AO2 SLP227 T02220122 10222 20133 53002 (JC)","FM-15","7",,,,,,,,,,,,,,,,,,,,,,,,,,,"2007-05-17"
"72793024233","2020-09-01T10:00:00","FM-12","4",,,,,,,,,,,,,,,,,,,,,,,,,,,,,,,,,,,,,,,,"54","72",,,"-0.01","3","53","30.20","57","29.71","9.94","61","020",,"9",,,,,,,,,,,,,,,,,,,,,,,,,,,,,,,,,,,,,"SYN08072793 32766 20208 10222 20122 30060 40227 53002 91753 333 10222 20133 555 90118=","FM-12","4",,,,,,,,,,,,,,,,,,,,,,,,,,,"2007-05-17"
"72793024233","2020-09-01T10:53:00","FM-15","7",,,,,,,,,,,,,,,,,,,,,,,,,,,,,,,,,,,,,,,"30.18","55","73","0.00",,,,"53","30.19","FEW:02 250","29.71","10.00","62","290",,"8",,,,,,,,,,,,,,,,,,,,,,,,,,,,,,,,,,,,,"MET09809/01/20 10:53:02 METAR KSEA 011853Z 29007KT 10SM FEW250 23/13 A3018 RMK AO2 SLP224 T02280128 (JC)","FM-15","7",,,,,,,,,,,,,,,,,,,,,,,,,,,"2007-05-17"
"72793024233","2020-09-01T11:53:00","FM-15","7",,,,,,,,,,,,,,,,,,,,,,,,,,,,,,,,,,,,,,,"30.17","55","76","0.00",,,,"48","30.18","FEW:02 40 FEW:02 250","29.70","10.00","63","VRB","20","3",,,,,,,,,,,,,,,,,,,,,,,,,,,,,,,,,,,,,"MET10809/01/20 11:53:02 METAR KSEA 011953Z VRB03G17KT 10SM FEW040 FEW250 24/13 A3017 RMK AO2 SLP221 T02440128 (JC)","FM-15","7",,,,,,,,,,,,,,,,,,,,,,,,,,,"2007-05-17"
"72793024233","2020-09-01T12:53:00","FM-15","7",,,,,,,,,,,,,,,,,,,,,,,,,,,,,,,,,,,,,,,"30.17","53","76","0.00",,"+0.02","6","45","30.18","FEW:02 45 FEW:02 250","29.70","10.00","62","290",,"15",,,,,,,,,,,,,,,,,,,,,,,,,,,,,,,,,,,,,"MET11109/01/20 12:53:02 METAR KSEA 012053Z 29013KT 10SM FEW045 FEW250 24/12 A3017 RMK AO2 SLP220 T02440117 56007 (JC)","FM-15","7",,,,,,,,,,,,,,,,,,,,,,,,,,,"2007-05-17"
"72793024233","2020-09-01T13:53:00","FM-15","7",,,,,,,,,,,,,,,,,,,,,,,,,,,,,,,,,,,,,,,"30.15","54","77","0.00",,,,"45","30.16","FEW:02 250","29.68","10.00","63","290",,"10",,,,,,,,,,,,,,,,,,,,,,,,,,,,,,,,,,,,,"MET09809/01/20 13:53:02 METAR KSEA 012153Z 29009KT 10SM FEW250 25/12 A3015 RMK AO2 SLP215 T02500122 (JC)","FM-15","7",,,,,,,,,,,,,,,,,,,,,,,,,,,"2007-05-17"
"72793024233","2020-09-01T14:53:00","FM-15","7",,,,,,,,,,,,,,,,,,,,,,,,,,,,,,,,,,,,,,,"30.14","54","79","0.00",,,,"42","30.15","SCT:04 250","29.67","10.00","64","280",,"7",,,,,,,,,,,,,,,,,,,,,,,,,,,,,,,,,,,,,"MET09809/01/20 14:53:02 METAR KSEA 012253Z 28006KT 10SM SCT250 26/12 A3014 RMK AO2 SLP210 T02610122 (JC)","FM-15","7",,,,,,,,,,,,,,,,,,,,,,,,,,,"2007-05-17"
"72793024233","2020-09-01T15:53:00","FM-15","7",,,,,,,,,,,,,,,,,,,,,,,,,,,,,,,,,,,,,,,"30.13","55","80","0.00",,"+0.04","7","42","30.14","SCT:04 250","29.66","10.00","65","280",,"9",,,,,,,,,,,,,,,,,,,,,,,,,,,,,,,,,,,,,"MET11609/01/20 15:53:02 METAR KSEA 012353Z 28008KT 10SM SCT250 27/13 A3013 RMK AO2 SLP206 T02670128 10267 20222 57014 (JC)","FM-15","7",,,,,,,,,,,,,,,,,,,,,,,,,,,"2007-05-17"
"72793024233","2020-09-01T16:00:00","FM-12","4",,,,,,,,,,,,,,,,,,,,,,,,,,,,,,,,,,,,,,,,"55","80",,,"+0.04","7","42","30.14",,"29.65","9.94","65","280",,"9",,,,,,,,,,,,,,,,,,,,,,,,,,,,,,,,,,,,,"SYN08072793 32966 42808 10267 20128 30039 40206 57014 92353 333 10267 20139 555 90200=","FM-12","4",,,,,,,,,,,,,,,,,,,,,,,,,,,"2007-05-17"
"72793024233","2020-09-01T16:53:00","FM-15","7",,,,,,,,,,,,,,,,,,,,,,,,,,,,,,,,,,,,,,,"30.11","56","81","0.00",,,,"42","30.12","SCT:04 250","29.64","10.00","66","340",,"7",,,,,,,,,,,,,,,,,,,,,,,,,,,,,,,,,,,,,"MET09309/01/20 16:53:01 METAR KSEA 020053Z 34006KT 10SM SCT250 27/13 A3011 RMK AO2 SLP200 T02720133","FM-15","7",,,,,,,,,,,,,,,,,,,,,,,,,,,"2007-05-17"
"72793024233","2020-09-01T17:53:00","FM-15","7",,,,,,,,,,,,,,,,,,,,,,,,,,,,,,,,,,,,,,,"30.10","56","79","0.00",,,,"45","30.11","SCT:04 250","29.63","10.00","65","360",,"6",,,,,,,,,,,,,,,,,,,,,,,,,,,,,,,,,,,,,"MET09309/01/20 17:53:01 METAR KSEA 020153Z 36005KT 10SM SCT250 26/13 A3010 RMK AO2 SLP196 T02610133","FM-15","7",,,,,,,,,,,,,,,,,,,,,,,,,,,"2007-05-17"
"72793024233","2020-09-01T18:53:00","FM-15","7",,,,,,,,,,,,,,,,,,,,,,,,,,,,,,,,,,,,,,,"30.09","56","75","0.00",,"+0.04","6","52","30.10","SCT:04 250","29.62","10.00","64","350",,"6",,,,,,,,,,,,,,,,,,,,,,,,,,,,,,,,,,,,,"MET09909/01/20 18:53:01 METAR KSEA 020253Z 35005KT 10SM SCT250 24/13 A3009 RMK AO2 SLP194 T02390133 56012","FM-15","7",,,,,,,,,,,,,,,,,,,,,,,,,,,"2007-05-17"
"72793024233","2020-09-01T19:53:00","FM-15","7",,,,,,,,,,,,,,,,,,,,,,,,,,,,,,,,,,,,,,,"30.10","57","72","0.00",,,,"59","30.11","SCT:04 250","29.63","10.00","63","000",,"0",,,,,,,,,,,,,,,,,,,,,,,,,,,,,,,,,,,,,"MET09309/01/20 19:53:02 METAR KSEA 020353Z 00000KT 10SM SCT250 22/14 A3010 RMK AO2 SLP196 T02220139","FM-15","7",,,,,,,,,,,,,,,,,,,,,,,,,,,"2007-05-17"
"72793024233","2020-09-01T20:53:00","FM-15","7",,,,,,,,,,,,,,,,,,,,,,,,,,,,,,,,,,,,,,,"30.10","57","73","0.00",,,,"57","30.11","FEW:02 250","29.63","10.00","63","010",,"8",,,,,,,,,,,,,,,,,,,,,,,,,,,,,,,,,,,,,"MET09309/01/20 20:53:02 METAR KSEA 020453Z 01007KT 10SM FEW250 23/14 A3010 RMK AO2 SLP195 T02280139","FM-15","7",,,,,,,,,,,,,,,,,,,,,,,,,,,"2007-05-17"
"72793024233","2020-09-01T21:53:00","FM-15","7",,,,,,,,,,,,,,,,,,,,,,,,,,,,,,,,,,,,,,,"30.10","56","68","0.00",,"-0.01","0","65","30.11","FEW:02 250","29.63","10.00","61","360",,"7",,,,,,,,,,,,,,,,,,,,,,,,,,,,,,,,,,,,,"MET11109/01/20 21:53:02 METAR KSEA 020553Z 36006KT 10SM FEW250 20/13 A3010 RMK AO2 SLP196 T02000133 10272 20194 50002","FM-15","7",,,,,,,,,,,,,,,,,,,,,,,,,,,"2007-05-17"
"72793024233","2020-09-01T22:00:00","FM-12","4",,,,,,,,,,,,,,,,,,,,,,,,,,,,,,,,,,,,,,,,"56","68",,,"0.01","9","65","30.11",,"29.62","9.94","61","360",,"7",,,,,,,,,,,,,,,,,,,,,,,,,,,,,,,,,,,,,"SYN08072793 32966 23606 10200 20133 30029 40196 50002 90553 333 10272 20139 555 90206=","FM-12","4",,,,,,,,,,,,,,,,,,,,,,,,,,,"2007-05-17"
"72793024233","2020-09-01T22:53:00","FM-15","7",,,,,,,,,,,,,,,,,,,,,,,,,,,,,,,,,,,,,,,"30.09","57","66","0.00",,,,"73","30.11","SCT:04 250","29.62","10.00","61","340",,"6",,,,,,,,,,,,,,,,,,,,,,,,,,,,,,,,,,,,,"MET09309/01/20 22:53:02 METAR KSEA 020653Z 34005KT 10SM SCT250 19/14 A3009 RMK AO2 SLP195 T01890139","FM-15","7",,,,,,,,,,,,,,,,,,,,,,,,,,,"2007-05-17"
"72793024233","2020-09-01T23:53:00","FM-15","7",,,,,,,,,,,,,,,,,,,,,,,,,,,,,,,,,,,,,,,"30.09","57","67","0.00",,,,"71","30.10","FEW:02 250","29.62","10.00","61","010",,"7",,,,,,,,,,,,,,,,,,,,,,,,,,,,,,,,,,,,,"MET10309/01/20 23:53:02 METAR KSEA 020753Z 01006KT 10SM FEW250 19/14 A3009 RMK AO2 SLP192 T01940139 402720133","FM-15","7",,,,,,,,,,,,,,,,,,,,,,,,,,,"2007-05-17"
"72793024233","2020-09-01T23:59:00","SOD  ","6",,,,,,,,,,,,,,,,,"54","69","62","30.16","29.67","60","5.6","4","4.6","0","81","56","290","20","0.00","0","0.0","290","15",,,,,,,,,,,,,,,,,,,,,,,,,,,,,,,,,,,,,,,,,,,,,,,,,,,,,,,,"SOD73924 HR PRECIPITATION (IN): 0.00 SNOW DEPTH (IN):0     24 HR SNOWFALL (IN):0.0  24 HR MAX TEMP (F): 8124 HR MIN TEMP (F): 56AVERAGE STATION PRESSURE:29.670 MINIMUM SEA LEVEL PRESSURE:30.10 TIME OF OCCURRENCE:2359 PEAK WIND SPEED (MPH): 19 PEAK WIND DIR (DEG): 10 PEAK WIND TIME (LST):      FASTEST 2MIN SPEED (MPH): 15FASTEST 2MIN DIR (DEG):290 FASTEST 2MIN TIME (LST):     AVERAGE WIND SPEED (MPH): 5.6 24 HR AVG TEMP (F): 69DEPART FROM NORMAL:  5  HEATING DEGREE DAYS:  0 COOLING DEGREE DAYS:  4 LATEST DAY MAX TEMP (0700-1900 LST):81  LATEST NIGHT MIN TEMP(1900-0800 LST):56 HOURLY INCREMENTAL PRECIPITATION VALUES (IN):.00 0.00 0.00 0.00 0.00 0.00 0.00 0.00 0.00 0.00 0.00 0.00 0.00 0.00 0.00 0.00 0.00 0.00 0.00 0.00 0.00 0.00 0.00 0.00","SOD  ","6",,,,,,,,,,,,,,,,,,,,,,,,,"0529","1848","2007-05-17"
"72793024233","2020-09-02T00:53:00","FM-15","7",,,,,,,,,,,,,,,,,,,,,,,,,,,,,,,,,,,,,,,"30.08","56","64","0.00",,"+0.01","8","75","30.09","CLR:00","29.61","10.00","59","280",,"3",,,,,,,,,,,,,,,,,,,,,,,,,,,,,,,,,,,,,"MET10109/02/20 00:53:02 METAR KSEA 020853Z 28003KT 10SM CLR 18/13 A3008 RMK AO2 SLP190 T01780133 58005 (TL)","FM-15","7",,,,,,,,,,,,,,,,,,,,,,,,,,,"2007-05-17"
"72793024233","2020-09-02T01:53:00","FM-15","7",,,,,,,,,,,,,,,,,,,,,,,,,,,,,,,,,,,,,,,"30.06","56","62","0.00",,,,"80","30.08","CLR:00","29.59","10.00","59","000",,"0",,,,,,,,,,,,,,,,,,,,,,,,,,,,,,,,,,,,,"MET09509/02/20 01:53:02 METAR KSEA 020953Z 00000KT 10SM CLR 17/13 A3006 RMK AO2 SLP185 T01670133 (TL)","FM-15","7",,,,,,,,,,,,,,,,,,,,,,,,,,,"2007-05-17"
"72793024233","2020-09-02T02:53:00","FM-15","7",,,,,,,,,,,,,,,,,,,,,,,,,,,,,,,,,,,,,,,"30.06","54","59","0.00",,,,"83","30.07","FEW:02 250","29.59","10.00","56","000",,"0",,,,,,,,,,,,,,,,,,,,,,,,,,,,,,,,,,,,,"MET09809/02/20 02:53:02 METAR KSEA 021053Z 00000KT 10SM FEW250 15/12 A3006 RMK AO2 SLP184 T01500122 (TL)","FM-15","7",,,,,,,,,,,,,,,,,,,,,,,,,,,"2007-05-17"
"72793024233","2020-09-02T03:53:00","FM-15","7",,,,,,,,,,,,,,,,,,,,,,,,,,,,,,,,,,,,,,,"30.06","55","60","0.00",,"+0.01","5","84","30.08","SCT:04 250","29.59","10.00","57","000",,"0",,,,,,,,,,,,,,,,,,,,,,,,,,,,,,,,,,,,,"MET11609/02/20 03:53:02 METAR KSEA 021153Z 00000KT 10SM SCT250 16/13 A3006 RMK AO2 SLP185 T01560128 10200 20144 55005 (TL)","FM-15","7",,,,,,,,,,,,,,,,,,,,,,,,,,,"2007-05-17"
"72793024233","2020-09-02T04:00:00","FM-12","4",,,,,,,,,,,,,,,,,,,,,,,,,,,,,,,,,,,,,,,,"55","60",,,"+0.01","5","84","30.08",,"29.58","9.94","57","000",,"0",,,,,,,,,,,,,,,,,,,,,,,,,,,,,,,,,,,,,"SYN08072793 32966 40000 10156 20128 30016 40185 55005 91153 333 10272 20144 555 90212=","FM-12","4",,,,,,,,,,,,,,,,,,,,,,,,,,,"2007-05-17"
"72793024233","2020-09-02T04:53:00","FM-15","7",,,,,,,,,,,,,,,,,,,,,,,,,,,,,,,,,,,,,,,"30.07","54","57","0.00",,,,"90","30.09","FEW:02 250","29.60","10.00","55","330",,"3",,,,,,,,,,,,,,,,,,,,,,,,,,,,,,,,,,,,,"MET09809/02/20 04:53:02 METAR KSEA 021253Z 33003KT 10SM FEW250 14/12 A3007 RMK AO2 SLP188 T01390122 (JC)","FM-15","7",,,,,,,,,,,,,,,,,,,,,,,,,,,"2007-05-17"
"72793024233","2020-09-02T05:42:00","FM-16","7",,,,,,,,,,,,,,,,,,,,,,,,,,,,,,,,,,,,,,,"30.08","54","58",,,,,"87",,"FEW:02 1 FEW:02 250","29.61","10.00","56","000",,"0",,,,,,,,,,,,,,,,,,,,,,,,,,,,,,,,,,,,,"MET10809/02/20 05:42:02 SPECI KSEA 021342Z 00000KT 10SM FEW001 FEW250 14/12 A3008 RMK AO2 FG BANK W T01440122 (JC)","FM-16","7",,,,,,,,,,,,,,,,,,,,,,,,,,,"2007-05-17"
"72793024233","2020-09-02T05:53:00","FM-15","7",,,,,,,,,,,,,,,,,,,,,,,,,,,,,,,,,,,,,,,"30.09","54","57","0.00",,,,"90","30.10","FEW:02 1 FEW:02 250","29.62","10.00","55","000",,"0",,,,,,,,,,,,,,,,,,,,,,,,,,,,,,,,,,,,,"MET11509/02/20 05:53:02 METAR KSEA 021353Z 00000KT 10SM FEW001 FEW250 14/12 A3009 RMK AO2 SLP193 FG BANK W T01390122 (JC)","FM-15","7",,,,,,,,,,,,,,,,,,,,,,,,,,,"2007-05-17"
"72793024233","2020-09-02T06:53:00","FM-15","7",,,,,,,,,,,,,,,,,,,,,,,,,,,,,,,,,,,,,,,"30.09","57","62","0.00",,"-0.03","1","84","30.11","FEW:02 60 FEW:02 250","29.62","10.00","59","170",,"3",,,,,,,,,,,,,,,,,,,,,,,,,,,,,,,,,,,,,"MET11109/02/20 06:53:02 METAR KSEA 021453Z 17003KT 10SM FEW060 FEW250 17/14 A3009 RMK AO2 SLP195 T01670139 51009 (JC)","FM-15","7",,,,,,,,,,,,,,,,,,,,,,,,,,,"2007-05-17"
"72793024233","2020-09-02T07:53:00","FM-15","7",,,,,,,,,,,,,,,,,,,,,,,,,,,,,,,,,,,,,,,"30.10","57","65","0.00",,,,"76","30.11","FEW:02 60","29.63","10.00","60","170",,"5",,,,,,,,,,,,,,,,,,,,,,,,,,,,,,,,,,,,,"MET09809/02/20 07:53:02 METAR KSEA 021553Z 17004KT 10SM FEW060 18/14 A3010 RMK AO2 SLP196 T01830139 (JC)","FM-15","7",,,,,,,,,,,,,,,,,,,,,,,,,,,"2007-05-17"
"72793024233","2020-09-02T08:53:00","FM-15","7",,,,,,,,,,,,,,,,,,,,,,,,,,,,,,,,,,,,,,,"30.10","57","68","0.00",,,,"68","30.11","FEW:02 60","29.63","10.00","62","170",,"7",,,,,,,,,,,,,,,,,,,,,,,,,,,,,,,,,,,,,"MET09809/02/20 08:53:02 METAR KSEA 021653Z 17006KT 10SM FEW060 20/14 A3010 RMK AO2 SLP195 T02000139 (JC)","FM-15","7",,,,,,,,,,,,,,,,,,,,,,,,,,,"2007-05-17"
"72793024233","2020-09-02T09:53:00","FM-15","7",,,,,,,,,,,,,,,,,,,,,,,,,,,,,,,,,,,,,,,"30.11","57","70","0.00",,"-0.01","3","64","30.12","FEW:02 60","29.64","10.00","62","000",,"0",,,,,,,,,,,,,,,,,,,,,,,,,,,,,,,,,,,,,"MET11609/02/20 09:53:02 METAR KSEA 021753Z 00000KT 10SM FEW060 21/14 A3011 RMK AO2 SLP200 T02110139 10217 20139 53005 (JC)","FM-15","7",,,,,,,,,,,,,,,,,,,,,,,,,,,"2007-05-17"
"72793024233","2020-09-02T10:00:00","FM-12","4",,,,,,,,,,,,,,,,,,,,,,,,,,,,,,,,,,,,,,,,"57","70",,,"-0.01","3","64","30.12","57","29.63","9.94","62","000",,"0",,,,,,,,,,,,,,,,,,,,,,,,,,,,,,,,,,,,,"SYN08072793 32766 20000 10211 20139 30033 40200 53005 91753 333 10217 20139 555 90218=","FM-12","4",,,,,,,,,,,,,,,,,,,,,,,,,,,"2007-05-17"
"72793024233","2020-09-02T10:53:00","FM-15","7",,,,,,,,,,,,,,,,,,,,,,,,,,,,,,,,,,,,,,,"30.11","58","75","0.00",,,,"55","30.11","FEW:02 50","29.64","10.00","65","VRB",,"5",,,,,,,,,,,,,,,,,,,,,,,,,,,,,,,,,,,,,"MET09809/02/20 10:53:02 METAR KSEA 021853Z VRB04KT 10SM FEW050 24/14 A3011 RMK AO2 SLP198 T02390144 (JC)","FM-15","7",,,,,,,,,,,,,,,,,,,,,,,,,,,"2007-05-17"
"72793024233","2020-09-02T11:53:00","FM-15","7",,,,,,,,,,,,,,,,,,,,,,,,,,,,,,,,,,,,,,,"30.11","59","77","0.00",,,,"54","30.11","FEW:02 50","29.64","10.00","66","290",,"6",,,,,,,,,,,,,,,,,,,,,,,,,,,,,,,,,,,,,"MET09809/02/20 11:53:02 METAR KSEA 021953Z 29005KT 10SM FEW050 25/15 A3011 RMK AO2 SLP198 T02500150 (JC)","FM-15","7",,,,,,,,,,,,,,,,,,,,,,,,,,,"2007-05-17"
"72793024233","2020-09-02T12:53:00","FM-15","7",,,,,,,,,,,,,,,,,,,,,,,,,,,,,,,,,,,,,,,"30.10","59","76","0.00",,"+0.01","6","56","30.12","FEW:02 50 FEW:02 250","29.63","10.00","66","300",,"10",,,,,,,,,,,,,,,,,,,,,,,,,,,,,,,,,,,,,"MET11109/02/20 12:53:02 METAR KSEA 022053Z 30009KT 10SM FEW050 FEW250 24/15 A3010 RMK AO2 SLP199 T02440150 56002 (JC)","FM-15","7",,,,,,,,,,,,,,,,,,,,,,,,,,,"2007-05-17"
"72793024233","2020-09-02T13:53:00","FM-15","7",,,,,,,,,,,,,,,,,,,,,,,,,,,,,,,,,,,,,,,"30.10","60","80","0.00",,,,"51","30.11","FEW:02 50 FEW:02 250","29.63","10.00","67","340",,"9",,,,,,,,,,,,,,,,,,,,,,,,,,,,,,,,,,,,,"MET10509/02/20 13:53:02 METAR KSEA 022153Z 34008KT 10SM FEW050 FEW250 27/16 A3010 RMK AO2 SLP197 T02670156 (RS)","FM-15","7",,,,,,,,,,,,,,,,,,,,,,,,,,,"2007-05-17"
"72793024233","2020-09-02T14:53:00","FM-15","7",,,,,,,,,,,,,,,,,,,,,,,,,,,,,,,,,,,,,,,"30.10","60","80","0.00",,,,"51","30.11","FEW:02 50 FEW:02 250","29.63","10.00","67","350",,"13",,,,,,,,,,,,,,,,,,,,,,,,,,,,,,,,,,,,,"MET10509/02/20 14:53:02 METAR KSEA 022253Z 35011KT 10SM FEW050 FEW250 27/16 A3010 RMK AO2 SLP197 T02670156 (RS)","FM-15","7",,,,,,,,,,,,,,,,,,,,,,,,,,,"2007-05-17"
"72793024233","2020-09-02T15:53:00","FM-15","7",,,,,,,,,,,,,,,,,,,,,,,,,,,,,,,,,,,,,,,"30.10","58","78","0.00",,"+0.01","8","50","30.11","FEW:02 50","29.63","10.00","66","340",,"14",,,,,,,,,,,,,,,,,,,,,,,,,,,,,,,,,,,,,"MET11609/02/20 15:53:02 METAR KSEA 022353Z 34012KT 10SM FEW050 26/14 A3010 RMK AO2 SLP196 T02560144 10272 20211 58003 (RS)","FM-15","7",,,,,,,,,,,,,,,,,,,,,,,,,,,"2007-05-17"
"72793024233","2020-09-02T16:00:00","FM-12","4",,,,,,,,,,,,,,,,,,,,,,,,,,,,,,,,,,,,,,,,"58","78",,,"+0.01","8","50","30.11","57","29.62","9.94","66","340",,"14",,,,,,,,,,,,,,,,,,,,,,,,,,,,,,,,,,,,,"SYN08072793 32766 23412 10256 20144 30029 40196 58003 92353 333 10272 20144 555 90300=","FM-12","4",,,,,,,,,,,,,,,,,,,,,,,,,,,"2007-05-17"
"72793024233","2020-09-02T16:53:00","FM-15","7",,,,,,,,,,,,,,,,,,,,,,,,,,,,,,,,,,,,,,,"30.09","57","77","0.00",,,,"50","30.11","FEW:02 50 FEW:02 250","29.62","10.00","65","350",,"13",,,,,,,,,,,,,,,,,,,,,,,,,,,,,,,,,,,,,"MET10009/02/20 16:53:01 METAR KSEA 030053Z 35011KT 10SM FEW050 FEW250 25/14 A3009 RMK AO2 SLP195 T02500139","FM-15","7",,,,,,,,,,,,,,,,,,,,,,,,,,,"2007-05-17"
"72793024233","2020-09-02T17:53:00","FM-15","7",,,,,,,,,,,,,,,,,,,,,,,,,,,,,,,,,,,,,,,"30.10","58","75","0.00",,,,"55","30.11","FEW:02 50 SCT:04 250","29.63","10.00","65","350",,"10",,,,,,,,,,,,,,,,,,,,,,,,,,,,,,,,,,,,,"MET10009/02/20 17:53:01 METAR KSEA 030153Z 35009KT 10SM FEW050 SCT250 24/14 A3010 RMK AO2 SLP196 T02390144","FM-15","7",,,,,,,,,,,,,,,,,,,,,,,,,,,"2007-05-17"
"72793024233","2020-09-02T18:53:00","FM-15","7",,,,,,,,,,,,,,,,,,,,,,,,,,,,,,,,,,,,,,,"30.11","57","71","0.00",,"-0.01","3","61","30.12","FEW:02 50 SCT:04 250","29.64","10.00","63","350",,"8",,,,,,,,,,,,,,,,,,,,,,,,,,,,,,,,,,,,,"MET10609/02/20 18:53:01 METAR KSEA 030253Z 35007KT 10SM FEW050 SCT250 22/14 A3011 RMK AO2 SLP200 T02170139 53004","FM-15","7",,,,,,,,,,,,,,,,,,,,,,,,,,,"2007-05-17"
"72793024233","2020-09-02T19:53:00","FM-15","7",,,,,,,,,,,,,,,,,,,,,,,,,,,,,,,,,,,,,,,"30.12","57","68","0.00",,,,"68","30.13","FEW:02 50 SCT:04 250","29.65","10.00","62","350",,"8",,,,,,,,,,,,,,,,,,,,,,,,,,,,,,,,,,,,,"MET10009/02/20 19:53:02 METAR KSEA 030353Z 35007KT 10SM FEW050 SCT250 20/14 A3012 RMK AO2 SLP203 T02000139","FM-15","7",,,,,,,,,,,,,,,,,,,,,,,,,,,"2007-05-17"
"72793024233","2020-09-02T20:53:00","FM-15","7",,,,,,,,,,,,,,,,,,,,,,,,,,,,,,,,,,,,,,,"30.12","56","67","0.00",,,,"68","30.13","FEW:02 50 SCT:04 250","29.65","10.00","61","010",,"13",,,,,,,,,,,,,,,,,,,,,,,,,,,,,,,,,,,,,"MET10009/02/20 20:53:02 METAR KSEA 030453Z 01011KT 10SM FEW050 SCT250 19/13 A3012 RMK AO2 SLP204 T01940133","FM-15","7",,,,,,,,,,,,,,,,,,,,,,,,,,,"2007-05-17"
"72793024233","2020-09-02T21:53:00","FM-15","7",,,,,,,,,,,,,,,,,,,,,,,,,,,,,,,,,,,,,,,"30.13","57","66","0.00",,"-0.02","1","73","30.14","FEW:02 50 SCT:04 250","29.66","10.00","61","020",,"11",,,,,,,,,,,,,,,,,,,,,,,,,,,,,,,,,,,,,"MET11809/02/20 21:53:02 METAR KSEA 030553Z 02010KT 10SM FEW050 SCT250 19/14 A3013 RMK AO2 SLP207 T01890139 10261 20189 51007","FM-15","7",,,,,,,,,,,,,,,,,,,,,,,,,,,"2007-05-17"
"72793024233","2020-09-02T22:00:00","FM-12","4",,,,,,,,,,,,,,,,,,,,,,,,,,,,,,,,,,,,,,,,"57","66",,,"-0.02","1","73","30.14","57","29.65","9.94","61","020",,"11",,,,,,,,,,,,,,,,,,,,,,,,,,,,,,,,,,,,,"SYN08072793 32766 40210 10189 20139 30039 40207 51007 90553 333 10261 20144 555 90306=","FM-12","4",,,,,,,,,,,,,,,,,,,,,,,,,,,"2007-05-17"
"72793024233","2020-09-02T22:53:00","FM-15","7",,,,,,,,,,,,,,,,,,,,,,,,,,,,,,,,,,,,,,,"30.13","56","65","0.00",,,,"73","30.14","FEW:02 250","29.66","10.00","60","010",,"13",,,,,,,,,,,,,,,,,,,,,,,,,,,,,,,,,,,,,"MET09309/02/20 22:53:02 METAR KSEA 030653Z 01011KT 10SM FEW250 18/13 A3013 RMK AO2 SLP208 T01830133","FM-15","7",,,,,,,,,,,,,,,,,,,,,,,,,,,"2007-05-17"
"72793024233","2020-09-02T23:53:00","FM-15","7",,,,,,,,,,,,,,,,,,,,,,,,,,,,,,,,,,,,,,,"30.13","56","64","0.00",,,,"75","30.14","FEW:02 250","29.66","10.00","59","010",,"9",,,,,,,,,,,,,,,,,,,,,,,,,,,,,,,,,,,,,"MET10309/02/20 23:53:02 METAR KSEA 030753Z 01008KT 10SM FEW250 18/13 A3013 RMK AO2 SLP207 T01780133 402720139","FM-15","7",,,,,,,,,,,,,,,,,,,,,,,,,,,"2007-05-17"
"72793024233","2020-09-02T23:59:00","SOD  ","6",,,,,,,,,,,,,,,,,"57","69","68","30.11","29.62","62","6.8","4","4.7","0","81","57","340","20","0.00","0","0.0","350","17",,,,,,,,,,,,,,,,,,,,,,,,,,,,,,,,,,,,,,,,,,,,,,,,,,,,,,,,"SOD73924 HR PRECIPITATION (IN): 0.00 SNOW DEPTH (IN):0     24 HR SNOWFALL (IN):0.0  24 HR MAX TEMP (F): 8124 HR MIN TEMP (F): 57AVERAGE STATION PRESSURE:29.625 MINIMUM SEA LEVEL PRESSURE:30.07 TIME OF OCCURRENCE:0424 PEAK WIND SPEED (MPH): 20 PEAK WIND DIR (DEG):340 PEAK WIND TIME (LST):      FASTEST 2MIN SPEED (MPH): 17FASTEST 2MIN DIR (DEG):350 FASTEST 2MIN TIME (LST):     AVERAGE WIND SPEED (MPH): 6.8 24 HR AVG TEMP (F): 69DEPART FROM NORMAL:  5  HEATING DEGREE DAYS:  0 COOLING DEGREE DAYS:  4 LATEST DAY MAX TEMP (0700-1900 LST):81  LATEST NIGHT MIN TEMP(1900-0800 LST):57 HOURLY INCREMENTAL PRECIPITATION VALUES (IN):.00 0.00 0.00 0.00 0.00 0.00 0.00 0.00 0.00 0.00 0.00 0.00 0.00 0.00 0.00 0.00 0.00 0.00 0.00 0.00 0.00 0.00 0.00 0.00","SOD  ","6",,,,,,,,,,,,,,,,,,,,,,,,,"0530","1846","2007-05-17"
"72793024233","2020-09-03T00:53:00","FM-15","7",,,,,,,,,,,,,,,,,,,,,,,,,,,,,,,,,,,,,,,"30.13","55","62","0.00",,"-0.00","1","78","30.14","SCT:04 250","29.66","10.00","58","020",,"10",,,,,,,,,,,,,,,,,,,,,,,,,,,,,,,,,,,,,"MET10409/03/20 00:53:02 METAR KSEA 030853Z 02009KT 10SM SCT250 17/13 A3013 RMK AO2 SLP208 T01670128 51001 (TL)","FM-15","7",,,,,,,,,,,,,,,,,,,,,,,,,,,"2007-05-17"
"72793024233","2020-09-03T01:53:00","FM-15","7",,,,,,,,,,,,,,,,,,,,,,,,,,,,,,,,,,,,,,,"30.13","54","60","0.00",,,,"80","30.14","FEW:02 250","29.66","10.00","57","350",,"10",,,,,,,,,,,,,,,,,,,,,,,,,,,,,,,,,,,,,"MET09809/03/20 01:53:02 METAR KSEA 030953Z 35009KT 10SM FEW250 16/12 A3013 RMK AO2 SLP208 T01560122 (TL)","FM-15","7",,,,,,,,,,,,,,,,,,,,,,,,,,,"2007-05-17"
"72793024233","2020-09-03T02:53:00","FM-15","7",,,,,,,,,,,,,,,,,,,,,,,,,,,,,,,,,,,,,,,"30.13","55","60","0.00",,,,"84","30.14","FEW:02 250","29.66","10.00","57","360",,"9",,,,,,,,,,,,,,,,,,,,,,,,,,,,,,,,,,,,,"MET09809/03/20 02:53:02 METAR KSEA 031053Z 36008KT 10SM FEW250 16/13 A3013 RMK AO2 SLP206 T01560128 (TL)","FM-15","7",,,,,,,,,,,,,,,,,,,,,,,,,,,"2007-05-17"
"72793024233","2020-09-03T03:53:00","FM-15","7",,,,,,,,,,,,,,,,,,,,,,,,,,,,,,,,,,,,,,,"30.12","54","58","0.00",,"+0.01","8","87","30.14","SCT:04 250","29.65","10.00","56","300",,"3",,,,,,,,,,,,,,,,,,,,,,,,,,,,,,,,,,,,,"MET11609/03/20 03:53:02 METAR KSEA 031153Z 30003KT 10SM SCT250 14/12 A3012 RMK AO2 SLP205 T01440122 10189 20144 58002 (TL)","FM-15","7",,,,,,,,,,,,,,,,,,,,,,,,,,,"2007-05-17"
"72793024233","2020-09-03T04:00:00","FM-12","4",,,,,,,,,,,,,,,,,,,,,,,,,,,,,,,,,,,,,,,,"54","58",,,"+0.01","8","87","30.14",,"29.64","9.94","56","300",,"3",,,,,,,,,,,,,,,,,,,,,,,,,,,,,,,,,,,,,"SYN08072793 32966 43003 10144 20122 30036 40205 58002 91153 333 10272 20144 555 90312=","FM-12","4",,,,,,,,,,,,,,,,,,,,,,,,,,,"2007-05-17"
"72793024233","2020-09-03T04:53:00","FM-15","7",,,,,,,,,,,,,,,,,,,,,,,,,,,,,,,,,,,,,,,"30.12","54","58","0.00",,,,"87","30.13","SCT:04 250","29.65","10.00","56","350",,"5",,,,,,,,,,,,,,,,,,,,,,,,,,,,,,,,,,,,,"MET09809/03/20 04:53:02 METAR KSEA 031253Z 35004KT 10SM SCT250 14/12 A3012 RMK AO2 SLP204 T01440122 (LC)","FM-15","7",,,,,,,,,,,,,,,,,,,,,,,,,,,"2007-05-17"
"72793024233","2020-09-03T05:53:00","FM-15","7",,,,,,,,,,,,,,,,,,,,,,,,,,,,,,,,,,,,,,,"30.14","54","57","0.00",,,,"90","30.15","FEW:02 70","29.67","10.00","55","340",,"3",,,,,,,,,,,,,,,,,,,,,,,,,,,,,,,,,,,,,"MET09809/03/20 05:53:02 METAR KSEA 031353Z 34003KT 10SM FEW070 14/12 A3014 RMK AO2 SLP209 T01390122 (LC)","FM-15","7",,,,,,,,,,,,,,,,,,,,,,,,,,,"2007-05-17"
"72793024233","2020-09-03T06:53:00","FM-15","7",,,,,,,,,,,,,,,,,,,,,,,,,,,,,,,,,,,,,,,"30.15","56","61","0.00",,"-0.02","3","84","30.16","FEW:02 70","29.68","10.00","58","010",,"6",,,,,,,,,,,,,,,,,,,,,,,,,,,,,,,,,,,,,"MET10409/03/20 06:53:02 METAR KSEA 031453Z 01005KT 10SM FEW070 16/13 A3015 RMK AO2 SLP213 T01610133 53008 (LC)","FM-15","7",,,,,,,,,,,,,,,,,,,,,,,,,,,"2007-05-17"
"72793024233","2020-09-03T07:53:00","FM-15","7",,,,,,,,,,,,,,,,,,,,,,,,,,,,,,,,,,,,,,,"30.16","57","65","0.00",,,,"76","30.17","FEW:02 100","29.69","10.00","60","360",,"5",,,,,,,,,,,,,,,,,,,,,,,,,,,,,,,,,,,,,"MET09809/03/20 07:53:02 METAR KSEA 031553Z 36004KT 10SM FEW100 18/14 A3016 RMK AO2 SLP217 T01830139 (LC)","FM-15","7",,,,,,,,,,,,,,,,,,,,,,,,,,,"2007-05-17"
"72793024233","2020-09-03T08:53:00","FM-15","7",,,,,,,,,,,,,,,,,,,,,,,,,,,,,,,,,,,,,,,"30.16","56","70","0.00",,,,"61","30.17","FEW:02 250","29.69","10.00","62","350",,"7",,,,,,,,,,,,,,,,,,,,,,,,,,,,,,,,,,,,,"MET09809/03/20 08:53:02 METAR KSEA 031653Z 35006KT 10SM FEW250 21/13 A3016 RMK AO2 SLP216 T02110133 (LC)","FM-15","7",,,,,,,,,,,,,,,,,,,,,,,,,,,"2007-05-17"
"72793024233","2020-09-03T09:53:00","FM-15","7",,,,,,,,,,,,,,,,,,,,,,,,,,,,,,,,,,,,,,,"30.16","55","73","0.00",,"-0.01","0","53","30.17","FEW:02 250","29.69","10.00","62","360",,"9",,,,,,,,,,,,,,,,,,,,,,,,,,,,,,,,,,,,,"MET11609/03/20 09:53:02 METAR KSEA 031753Z 36008KT 10SM FEW250 23/13 A3016 RMK AO2 SLP216 T02280128 10228 20133 50003 (LC)","FM-15","7",,,,,,,,,,,,,,,,,,,,,,,,,,,"2007-05-17"
"72793024233","2020-09-03T10:00:00","FM-12","4",,,,,,,,,,,,,,,,,,,,,,,,,,,,,,,,,,,,,,,,"55","73",,,"0.01","9","53","30.17",,"29.68","9.94","62","360",,"9",,,,,,,,,,,,,,,,,,,,,,,,,,,,,,,,,,,,,"SYN08072793 32966 23608 10228 20128 30050 40216 50003 91753 333 10228 20133 555 90318=","FM-12","4",,,,,,,,,,,,,,,,,,,,,,,,,,,"2007-05-17"
"72793024233","2020-09-03T10:53:00","FM-15","7",,,,,,,,,,,,,,,,,,,,,,,,,,,,,,,,,,,,,,,"30.14","54","76","0.00",,,,"47","30.15","CLR:00","29.67","10.00","63","020",,"10",,,,,,,,,,,,,,,,,,,,,,,,,,,,,,,,,,,,,"MET09509/03/20 10:53:02 METAR KSEA 031853Z 02009KT 10SM CLR 24/12 A3014 RMK AO2 SLP211 T02440122 (LC)","FM-15","7",,,,,,,,,,,,,,,,,,,,,,,,,,,"2007-05-17"
"72793024233","2020-09-03T11:53:00","FM-15","7",,,,,,,,,,,,,,,,,,,,,,,,,,,,,,,,,,,,,,,"30.13","54","80","0.00",,,,"41","30.14","CLR:00","29.66","10.00","64","010",,"13",,,,,,,,,,,,,,,,,,,,,,,,,,,,,,,,,,,,,"MET09509/03/20 11:53:02 METAR KSEA 031953Z 01011KT 10SM CLR 27/12 A3013 RMK AO2 SLP208 T02670122 (LC)","FM-15","7",,,,,,,,,,,,,,,,,,,,,,,,,,,"2007-05-17"
"72793024233","2020-09-03T12:53:00","FM-15","7",,,,,,,,,,,,,,,,,,,,,,,,,,,,,,,,,,,,,,,"30.11","56","82","0.00",,"+0.04","8","41","30.12","FEW:02 250","29.64","10.00","66","350",,"11",,,,,,,,,,,,,,,,,,,,,,,,,,,,,,,,,,,,,"MET10409/03/20 12:53:02 METAR KSEA 032053Z 35010KT 10SM FEW250 28/13 A3011 RMK AO2 SLP201 T02780133 58014 (LC)","FM-15","7",,,,,,,,,,,,,,,,,,,,,,,,,,,"2007-05-17"
"72793024233","2020-09-03T13:53:00","FM-15","7",,,,,,,,,,,,,,,,,,,,,,,,,,,,,,,,,,,,,,,"30.10","55","83","0.00",,,,"38","30.11","FEW:02 250","29.63","10.00","66","350","22","14",,,,,,,,,,,,,,,,,,,,,,,,,,,,,,,,,,,,,"MET10109/03/20 13:53:02 METAR KSEA 032153Z 35012G19KT 10SM FEW250 28/13 A3010 RMK AO2 SLP196 T02830128 (RS)","FM-15","7",,,,,,,,,,,,,,,,,,,,,,,,,,,"2007-05-17"
"72793024233","2020-09-03T14:53:00","FM-15","7",,,,,,,,,,,,,,,,,,,,,,,,,,,,,,,,,,,,,,,"30.08","55","83","0.00",,,,"38","30.09","FEW:02 250","29.61","10.00","66","350",,"13",,,,,,,,,,,,,,,,,,,,,,,,,,,,,,,,,,,,,"MET09809/03/20 14:53:02 METAR KSEA 032253Z 35011KT 10SM FEW250 28/13 A3008 RMK AO2 SLP190 T02830128 (RS)","FM-15","7",,,,,,,,,,,,,,,,,,,,,,,,,,,"2007-05-17"
"72793024233","2020-09-03T15:53:00","FM-15","7",,,,,,,,,,,,,,,,,,,,,,,,,,,,,,,,,,,,,,,"30.06","55","82","0.00",,"+0.05","8","40","30.07","SCT:04 250","29.59","10.00","66","350",,"15",,,,,,,,,,,,,,,,,,,,,,,,,,,,,,,,,,,,,"MET11609/03/20 15:53:02 METAR KSEA 032353Z 35013KT 10SM SCT250 28/13 A3006 RMK AO2 SLP184 T02780128 10289 20228 58017 (RS)","FM-15","7",,,,,,,,,,,,,,,,,,,,,,,,,,,"2007-05-17"
"72793024233","2020-09-03T16:00:00","FM-12","4",,,,,,,,,,,,,,,,,,,,,,,,,,,,,,,,,,,,,,,,"55","82",,,"+0.05","8","40","30.07",,"29.58","9.94","66","350",,"15",,,,,,,,,,,,,,,,,,,,,,,,,,,,,,,,,,,,,"SYN08072793 32966 43513 10278 20128 30016 40184 58017 92353 333 10289 20144 555 90400=","FM-12","4",,,,,,,,,,,,,,,,,,,,,,,,,,,"2007-05-17"
"72793024233","2020-09-03T16:53:00","FM-15","7",,,,,,,,,,,,,,,,,,,,,,,,,,,,,,,,,,,,,,,"30.04","55","80","0.00",,,,"42","30.06","SCT:04 250","29.57","10.00","65","340",,"14",,,,,,,,,,,,,,,,,,,,,,,,,,,,,,,,,,,,,"MET09309/03/20 16:53:01 METAR KSEA 040053Z 34012KT 10SM SCT250 27/13 A3004 RMK AO2 SLP178 T02670128","FM-15","7",,,,,,,,,,,,,,,,,,,,,,,,,,,"2007-05-17"
"72793024233","2020-09-03T17:53:00","FM-15","7",,,,,,,,,,,,,,,,,,,,,,,,,,,,,,,,,,,,,,,"30.03","55","77","0.00",,,,"47","30.04","SCT:04 250","29.56","10.00","64","350",,"11",,,,,,,,,,,,,,,,,,,,,,,,,,,,,,,,,,,,,"MET09309/03/20 17:53:01 METAR KSEA 040153Z 35010KT 10SM SCT250 25/13 A3003 RMK AO2 SLP174 T02500128","FM-15","7",,,,,,,,,,,,,,,,,,,,,,,,,,,"2007-05-17"
"72793024233","2020-09-03T18:53:00","FM-15","7",,,,,,,,,,,,,,,,,,,,,,,,,,,,,,,,,,,,,,,"30.03","54","73","0.00",,"+0.03","6","51","30.04","SCT:04 250","29.56","10.00","62","350",,"9",,,,,,,,,,,,,,,,,,,,,,,,,,,,,,,,,,,,,"MET09909/03/20 18:53:02 METAR KSEA 040253Z 35008KT 10SM SCT250 23/12 A3003 RMK AO2 SLP173 T02280122 56011","FM-15","7",,,,,,,,,,,,,,,,,,,,,,,,,,,"2007-05-17"
"72793024233","2020-09-03T19:53:00","FM-15","7",,,,,,,,,,,,,,,,,,,,,,,,,,,,,,,,,,,,,,,"30.04","53","71","0.00",,,,"53","30.05","SCT:04 250","29.57","10.00","61","350",,"9",,,,,,,,,,,,,,,,,,,,,,,,,,,,,,,,,,,,,"MET09309/03/20 19:53:02 METAR KSEA 040353Z 35008KT 10SM SCT250 22/12 A3004 RMK AO2 SLP176 T02170117","FM-15","7",,,,,,,,,,,,,,,,,,,,,,,,,,,"2007-05-17"
"72793024233","2020-09-03T20:53:00","FM-15","7",,,,,,,,,,,,,,,,,,,,,,,,,,,,,,,,,,,,,,,"30.04","53","68","0.00",,,,"59","30.06","FEW:02 250","29.57","10.00","59","350",,"7",,,,,,,,,,,,,,,,,,,,,,,,,,,,,,,,,,,,,"MET09309/03/20 20:53:02 METAR KSEA 040453Z 35006KT 10SM FEW250 20/12 A3004 RMK AO2 SLP178 T02000117","FM-15","7",,,,,,,,,,,,,,,,,,,,,,,,,,,"2007-05-17"
"72793024233","2020-09-03T21:53:00","FM-15","7",,,,,,,,,,,,,,,,,,,,,,,,,,,,,,,,,,,,,,,"30.04","52","67","0.00",,"-0.01","0","59","30.06","FEW:02 250","29.57","10.00","59","010",,"7",,,,,,,,,,,,,,,,,,,,,,,,,,,,,,,,,,,,,"MET11109/03/20 21:53:02 METAR KSEA 040553Z 01006KT 10SM FEW250 19/11 A3004 RMK AO2 SLP178 T01940111 10283 20189 50005","FM-15","7",,,,,,,,,,,,,,,,,,,,,,,,,,,"2007-05-17"
"72793024233","2020-09-03T22:00:00","FM-12","4",,,,,,,,,,,,,,,,,,,,,,,,,,,,,,,,,,,,,,,,"52","67",,,"0.01","9","59","30.06",,"29.56","9.94","59","010",,"7",,,,,,,,,,,,,,,,,,,,,,,,,,,,,,,,,,,,,"SYN08072793 32966 20106 10194 20111 30009 40178 50005 90553 333 10283 20144 555 90406=","FM-12","4",,,,,,,,,,,,,,,,,,,,,,,,,,,"2007-05-17"
"72793024233","2020-09-03T22:53:00","FM-15","7",,,,,,,,,,,,,,,,,,,,,,,,,,,,,,,,,,,,,,,"30.03","53","68","0.00",,,,"59","30.04","CLR:00","29.56","10.00","59","040",,"8",,,,,,,,,,,,,,,,,,,,,,,,,,,,,,,,,,,,,"MET09009/03/20 22:53:02 METAR KSEA 040653Z 04007KT 10SM CLR 20/12 A3003 RMK AO2 SLP173 T02000117","FM-15","7",,,,,,,,,,,,,,,,,,,,,,,,,,,"2007-05-17"
"72793024233","2020-09-03T23:53:00","FM-15","7",,,,,,,,,,,,,,,,,,,,,,,,,,,,,,,,,,,,,,,"30.02","51","67","0.00",,,,"57","30.03","CLR:00","29.55","10.00","58","010",,"9",,,,,,,,,,,,,,,,,,,,,,,,,,,,,,,,,,,,,"MET10009/03/20 23:53:02 METAR KSEA 040753Z 01008KT 10SM CLR 19/11 A3002 RMK AO2 SLP169 T01940106 402890133","FM-15","7",,,,,,,,,,,,,,,,,,,,,,,,,,,"2007-05-17"
"72793024233","2020-09-03T23:59:00","SOD  ","6",,,,,,,,,,,,,,,,,"54","70","60","30.11","29.62","61","9.1","5","5.9","0","84","56","010","22","0.00","0","0.0","350","16",,,,,,,,,,,,,,,,,,,,,,,,,,,,,,,,,,,,,,,,,,,,,,,,,,,,,,,,"SOD73924 HR PRECIPITATION (IN): 0.00 SNOW DEPTH (IN):0     24 HR SNOWFALL (IN):0.0  24 HR MAX TEMP (F): 8424 HR MIN TEMP (F): 56AVERAGE STATION PRESSURE:29.625 MINIMUM SEA LEVEL PRESSURE:30.03 TIME OF OCCURRENCE:2359 PEAK WIND SPEED (MPH): 22 PEAK WIND DIR (DEG): 10 PEAK WIND TIME (LST):      FASTEST 2MIN SPEED (MPH): 16FASTEST 2MIN DIR (DEG):350 FASTEST 2MIN TIME (LST):     AVERAGE WIND SPEED (MPH): 9.1 24 HR AVG TEMP (F): 70DEPART FROM NORMAL:  6  HEATING DEGREE DAYS:  0 COOLING DEGREE DAYS:  5 LATEST DAY MAX TEMP (0700-1900 LST):84  LATEST NIGHT MIN TEMP(1900-0800 LST):56 HOURLY INCREMENTAL PRECIPITATION VALUES (IN):.00 0.00 0.00 0.00 0.00 0.00 0.00 0.00 0.00 0.00 0.00 0.00 0.00 0.00 0.00 0.00 0.00 0.00 0.00 0.00 0.00 0.00 0.00 0.00","SOD  ","6",,,,,,,,,,,,,,,,,,,,,,,,,"0532","1844","2007-05-17"
"72793024233","2020-09-04T00:53:00","FM-15","7",,,,,,,,,,,,,,,,,,,,,,,,,,,,,,,,,,,,,,,"30.01","52","65","0.00",,"+0.03","6","63","30.02","SCT:04 250","29.54","10.00","58","010",,"8",,,,,,,,,,,,,,,,,,,,,,,,,,,,,,,,,,,,,"MET10409/04/20 00:53:02 METAR KSEA 040853Z 01007KT 10SM SCT250 18/11 A3001 RMK AO2 SLP167 T01830111 56010 (TL)","FM-15","7",,,,,,,,,,,,,,,,,,,,,,,,,,,"2007-05-17"
"72793024233","2020-09-04T01:53:00","FM-15","7",,,,,,,,,,,,,,,,,,,,,,,,,,,,,,,,,,,,,,,"30.01","52","65","0.00",,,,"63","30.02","FEW:02 250","29.54","10.00","58","050",,"6",,,,,,,,,,,,,,,,,,,,,,,,,,,,,,,,,,,,,"MET09809/04/20 01:53:02 METAR KSEA 040953Z 05005KT 10SM FEW250 18/11 A3001 RMK AO2 SLP167 T01830111 (TL)","FM-15","7",,,,,,,,,,,,,,,,,,,,,,,,,,,"2007-05-17"
"72793024233","2020-09-04T02:53:00","FM-15","7",,,,,,,,,,,,,,,,,,,,,,,,,,,,,,,,,,,,,,,"30.01","52","64","0.00",,,,"65","30.02","CLR:00","29.54","10.00","57","050",,"5",,,,,,,,,,,,,,,,,,,,,,,,,,,,,,,,,,,,,"MET09509/04/20 02:53:02 METAR KSEA 041053Z 05004KT 10SM CLR 18/11 A3001 RMK AO2 SLP166 T01780111 (TL)","FM-15","7",,,,,,,,,,,,,,,,,,,,,,,,,,,"2007-05-17"
"72793024233","2020-09-04T03:53:00","FM-15","7",,,,,,,,,,,,,,,,,,,,,,,,,,,,,,,,,,,,,,,"30.01","53","64","0.00",,"+0.01","8","68","30.02","CLR:00","29.54","10.00","58","040",,"9",,,,,,,,,,,,,,,,,,,,,,,,,,,,,,,,,,,,,"MET11309/04/20 03:53:02 METAR KSEA 041153Z 04008KT 10SM CLR 18/12 A3001 RMK AO2 SLP165 T01780117 10206 20172 58002 (TL)","FM-15","7",,,,,,,,,,,,,,,,,,,,,,,,,,,"2007-05-17"
"72793024233","2020-09-04T04:00:00","FM-12","4",,,,,,,,,,,,,,,,,,,,,,,,,,,,,,,,,,,,,,,,"53","64",,,"+0.01","8","68","30.02",,"29.53","9.94","58","040",,"9",,,,,,,,,,,,,,,,,,,,,,,,,,,,,,,,,,,,,"SYN08072793 32966 00408 10178 20117 39999 40165 58002 91153 333 10289 20172 555 90412=","FM-12","4",,,,,,,,,,,,,,,,,,,,,,,,,,,"2007-05-17"
"72793024233","2020-09-04T04:53:00","FM-15","7",,,,,,,,,,,,,,,,,,,,,,,,,,,,,,,,,,,,,,,"30.00","54","63","0.00",,,,"73","30.01","FEW:02 250","29.53","10.00","58","050",,"9",,,,,,,,,,,,,,,,,,,,,,,,,,,,,,,,,,,,,"MET09809/04/20 04:53:02 METAR KSEA 041253Z 05008KT 10SM FEW250 17/12 A3000 RMK AO2 SLP162 T01720122 (LC)","FM-15","7",,,,,,,,,,,,,,,,,,,,,,,,,,,"2007-05-17"
"72793024233","2020-09-04T05:53:00","FM-15","7",,,,,,,,,,,,,,,,,,,,,,,,,,,,,,,,,,,,,,,"30.00","54","61","0.00",,,,"78","30.01","FEW:02 150 SCT:04 250","29.53","10.00","57","030",,"5",,,,,,,,,,,,,,,,,,,,,,,,,,,,,,,,,,,,,"MET11509/04/20 05:53:02 METAR KSEA 041353Z 03004KT 10SM FEW150 SCT250 16/12 A3000 RMK AO2 SLP162 FU FEW150 T01610122 (LC)","FM-15","7",,,,,,,,,,,,,,,,,,,,,,,,,,,"2007-05-17"
"72793024233","2020-09-04T06:53:00","FM-15","7",,,,,,,,,,,,,,,,,,,,,,,,,,,,,,,,,,,,,,,"30.01","56","65","0.00",,"-0.01","3","73","30.03","FEW:02 150 FEW:02 250","29.54","10.00","60","010",,"6",,,,,,,,,,,,,,,,,,,,,,,,,,,,,,,,,,,,,"MET12109/04/20 06:53:02 METAR KSEA 041453Z 01005KT 10SM FEW150 FEW250 18/13 A3001 RMK AO2 SLP168 FU FEW150 T01830133 53002 (LC)","FM-15","7",,,,,,,,,,,,,,,,,,,,,,,,,,,"2007-05-17"
"72793024233","2020-09-04T07:53:00","FM-15","7",,,,,,,,,,,,,,,,,,,,,,,,,,,,,,,,,,,,,,,"30.01","56","69","0.00",,,,"63","30.03","FEW:02 150 FEW:02 250","29.54","10.00","61","020",,"10",,,,,,,,,,,,,,,,,,,,,,,,,,,,,,,,,,,,,"MET11509/04/20 07:53:02 METAR KSEA 041553Z 02009KT 10SM FEW150 FEW250 21/13 A3001 RMK AO2 SLP168 FU FEW150 T02060133 (LC)","FM-15","7",,,,,,,,,,,,,,,,,,,,,,,,,,,"2007-05-17"
"72793024233","2020-09-04T08:53:00","FM-15","7",,,,,,,,,,,,,,,,,,,,,,,,,,,,,,,,,,,,,,,"30.02","56","73","0.00",,,,"55","30.03","FEW:02 150 FEW:02 250","29.55","10.00","63","360",,"7",,,,,,,,,,,,,,,,,,,,,,,,,,,,,,,,,,,,,"MET11509/04/20 08:53:02 METAR KSEA 041653Z 36006KT 10SM FEW150 FEW250 23/13 A3002 RMK AO2 SLP168 FU FEW150 T02280133 (LC)","FM-15","7",,,,,,,,,,,,,,,,,,,,,,,,,,,"2007-05-17"
"72793024233","2020-09-04T09:53:00","FM-15","7",,,,,,,,,,,,,,,,,,,,,,,,,,,,,,,,,,,,,,,"30.01","57","72","0.00",,"+0.00","8","59","30.02","FEW:02 150","29.54","10.00","63","000",,"0",,,,,,,,,,,,,,,,,,,,,,,,,,,,,,,,,,,,,"MET12609/04/20 09:53:02 METAR KSEA 041753Z 00000KT 10SM FEW150 22/14 A3001 RMK AO2 SLP167 FU FEW150 T02220139 10228 20150 58001 (LC)","FM-15","7",,,,,,,,,,,,,,,,,,,,,,,,,,,"2007-05-17"
"72793024233","2020-09-04T10:00:00","FM-12","4",,,,,,,,,,,,,,,,,,,,,,,,,,,,,,,,,,,,,,,,"57","72",,,"+0.00","8","61","30.02",,"29.53","9.94","63","000",,"0",,,,,,,,,,,,,,,,,,,,,,,,,,,,,,,,,,,,,"SYN08072793 32966 20000 10220 20140 39999 40167 58001 91753 333 10228 20150 555 90418=","FM-12","4",,,,,,,,,,,,,,,,,,,,,,,,,,,"2007-05-17"
"72793024233","2020-09-04T10:53:00","FM-15","7",,,,,,,,,,,,,,,,,,,,,,,,,,,,,,,,,,,,,,,"29.99","57","76","0.00",,,,"52","30.00","FEW:02 150 SCT:04 250","29.52","10.00","64","290",,"6",,,,,,,,,,,,,,,,,,,,,,,,,,,,,,,,,,,,,"MET11509/04/20 10:53:02 METAR KSEA 041853Z 29005KT 10SM FEW150 SCT250 24/14 A2999 RMK AO2 SLP160 FU FEW150 T02440139 (LC)","FM-15","7",,,,,,,,,,,,,,,,,,,,,,,,,,,"2007-05-17"
"72793024233","2020-09-04T11:53:00","FM-15","7",,,,,,,,,,,,,,,,,,,,,,,,,,,,,,,,,,,,,,,"29.97","57","78","0.00",,,,"48","29.98","FEW:02 150 SCT:04 250","29.50","10.00","65","280",,"9",,,,,,,,,,,,,,,,,,,,,,,,,,,,,,,,,,,,,"MET11509/04/20 11:53:02 METAR KSEA 041953Z 28008KT 10SM FEW150 SCT250 26/14 A2997 RMK AO2 SLP153 FU FEW150 T02560139 (LC)","FM-15","7",,,,,,,,,,,,,,,,,,,,,,,,,,,"2007-05-17"
"72793024233","2020-09-04T12:53:00","FM-15","7",,,,,,,,,,,,,,,,,,,,,,,,,,,,,,,,,,,,,,,"29.97","55","79","0.00",,"+0.04","6","44","29.98","FEW:02 150 BKN:07 250","29.50","10.00","65","280",,"10",,,,,,,,,,,,,,,,,,,,,,,,,,,,,,,,,,,,,"MET12109/04/20 12:53:02 METAR KSEA 042053Z 28009KT 10SM FEW150 BKN250 26/13 A2997 RMK AO2 SLP153 FU FEW150 T02610128 56013 (RS)","FM-15","7",,,,,,,,,,,,,,,,,,,,,,,,,,,"2007-05-17"
"72793024233","2020-09-04T13:53:00","FM-15","7",,,,,,,,,,,,,,,,,,,,,,,,,,,,,,,,,,,,,,,"29.97","53","82","0.00",,,,"37","29.98","FEW:02 140 BKN:07 250","29.50","10.00","65","330",,"8",,,,,,,,,,,,,,,,,,,,,,,,,,,,,,,,,,,,,"MET11509/04/20 13:53:02 METAR KSEA 042153Z 33007KT 10SM FEW140 BKN250 28/12 A2997 RMK AO2 SLP153 FU FEW140 T02780117 (RS)","FM-15","7",,,,,,,,,,,,,,,,,,,,,,,,,,,"2007-05-17"
"72793024233","2020-09-04T14:53:00","FM-15","7",,,,,,,,,,,,,,,,,,,,,,,,,,,,,,,,,,,,,,,"29.97","56","82","0.00",,,,"41","29.98","FEW:02 140 BKN:07 250","29.50","10.00","66","VRB",,"5",,,,,,,,,,,,,,,,,,,,,,,,,,,,,,,,,,,,,"MET10509/04/20 14:53:02 METAR KSEA 042253Z VRB04KT 10SM FEW140 BKN250 28/13 A2997 RMK AO2 SLP153 T02780133 (RS)","FM-15","7",,,,,,,,,,,,,,,,,,,,,,,,,,,"2007-05-17"
"72793024233","2020-09-04T15:53:00","FM-15","7",,,,,,,,,,,,,,,,,,,,,,,,,,,,,,,,,,,,,,,"29.97","57","82","0.00",,"+0.00","8","42","29.98","FEW:02 140 BKN:07 250","29.50","10.00","67","180",,"8",,,,,,,,,,,,,,,,,,,,,,,,,,,,,,,,,,,,,"MET12309/04/20 15:53:02 METAR KSEA 042353Z 18007KT 10SM FEW140 BKN250 28/14 A2997 RMK AO2 SLP152 T02780139 10283 20222 58000 (RS)","FM-15","7",,,,,,,,,,,,,,,,,,,,,,,,,,,"2007-05-17"
"72793024233","2020-09-04T16:00:00","FM-12","4",,,,,,,,,,,,,,,,,,,,,,,,,,,,,,,,,,,,,,,,"57","82",,,,,"42","29.98",,"29.49","9.94","67","180",,"8",,,,,,,,,,,,,,,,,,,,,,,,,,,,,,,,,,,,,"SYN08072793 32966 61807 10278 20139 39986 40152 58000 92353 333 10283 20172 555 90500=","FM-12","4",,,,,,,,,,,,,,,,,,,,,,,,,,,"2007-05-17"
"72793024233","2020-09-04T16:53:00","FM-15","7",,,,,,,,,,,,,,,,,,,,,,,,,,,,,,,,,,,,,,,"29.97","57","81","0.00",,,,"44","29.98","BKN:07 250","29.50","10.00","66","230",,"7",,,,,,,,,,,,,,,,,,,,,,,,,,,,,,,,,,,,,"MET09309/04/20 16:53:01 METAR KSEA 050053Z 23006KT 10SM BKN250 27/14 A2997 RMK AO2 SLP152 T02720139","FM-15","7",,,,,,,,,,,,,,,,,,,,,,,,,,,"2007-05-17"
"72793024233","2020-09-04T17:53:00","FM-15","7",,,,,,,,,,,,,,,,,,,,,,,,,,,,,,,,,,,,,,,"29.97","57","77","0.00",,,,"50","29.98","BKN:07 250","29.50","10.00","65","230",,"9",,,,,,,,,,,,,,,,,,,,,,,,,,,,,,,,,,,,,"MET09309/04/20 17:53:01 METAR KSEA 050153Z 23008KT 10SM BKN250 25/14 A2997 RMK AO2 SLP154 T02500139","FM-15","7",,,,,,,,,,,,,,,,,,,,,,,,,,,"2007-05-17"
"72793024233","2020-09-04T18:53:00","FM-15","7",,,,,,,,,,,,,,,,,,,,,,,,,,,,,,,,,,,,,,,"30.00","56","68","0.00",,"-0.03","3","65","30.01","SCT:04 250","29.53","10.00","61","240",,"10",,,,,,,,,,,,,,,,,,,,,,,,,,,,,,,,,,,,,"MET09909/04/20 18:53:01 METAR KSEA 050253Z 24009KT 10SM SCT250 20/13 A3000 RMK AO2 SLP164 T02000133 53011","FM-15","7",,,,,,,,,,,,,,,,,,,,,,,,,,,"2007-05-17"
"72793024233","2020-09-04T19:53:00","FM-15","7",,,,,,,,,,,,,,,,,,,,,,,,,,,,,,,,,,,,,,,"30.04","55","65","0.00",,,,"70","30.05","SCT:04 250","29.57","10.00","59","230",,"10",,,,,,,,,,,,,,,,,,,,,,,,,,,,,,,,,,,,,"MET09309/04/20 19:53:02 METAR KSEA 050353Z 23009KT 10SM SCT250 18/13 A3004 RMK AO2 SLP175 T01830128","FM-15","7",,,,,,,,,,,,,,,,,,,,,,,,,,,"2007-05-17"
"72793024233","2020-09-04T20:53:00","FM-15","7",,,,,,,,,,,,,,,,,,,,,,,,,,,,,,,,,,,,,,,"30.06","55","62","0.00",,,,"78","30.08","FEW:02 250","29.59","10.00","58","200",,"9",,,,,,,,,,,,,,,,,,,,,,,,,,,,,,,,,,,,,"MET09309/04/20 20:53:02 METAR KSEA 050453Z 20008KT 10SM FEW250 17/13 A3006 RMK AO2 SLP185 T01670128","FM-15","7",,,,,,,,,,,,,,,,,,,,,,,,,,,"2007-05-17"
"72793024233","2020-09-04T21:53:00","FM-15","7",,,,,,,,,,,,,,,,,,,,,,,,,,,,,,,,,,,,,,,"30.08","55","61","0.00",,"-0.07","1","81","30.09","BKN:07 250","29.61","10.00","58","200",,"8",,,,,,,,,,,,,,,,,,,,,,,,,,,,,,,,,,,,,"MET11109/04/20 21:53:02 METAR KSEA 050553Z 20007KT 10SM BKN250 16/13 A3008 RMK AO2 SLP189 T01610128 10278 20161 51024","FM-15","7",,,,,,,,,,,,,,,,,,,,,,,,,,,"2007-05-17"
"72793024233","2020-09-04T22:00:00","FM-12","4",,,,,,,,,,,,,,,,,,,,,,,,,,,,,,,,,,,,,,,,"55","61",,,"-0.07","1","81","30.09",,"29.60","9.94","58","200",,"8",,,,,,,,,,,,,,,,,,,,,,,,,,,,,,,,,,,,,"SYN08072793 32966 62007 10161 20128 30023 40189 51024 90553 333 10278 20161 555 90506=","FM-12","4",,,,,,,,,,,,,,,,,,,,,,,,,,,"2007-05-17"
"72793024233","2020-09-04T22:53:00","FM-15","7",,,,,,,,,,,,,,,,,,,,,,,,,,,,,,,,,,,,,,,"30.08","55","60","0.00",,,,"84","30.09","BKN:07 250","29.61","10.00","57","200",,"9",,,,,,,,,,,,,,,,,,,,,,,,,,,,,,,,,,,,,"MET09309/04/20 22:53:02 METAR KSEA 050653Z 20008KT 10SM BKN250 16/13 A3008 RMK AO2 SLP191 T01560128","FM-15","7",,,,,,,,,,,,,,,,,,,,,,,,,,,"2007-05-17"
"72793024233","2020-09-04T23:53:00","FM-15","7",,,,,,,,,,,,,,,,,,,,,,,,,,,,,,,,,,,,,,,"30.10","55","60","0.00",,,,"84","30.11","BKN:07 250","29.63","10.00","57","210",,"10",,,,,,,,,,,,,,,,,,,,,,,,,,,,,,,,,,,,,"MET10309/04/20 23:53:02 METAR KSEA 050753Z 21009KT 10SM BKN250 16/13 A3010 RMK AO2 SLP197 T01560128 402830150","FM-15","7",,,,,,,,,,,,,,,,,,,,,,,,,,,"2007-05-17"
"72793024233","2020-09-04T23:59:00","SOD  ","6",,,,,,,,,,,,,,,,,"55","71","62","30.02","29.54","61","7.7","6","7.1","0","83","59","240","16","0.00","0","0.0","190","13",,,,,,,,,,,,,,,,,,,,,,,,,,,,,,,,,,,,,,,,,,,,,,,,,,,,,,,,"SOD73924 HR PRECIPITATION (IN): 0.00 SNOW DEPTH (IN):0     24 HR SNOWFALL (IN):0.0  24 HR MAX TEMP (F): 8324 HR MIN TEMP (F): 59AVERAGE STATION PRESSURE:29.545 MINIMUM SEA LEVEL PRESSURE:29.98 TIME OF OCCURRENCE:1751 PEAK WIND SPEED (MPH): 16 PEAK WIND DIR (DEG):240 PEAK WIND TIME (LST):      FASTEST 2MIN SPEED (MPH): 13FASTEST 2MIN DIR (DEG):190 FASTEST 2MIN TIME (LST):     AVERAGE WIND SPEED (MPH): 7.7 24 HR AVG TEMP (F): 71DEPART FROM NORMAL:  7  HEATING DEGREE DAYS:  0 COOLING DEGREE DAYS:  6 LATEST DAY MAX TEMP (0700-1900 LST):83  LATEST NIGHT MIN TEMP(1900-0800 LST):59 HOURLY INCREMENTAL PRECIPITATION VALUES (IN):.00 0.00 0.00 0.00 0.00 0.00 0.00 0.00 0.00 0.00 0.00 0.00 0.00 0.00 0.00 0.00 0.00 0.00 0.00 0.00 0.00 0.00 0.00 0.00","SOD  ","6",,,,,,,,,,,,,,,,,,,,,,,,,"0533","1842","2007-05-17"
"72793024233","2020-09-05T00:50:00","FM-16","7",,,,,,,,,,,,,,,,,,,,,,,,,,,,,,,,,,,,,,,"30.12","54","61",,,,,"77",,"BKN:07 14","29.65","10.00","57","200",,"9",,,,,,,,,,,,,,,,,,,,,,,,,,,,,,,,,,,,,"MET08109/05/20 00:50:02 SPECI KSEA 050850Z 20008KT 10SM BKN014 16/12 A3012 RMK AO2 (MR)","FM-16","7",,,,,,,,,,,,,,,,,,,,,,,,,,,"2007-05-17"
"72793024233","2020-09-05T00:53:00","FM-15","7",,,,,,,,,,,,,,,,,,,,,,,,,,,,,,,,,,,,,,,"30.12","54","60","0.00",,"-0.04","1","80","30.13","BKN:07 14","29.65","10.00","57","200",,"9",,,,,,,,,,,,,,,,,,,,,,,,,,,,,,,,,,,,,"MET10409/05/20 00:53:02 METAR KSEA 050853Z 20008KT 10SM BKN014 16/12 A3012 RMK AO2 SLP203 T01560122 51013 (MR)","FM-15","7",,,,,,,,,,,,,,,,,,,,,,,,,,,"2007-05-17"
"72793024233","2020-09-05T01:53:00","FM-15","7",,,,,,,,,,,,,,,,,,,,,,,,,,,,,,,,,,,,,,,"30.13","54","60","0.00",,,,"80","30.14","OVC:08 13","29.66","10.00","57","190",,"8",,,,,,,,,,,,,,,,,,,,,,,,,,,,,,,,,,,,,"MET09809/05/20 01:53:02 METAR KSEA 050953Z 19007KT 10SM OVC013 16/12 A3013 RMK AO2 SLP205 T01560122 (MR)","FM-15","7",,,,,,,,,,,,,,,,,,,,,,,,,,,"2007-05-17"
"72793024233","2020-09-05T02:53:00","FM-15","7",,,,,,,,,,,,,,,,,,,,,,,,,,,,,,,,,,,,,,,"30.14","53","60","0.00",,,,"78","30.15","OVC:08 13","29.67","10.00","56","210",,"6",,,,,,,,,,,,,,,,,,,,,,,,,,,,,,,,,,,,,"MET09809/05/20 02:53:02 METAR KSEA 051053Z 21005KT 10SM OVC013 16/12 A3014 RMK AO2 SLP209 T01560117 (MR)","FM-15","7",,,,,,,,,,,,,,,,,,,,,,,,,,,"2007-05-17"
"72793024233","2020-09-05T03:53:00","FM-15","7",,,,,,,,,,,,,,,,,,,,,,,,,,,,,,,,,,,,,,,"30.15","54","60","0.00",,"-0.04","3","80","30.16","OVC:08 12","29.68","10.00","57","220",,"8",,,,,,,,,,,,,,,,,,,,,,,,,,,,,,,,,,,,,"MET11609/05/20 03:53:02 METAR KSEA 051153Z 22007KT 10SM OVC012 16/12 A3015 RMK AO2 SLP215 T01560122 10161 20150 53012 (MR)","FM-15","7",,,,,,,,,,,,,,,,,,,,,,,,,,,"2007-05-17"
"72793024233","2020-09-05T04:00:00","FM-12","4",,,,,,,,,,,,,,,,,,,,,,,,,,,,,,,,,,,,,,,,"54","60",,,"-0.04","3","80","30.16","15","29.67","9.94","57","220",,"8",,,,,,,,,,,,,,,,,,,,,,,,,,,,,,,,,,,,,"SYN08072793 32466 82207 10156 20122 30046 40215 53012 91153 333 10283 20150 555 90512=","FM-12","4",,,,,,,,,,,,,,,,,,,,,,,,,,,"2007-05-17"
"72793024233","2020-09-05T04:53:00","FM-15","7",,,,,,,,,,,,,,,,,,,,,,,,,,,,,,,,,,,,,,,"30.17","54","59","0.00",,,,"83","30.18","OVC:08 12","29.70","10.00","56","220",,"5",,,,,,,,,,,,,,,,,,,,,,,,,,,,,,,,,,,,,"MET09809/05/20 04:53:02 METAR KSEA 051253Z 22004KT 10SM OVC012 15/12 A3017 RMK AO2 SLP220 T01500122 (TL)","FM-15","7",,,,,,,,,,,,,,,,,,,,,,,,,,,"2007-05-17"
"72793024233","2020-09-05T05:53:00","FM-15","7",,,,,,,,,,,,,,,,,,,,,,,,,,,,,,,,,,,,,,,"30.19","54","59","0.00",,,,"83","30.21","OVC:08 12","29.72","10.00","56","190",,"6",,,,,,,,,,,,,,,,,,,,,,,,,,,,,,,,,,,,,"MET09809/05/20 05:53:02 METAR KSEA 051353Z 19005KT 10SM OVC012 15/12 A3019 RMK AO2 SLP229 T01500122 (TL)","FM-15","7",,,,,,,,,,,,,,,,,,,,,,,,,,,"2007-05-17"
"72793024233","2020-09-05T06:34:00","FM-16","7",,,,,,,,,,,,,,,,,,,,,,,,,,,,,,,,,,,,,,,"30.21","54","59",,,,,"83",,"OVC:08 16","29.74","10.00","56","190",,"3",,,,,,,,,,,,,,,,,,,,,,,,,,,,,,,,,,,,,"MET09109/05/20 06:34:02 SPECI KSEA 051434Z 19003KT 10SM OVC016 15/12 A3021 RMK AO2 T01500122 (TL)","FM-16","7",,,,,,,,,,,,,,,,,,,,,,,,,,,"2007-05-17"
"72793024233","2020-09-05T06:53:00","FM-15","7",,,,,,,,,,,,,,,,,,,,,,,,,,,,,,,,,,,,,,,"30.21","54","60","0.00",,"-0.06","3","80","30.22","OVC:08 18","29.74","10.00","57","220",,"3",,,,,,,,,,,,,,,,,,,,,,,,,,,,,,,,,,,,,"MET10409/05/20 06:53:02 METAR KSEA 051453Z 22003KT 10SM OVC018 16/12 A3021 RMK AO2 SLP234 T01560122 53019 (TL)","FM-15","7",,,,,,,,,,,,,,,,,,,,,,,,,,,"2007-05-17"
"72793024233","2020-09-05T07:53:00","FM-15","7",,,,,,,,,,,,,,,,,,,,,,,,,,,,,,,,,,,,,,,"30.21","53","61","0.00",,,,"75","30.23","OVC:08 20","29.74","10.00","57","180",,"5",,,,,,,,,,,,,,,,,,,,,,,,,,,,,,,,,,,,,"MET09809/05/20 07:53:02 METAR KSEA 051553Z 18004KT 10SM OVC020 16/12 A3021 RMK AO2 SLP236 T01610117 (TL)","FM-15","7",,,,,,,,,,,,,,,,,,,,,,,,,,,"2007-05-17"
"72793024233","2020-09-05T08:53:00","FM-15","7",,,,,,,,,,,,,,,,,,,,,,,,,,,,,,,,,,,,,,,"30.23","54","62","0.00",,,,"75","30.25","OVC:08 23","29.76","10.00","58","000",,"0",,,,,,,,,,,,,,,,,,,,,,,,,,,,,,,,,,,,,"MET09809/05/20 08:53:02 METAR KSEA 051653Z 00000KT 10SM OVC023 17/12 A3023 RMK AO2 SLP243 T01670122 (TL)","FM-15","7",,,,,,,,,,,,,,,,,,,,,,,,,,,"2007-05-17"
"72793024233","2020-09-05T09:53:00","FM-15","7",,,,,,,,,,,,,,,,,,,,,,,,,,,,,,,,,,,,,,,"30.25","52","64","0.00",,"-0.04","3","65","30.27","OVC:08 24","29.78","10.00","57","200",,"5",,,,,,,,,,,,,,,,,,,,,,,,,,,,,,,,,,,,,"MET11609/05/20 09:53:02 METAR KSEA 051753Z 20004KT 10SM OVC024 18/11 A3025 RMK AO2 SLP249 T01780111 10178 20150 53013 (TL)","FM-15","7",,,,,,,,,,,,,,,,,,,,,,,,,,,"2007-05-17"
"72793024233","2020-09-05T10:00:00","FM-12","4",,,,,,,,,,,,,,,,,,,,,,,,,,,,,,,,,,,,,,,,"52","64",,,"-0.04","3","65","30.27","26","29.77","9.94","57","200",,"5",,,,,,,,,,,,,,,,,,,,,,,,,,,,,,,,,,,,,"SYN08072793 32566 82004 10178 20111 30080 40249 53013 91753 333 10178 20150 555 90518=","FM-12","4",,,,,,,,,,,,,,,,,,,,,,,,,,,"2007-05-17"
"72793024233","2020-09-05T10:53:00","FM-15","7",,,,,,,,,,,,,,,,,,,,,,,,,,,,,,,,,,,,,,,"30.26","53","65","0.00",,,,"66","30.28","OVC:08 27","29.79","10.00","58","VRB",,"3",,,,,,,,,,,,,,,,,,,,,,,,,,,,,,,,,,,,,"MET09809/05/20 10:53:02 METAR KSEA 051853Z VRB03KT 10SM OVC027 18/12 A3026 RMK AO2 SLP253 T01830117 (TL)","FM-15","7",,,,,,,,,,,,,,,,,,,,,,,,,,,"2007-05-17"
"72793024233","2020-09-05T11:40:00","FM-16","7",,,,,,,,,,,,,,,,,,,,,,,,,,,,,,,,,,,,,,,"30.26","53","66",,,,,"63",,"BKN:07 31","29.79","10.00","59","200",,"3",,,,,,,,,,,,,,,,,,,,,,,,,,,,,,,,,,,,,"MET09109/05/20 11:40:02 SPECI KSEA 051940Z 20003KT 10SM BKN031 19/12 A3026 RMK AO2 T01890117 (TL)","FM-16","7",,,,,,,,,,,,,,,,,,,,,,,,,,,"2007-05-17"
"72793024233","2020-09-05T11:53:00","FM-15","7",,,,,,,,,,,,,,,,,,,,,,,,,,,,,,,,,,,,,,,"30.26","53","68","0.00",,,,"59","30.27","BKN:07 31","29.79","10.00","59","200",,"5",,,,,,,,,,,,,,,,,,,,,,,,,,,,,,,,,,,,,"MET09809/05/20 11:53:02 METAR KSEA 051953Z 20004KT 10SM BKN031 20/12 A3026 RMK AO2 SLP251 T02000117 (TL)","FM-15","7",,,,,,,,,,,,,,,,,,,,,,,,,,,"2007-05-17"
"72793024233","2020-09-05T12:53:00","FM-15","7",,,,,,,,,,,,,,,,,,,,,,,,,,,,,,,,,,,,,,,"30.25","53","71","0.00",,"-0.00","0","53","30.26","BKN:07 31 BKN:07 250","29.78","10.00","61","210",,"9",,,,,,,,,,,,,,,,,,,,,,,,,,,,,,,,,,,,,"MET11109/05/20 12:53:02 METAR KSEA 052053Z 21008KT 10SM BKN031 BKN250 22/12 A3025 RMK AO2 SLP248 T02170117 50000 (JC)","FM-15","7",,,,,,,,,,,,,,,,,,,,,,,,,,,"2007-05-17"
"72793024233","2020-09-05T13:53:00","FM-15","7",,,,,,,,,,,,,,,,,,,,,,,,,,,,,,,,,,,,,,,"30.25","54","72","0.00",,,,"53","30.26","SCT:04 32 SCT:04 250","29.78","10.00","62","180",,"5",,,,,,,,,,,,,,,,,,,,,,,,,,,,,,,,,,,,,"MET10509/05/20 13:53:02 METAR KSEA 052153Z 18004KT 10SM SCT032 SCT250 22/12 A3025 RMK AO2 SLP247 T02220122 (JC)","FM-15","7",,,,,,,,,,,,,,,,,,,,,,,,,,,"2007-05-17"
"72793024233","2020-09-05T14:53:00","FM-15","7",,,,,,,,,,,,,,,,,,,,,,,,,,,,,,,,,,,,,,,"30.23","54","74","0.00",,,,"50","30.25","SCT:04 34 SCT:04 250","29.76","10.00","62","000",,"0",,,,,,,,,,,,,,,,,,,,,,,,,,,,,,,,,,,,,"MET10509/05/20 14:53:02 METAR KSEA 052253Z 00000KT 10SM SCT034 SCT250 23/12 A3023 RMK AO2 SLP243 T02330122 (JC)","FM-15","7",,,,,,,,,,,,,,,,,,,,,,,,,,,"2007-05-17"
"72793024233","2020-09-05T15:53:00","FM-15","7",,,,,,,,,,,,,,,,,,,,,,,,,,,,,,,,,,,,,,,"30.23","54","72","0.00",,"+0.02","7","53","30.24","SCT:04 35 SCT:04 250","29.76","10.00","62","300",,"8",,,,,,,,,,,,,,,,,,,,,,,,,,,,,,,,,,,,,"MET12309/05/20 15:53:02 METAR KSEA 052353Z 30007KT 10SM SCT035 SCT250 22/12 A3023 RMK AO2 SLP241 T02220122 10239 20172 57007 (JC)","FM-15","7",,,,,,,,,,,,,,,,,,,,,,,,,,,"2007-05-17"
"72793024233","2020-09-05T16:00:00","FM-12","4",,,,,,,,,,,,,,,,,,,,,,,,,,,,,,,,,,,,,,,,"54","72",,,"+0.02","7","53","30.24","41","29.75","9.94","62","300",,"8",,,,,,,,,,,,,,,,,,,,,,,,,,,,,,,,,,,,,"SYN08072793 32666 43007 10222 20122 30073 40241 57007 92353 333 10239 20150 555 90600=","FM-12","4",,,,,,,,,,,,,,,,,,,,,,,,,,,"2007-05-17"
"72793024233","2020-09-05T16:53:00","FM-15","7",,,,,,,,,,,,,,,,,,,,,,,,,,,,,,,,,,,,,,,"30.23","54","72","0.00",,,,"53","30.24","FEW:02 35","29.76","10.00","62","290",,"7",,,,,,,,,,,,,,,,,,,,,,,,,,,,,,,,,,,,,"MET09309/05/20 16:53:01 METAR KSEA 060053Z 29006KT 10SM FEW035 22/12 A3023 RMK AO2 SLP241 T02220122","FM-15","7",,,,,,,,,,,,,,,,,,,,,,,,,,,"2007-05-17"
"72793024233","2020-09-05T17:53:00","FM-15","7",,,,,,,,,,,,,,,,,,,,,,,,,,,,,,,,,,,,,,,"30.22","54","70","0.00",,,,"57","30.24","FEW:02 250","29.75","10.00","61","310",,"7",,,,,,,,,,,,,,,,,,,,,,,,,,,,,,,,,,,,,"MET09309/05/20 17:53:01 METAR KSEA 060153Z 31006KT 10SM FEW250 21/12 A3022 RMK AO2 SLP239 T02110122","FM-15","7",,,,,,,,,,,,,,,,,,,,,,,,,,,"2007-05-17"
"72793024233","2020-09-05T18:53:00","FM-15","7",,,,,,,,,,,,,,,,,,,,,,,,,,,,,,,,,,,,,,,"30.23","55","66","0.00",,"-0.01","3","68","30.25","FEW:02 250","29.76","10.00","60","340",,"3",,,,,,,,,,,,,,,,,,,,,,,,,,,,,,,,,,,,,"MET09909/05/20 18:53:01 METAR KSEA 060253Z 34003KT 10SM FEW250 19/13 A3023 RMK AO2 SLP244 T01890128 53002","FM-15","7",,,,,,,,,,,,,,,,,,,,,,,,,,,"2007-05-17"
"72793024233","2020-09-05T19:53:00","FM-15","7",,,,,,,,,,,,,,,,,,,,,,,,,,,,,,,,,,,,,,,"30.24","55","65","0.00",,,,"70","30.26","FEW:02 250","29.77","10.00","59","010",,"7",,,,,,,,,,,,,,,,,,,,,,,,,,,,,,,,,,,,,"MET09309/05/20 19:53:02 METAR KSEA 060353Z 01006KT 10SM FEW250 18/13 A3024 RMK AO2 SLP247 T01830128","FM-15","7",,,,,,,,,,,,,,,,,,,,,,,,,,,"2007-05-17"
"72793024233","2020-09-05T20:53:00","FM-15","7",,,,,,,,,,,,,,,,,,,,,,,,,,,,,,,,,,,,,,,"30.25","55","66","0.00",,,,"68","30.26","FEW:02 250","29.78","10.00","60","020",,"6",,,,,,,,,,,,,,,,,,,,,,,,,,,,,,,,,,,,,"MET09309/05/20 20:53:02 METAR KSEA 060453Z 02005KT 10SM FEW250 19/13 A3025 RMK AO2 SLP248 T01890128","FM-15","7",,,,,,,,,,,,,,,,,,,,,,,,,,,"2007-05-17"
"72793024233","2020-09-05T21:53:00","FM-15","7",,,,,,,,,,,,,,,,,,,,,,,,,,,,,,,,,,,,,,,"30.26","55","63","0.00",,"-0.02","1","75","30.27","FEW:02 250","29.79","10.00","58","360",,"8",,,,,,,,,,,,,,,,,,,,,,,,,,,,,,,,,,,,,"MET11109/05/20 21:53:02 METAR KSEA 060553Z 36007KT 10SM FEW250 17/13 A3026 RMK AO2 SLP250 T01720128 10222 20172 51007","FM-15","7",,,,,,,,,,,,,,,,,,,,,,,,,,,"2007-05-17"
"72793024233","2020-09-05T22:00:00","FM-12","4",,,,,,,,,,,,,,,,,,,,,,,,,,,,,,,,,,,,,,,,"55","63",,,"-0.02","1","75","30.27",,"29.78","9.94","58","360",,"8",,,,,,,,,,,,,,,,,,,,,,,,,,,,,,,,,,,,,"SYN08072793 32966 23607 10172 20128 30083 40250 51007 90553 333 10222 20150 555 90606=","FM-12","4",,,,,,,,,,,,,,,,,,,,,,,,,,,"2007-05-17"
"72793024233","2020-09-05T22:53:00","FM-15","7",,,,,,,,,,,,,,,,,,,,,,,,,,,,,,,,,,,,,,,"30.26","55","62","0.00",,,,"78","30.27","CLR:00","29.79","10.00","58","360",,"8",,,,,,,,,,,,,,,,,,,,,,,,,,,,,,,,,,,,,"MET09009/05/20 22:53:02 METAR KSEA 060653Z 36007KT 10SM CLR 17/13 A3026 RMK AO2 SLP252 T01670128","FM-15","7",,,,,,,,,,,,,,,,,,,,,,,,,,,"2007-05-17"
"72793024233","2020-09-05T23:53:00","FM-15","7",,,,,,,,,,,,,,,,,,,,,,,,,,,,,,,,,,,,,,,"30.26","54","60","0.00",,,,"80","30.28","CLR:00","29.79","10.00","57","360",,"7",,,,,,,,,,,,,,,,,,,,,,,,,,,,,,,,,,,,,"MET10009/05/20 23:53:02 METAR KSEA 060753Z 36006KT 10SM CLR 16/12 A3026 RMK AO2 SLP253 T01560122 402390150","FM-15","7",,,,,,,,,,,,,,,,,,,,,,,,,,,"2007-05-17"
"72793024233","2020-09-05T23:59:00","SOD  ","6",,,,,,,,,,,,,,,,,"54","67","69","30.23","29.75","59","5.7","2","3.2","0","75","59","200","15","0.00","0","0.0","210","12",,,,,,,,,,,,,,,,,,,,,,,,,,,,,,,,,,,,,,,,,,,,,,,,,,,,,,,,"SOD73924 HR PRECIPITATION (IN): 0.00 SNOW DEPTH (IN):0     24 HR SNOWFALL (IN):0.0  24 HR MAX TEMP (F): 7524 HR MIN TEMP (F): 59AVERAGE STATION PRESSURE:29.750 MINIMUM SEA LEVEL PRESSURE:30.11 TIME OF OCCURRENCE:0001 PEAK WIND SPEED (MPH): 15 PEAK WIND DIR (DEG):200 PEAK WIND TIME (LST):      FASTEST 2MIN SPEED (MPH): 12FASTEST 2MIN DIR (DEG):210 FASTEST 2MIN TIME (LST):     AVERAGE WIND SPEED (MPH): 5.7 24 HR AVG TEMP (F): 67DEPART FROM NORMAL:  3  HEATING DEGREE DAYS:  0 COOLING DEGREE DAYS:  2 LATEST DAY MAX TEMP (0700-1900 LST):75  LATEST NIGHT MIN TEMP(1900-0800 LST):59 HOURLY INCREMENTAL PRECIPITATION VALUES (IN):.00 0.00 0.00 0.00 0.00 0.00 0.00 0.00 0.00 0.00 0.00 0.00 0.00 0.00 0.00 0.00 0.00 0.00 0.00 0.00 0.00 0.00 0.00 0.00","SOD  ","6",,,,,,,,,,,,,,,,,,,,,,,,,"0534","1840","2007-05-17"
"72793024233","2020-09-06T00:53:00","FM-15","7",,,,,,,,,,,,,,,,,,,,,,,,,,,,,,,,,,,,,,,"30.27","54","60","0.00",,"-0.01","3","80","30.28","CLR:00","29.80","10.00","57","010",,"8",,,,,,,,,,,,,,,,,,,,,,,,,,,,,,,,,,,,,"MET10109/06/20 00:53:02 METAR KSEA 060853Z 01007KT 10SM CLR 16/12 A3027 RMK AO2 SLP255 T01560122 53004 (LC)","FM-15","7",,,,,,,,,,,,,,,,,,,,,,,,,,,"2007-05-17"
"72793024233","2020-09-06T01:53:00","FM-15","7",,,,,,,,,,,,,,,,,,,,,,,,,,,,,,,,,,,,,,,"30.28","54","60","0.00",,,,"80","30.29","CLR:00","29.81","10.00","57","010",,"9",,,,,,,,,,,,,,,,,,,,,,,,,,,,,,,,,,,,,"MET09509/06/20 01:53:02 METAR KSEA 060953Z 01008KT 10SM CLR 16/12 A3028 RMK AO2 SLP258 T01560122 (LC)","FM-15","7",,,,,,,,,,,,,,,,,,,,,,,,,,,"2007-05-17"
"72793024233","2020-09-06T02:53:00","FM-15","7",,,,,,,,,,,,,,,,,,,,,,,,,,,,,,,,,,,,,,,"30.28","55","60","0.00",,,,"84","30.29","CLR:00","29.81","10.00","57","030",,"8",,,,,,,,,,,,,,,,,,,,,,,,,,,,,,,,,,,,,"MET09509/06/20 02:53:02 METAR KSEA 061053Z 03007KT 10SM CLR 16/13 A3028 RMK AO2 SLP258 T01560128 (LC)","FM-15","7",,,,,,,,,,,,,,,,,,,,,,,,,,,"2007-05-17"
"72793024233","2020-09-06T03:53:00","FM-15","7",,,,,,,,,,,,,,,,,,,,,,,,,,,,,,,,,,,,,,,"30.28","53","56","0.00",,"-0.01","1","90","30.29","CLR:00","29.81","10.00","54","320",,"6",,,,,,,,,,,,,,,,,,,,,,,,,,,,,,,,,,,,,"MET11309/06/20 03:53:02 METAR KSEA 061153Z 32005KT 10SM CLR 13/12 A3028 RMK AO2 SLP258 T01330117 10172 20133 51003 (LC)","FM-15","7",,,,,,,,,,,,,,,,,,,,,,,,,,,"2007-05-17"
"72793024233","2020-09-06T04:00:00","FM-12","4",,,,,,,,,,,,,,,,,,,,,,,,,,,,,,,,,,,,,,,,"53","56",,,"-0.01","1","90","30.29",,"29.80","9.94","54","320",,"6",,,,,,,,,,,,,,,,,,,,,,,,,,,,,,,,,,,,,"SYN08072793 32966 03205 10133 20117 30090 40258 51003 91153 333 10239 20133 555 90612=","FM-12","4",,,,,,,,,,,,,,,,,,,,,,,,,,,"2007-05-17"
"72793024233","2020-09-06T04:53:00","FM-15","7",,,,,,,,,,,,,,,,,,,,,,,,,,,,,,,,,,,,,,,"30.28","54","57","0.00",,,,"90","30.29","CLR:00","29.81","9.00","55","360",,"7",,,,,,,,,,,,,,,,,,,,,,,,,,,,,,,,,,,,,"MET09409/06/20 04:53:02 METAR KSEA 061253Z 36006KT 9SM CLR 14/12 A3028 RMK AO2 SLP259 T01390122 (LZ)","FM-15","7",,,,,,,,,,,,,,,,,,,,,,,,,,,"2007-05-17"
"72793024233","2020-09-06T05:33:00","FM-16","7",,,,,,,,,,,,,,,,,,,,,,,,,,,,,,,,,,,,,,,"30.28","54","56",,,,,"93",,"SCT:04 5","29.81","9.00","55","360",,"5",,,,,,,,,,,,,,,,,,,,,,,,,,,,,,,,,,,,,"MET09009/06/20 05:33:02 SPECI KSEA 061333Z 36004KT 9SM SCT005 13/12 A3028 RMK AO2 T01330122 (LZ)","FM-16","7",,,,,,,,,,,,,,,,,,,,,,,,,,,"2007-05-17"
"72793024233","2020-09-06T05:53:00","FM-15","7",,,,,,,,,,,,,,,,,,,,,,,,,,,,,,,,,,,,,,,"30.29","55","58","0.00",,,,"90","30.30","SCT:04 5","29.82","8.00","56","010",,"7",,,,,,,,,,,,,,,,,,,,,,,,,,,,,,,,,,,,,"MET09709/06/20 05:53:02 METAR KSEA 061353Z 01006KT 8SM SCT005 14/13 A3029 RMK AO2 SLP261 T01440128 (LZ)","FM-15","7",,,,,,,,,,,,,,,,,,,,,,,,,,,"2007-05-17"
"72793024233","2020-09-06T06:53:00","FM-15","7",,,,,,,,,,,,,,,,,,,,,,,,,,,,,,,,,,,,,,,"30.29","56","60","0.00",,"-0.01","0","86","30.30","FEW:02 4","29.82","9.00","58","350",,"5",,,,,,,,,,,,,,,,,,,,,,,,,,,,,,,,,,,,,"MET10309/06/20 06:53:02 METAR KSEA 061453Z 35004KT 9SM FEW004 16/13 A3029 RMK AO2 SLP261 T01560133 50002 (LZ)","FM-15","7",,,,,,,,,,,,,,,,,,,,,,,,,,,"2007-05-17"
"72793024233","2020-09-06T07:53:00","FM-15","7",,,,,,,,,,,,,,,,,,,,,,,,,,,,,,,,,,,,,,,"30.28","56","64","0.00",,,,"75","30.29","FEW:02 4","29.81","10.00","59","350",,"8",,,,,,,,,,,,,,,,,,,,,,,,,,,,,,,,,,,,,"MET09809/06/20 07:53:02 METAR KSEA 061553Z 35007KT 10SM FEW004 18/13 A3028 RMK AO2 SLP259 T01780133 (LZ)","FM-15","7",,,,,,,,,,,,,,,,,,,,,,,,,,,"2007-05-17"
"72793024233","2020-09-06T08:53:00","FM-15","7",,,,,,,,,,,,,,,,,,,,,,,,,,,,,,,,,,,,,,,"30.29","57","67","0.00",,,,"71","30.30","CLR:00","29.82","10.00","61","010",,"7",,,,,,,,,,,,,,,,,,,,,,,,,,,,,,,,,,,,,"MET09509/06/20 08:53:02 METAR KSEA 061653Z 01006KT 10SM CLR 19/14 A3029 RMK AO2 SLP261 T01940139 (LZ)","FM-15","7",,,,,,,,,,,,,,,,,,,,,,,,,,,"2007-05-17"
"72793024233","2020-09-06T09:00:00","FM-16","7",,,,,,,,,,,,,,,,,,,,,,,,,,,,,,,,,,,,,,,"30.29","57","66",,,,,"73",,"FEW:02 4","29.82","10.00","61","020",,"8",,,,,,,,,,,,,,,,,,,,,,,,,,,,,,,,,,,,,"MET09109/06/20 09:00:02 SPECI KSEA 061700Z 02007KT 10SM FEW004 19/14 A3029 RMK AO2 T01890139 (LZ)","FM-16","7",,,,,,,,,,,,,,,,,,,,,,,,,,,"2007-05-17"
"72793024233","2020-09-06T09:53:00","FM-15","7",,,,,,,,,,,,,,,,,,,,,,,,,,,,,,,,,,,,,,,"30.29","57","71","0.00",,"-0.00","3","61","30.30","FEW:02 4","29.82","10.00","63","010",,"6",,,,,,,,,,,,,,,,,,,,,,,,,,,,,,,,,,,,,"MET11609/06/20 09:53:02 METAR KSEA 061753Z 01005KT 10SM FEW004 22/14 A3029 RMK AO2 SLP261 T02170139 10217 20133 53001 (LZ)","FM-15","7",,,,,,,,,,,,,,,,,,,,,,,,,,,"2007-05-17"
"72793024233","2020-09-06T10:00:00","FM-12","4",,,,,,,,,,,,,,,,,,,,,,,,,,,,,,,,,,,,,,,,"57","71",,,"-0.00","3","61","30.30","5","29.80","9.94","63","010",,"6",,,,,,,,,,,,,,,,,,,,,,,,,,,,,,,,,,,,,"SYN08072793 32266 20105 10217 20139 30093 40261 53001 91753 333 10217 20133 555 90618=","FM-12","4",,,,,,,,,,,,,,,,,,,,,,,,,,,"2007-05-17"
"72793024233","2020-09-06T10:53:00","FM-15","7",,,,,,,,,,,,,,,,,,,,,,,,,,,,,,,,,,,,,,,"30.29","57","71","0.00",,,,"61","30.30","FEW:02 20","29.82","10.00","63","290",,"8",,,,,,,,,,,,,,,,,,,,,,,,,,,,,,,,,,,,,"MET09809/06/20 10:53:02 METAR KSEA 061853Z 29007KT 10SM FEW020 22/14 A3029 RMK AO2 SLP261 T02170139 (LZ)","FM-15","7",,,,,,,,,,,,,,,,,,,,,,,,,,,"2007-05-17"
"72793024233","2020-09-06T11:53:00","FM-15","7",,,,,,,,,,,,,,,,,,,,,,,,,,,,,,,,,,,,,,,"30.27","57","72","0.00",,,,"59","30.28","FEW:02 200","29.80","10.00","63","280",,"8",,,,,,,,,,,,,,,,,,,,,,,,,,,,,,,,,,,,,"MET09809/06/20 11:53:02 METAR KSEA 061953Z 28007KT 10SM FEW200 22/14 A3027 RMK AO2 SLP255 T02220139 (LZ)","FM-15","7",,,,,,,,,,,,,,,,,,,,,,,,,,,"2007-05-17"
"72793024233","2020-09-06T12:53:00","FM-15","7",,,,,,,,,,,,,,,,,,,,,,,,,,,,,,,,,,,,,,,"30.26","57","74","0.00",,"+0.03","8","56","30.27","FEW:02 200","29.79","10.00","64","280",,"9",,,,,,,,,,,,,,,,,,,,,,,,,,,,,,,,,,,,,"MET10409/06/20 12:53:02 METAR KSEA 062053Z 28008KT 10SM FEW200 23/14 A3026 RMK AO2 SLP250 T02330139 58011 (LZ)","FM-15","7",,,,,,,,,,,,,,,,,,,,,,,,,,,"2007-05-17"
"72793024233","2020-09-06T13:53:00","FM-15","7",,,,,,,,,,,,,,,,,,,,,,,,,,,,,,,,,,,,,,,"30.24","57","77","0.00",,,,"50","30.25","FEW:02 200","29.77","10.00","65","290",,"10",,,,,,,,,,,,,,,,,,,,,,,,,,,,,,,,,,,,,"MET09809/06/20 13:53:02 METAR KSEA 062153Z 29009KT 10SM FEW200 25/14 A3024 RMK AO2 SLP245 T02500139 (TL)","FM-15","7",,,,,,,,,,,,,,,,,,,,,,,,,,,"2007-05-17"
"72793024233","2020-09-06T14:53:00","FM-15","7",,,,,,,,,,,,,,,,,,,,,,,,,,,,,,,,,,,,,,,"30.22","56","78","0.00",,,,"47","30.24","FEW:02 200","29.75","10.00","65","280",,"11",,,,,,,,,,,,,,,,,,,,,,,,,,,,,,,,,,,,,"MET09809/06/20 14:53:02 METAR KSEA 062253Z 28010KT 10SM FEW200 26/13 A3022 RMK AO2 SLP239 T02560133 (TL)","FM-15","7",,,,,,,,,,,,,,,,,,,,,,,,,,,"2007-05-17"
"72793024233","2020-09-06T15:53:00","FM-15","7",,,,,,,,,,,,,,,,,,,,,,,,,,,,,,,,,,,,,,,"30.21","55","81","0.00",,"+0.04","6","41","30.22","FEW:02 200","29.74","10.00","65","340",,"13",,,,,,,,,,,,,,,,,,,,,,,,,,,,,,,,,,,,,"MET11609/06/20 15:53:02 METAR KSEA 062353Z 34011KT 10SM FEW200 27/13 A3021 RMK AO2 SLP235 T02720128 10272 20206 56015 (TL)","FM-15","7",,,,,,,,,,,,,,,,,,,,,,,,,,,"2007-05-17"
"72793024233","2020-09-06T16:00:00","FM-12","4",,,,,,,,,,,,,,,,,,,,,,,,,,,,,,,,,,,,,,,,"55","81",,,"+0.04","6","41","30.22",,"29.72","9.94","65","340",,"13",,,,,,,,,,,,,,,,,,,,,,,,,,,,,,,,,,,,,"SYN08072793 32966 23411 10272 20128 30066 40235 56015 92353 333 10272 20133 555 90700=","FM-12","4",,,,,,,,,,,,,,,,,,,,,,,,,,,"2007-05-17"
"72793024233","2020-09-06T16:53:00","FM-15","7",,,,,,,,,,,,,,,,,,,,,,,,,,,,,,,,,,,,,,,"30.18","54","79","0.00",,,,"42","30.20","FEW:02 200","29.71","10.00","64","350",,"8",,,,,,,,,,,,,,,,,,,,,,,,,,,,,,,,,,,,,"MET09309/06/20 16:53:01 METAR KSEA 070053Z 35007KT 10SM FEW200 26/12 A3018 RMK AO2 SLP226 T02610122","FM-15","7",,,,,,,,,,,,,,,,,,,,,,,,,,,"2007-05-17"
"72793024233","2020-09-06T17:53:00","FM-15","7",,,,,,,,,,,,,,,,,,,,,,,,,,,,,,,,,,,,,,,"30.17","55","78","0.00",,,,"45","30.18","FEW:02 200","29.70","10.00","64","330",,"10",,,,,,,,,,,,,,,,,,,,,,,,,,,,,,,,,,,,,"MET09309/06/20 17:53:01 METAR KSEA 070153Z 33009KT 10SM FEW200 26/13 A3017 RMK AO2 SLP221 T02560128","FM-15","7",,,,,,,,,,,,,,,,,,,,,,,,,,,"2007-05-17"
"72793024233","2020-09-06T18:53:00","FM-15","7",,,,,,,,,,,,,,,,,,,,,,,,,,,,,,,,,,,,,,,"30.16","55","73","0.00",,"+0.05","6","53","30.18","BKN:07 250","29.69","10.00","62","340",,"7",,,,,,,,,,,,,,,,,,,,,,,,,,,,,,,,,,,,,"MET09909/06/20 18:53:01 METAR KSEA 070253Z 34006KT 10SM BKN250 23/13 A3016 RMK AO2 SLP219 T02280128 56016","FM-15","7",,,,,,,,,,,,,,,,,,,,,,,,,,,"2007-05-17"
"72793024233","2020-09-06T19:53:00","FM-15","7",,,,,,,,,,,,,,,,,,,,,,,,,,,,,,,,,,,,,,,"30.16","55","71","0.00",,,,"57","30.17","SCT:04 250","29.69","10.00","62","330",,"5",,,,,,,,,,,,,,,,,,,,,,,,,,,,,,,,,,,,,"MET09309/06/20 19:53:02 METAR KSEA 070353Z 33004KT 10SM SCT250 22/13 A3016 RMK AO2 SLP217 T02170128","FM-15","7",,,,,,,,,,,,,,,,,,,,,,,,,,,"2007-05-17"
"72793024233","2020-09-06T20:53:00","FM-15","7",,,,,,,,,,,,,,,,,,,,,,,,,,,,,,,,,,,,,,,"30.15","55","71","0.00",,,,"57","30.17","FEW:02 250","29.68","10.00","62","010",,"8",,,,,,,,,,,,,,,,,,,,,,,,,,,,,,,,,,,,,"MET09309/06/20 20:53:02 METAR KSEA 070453Z 01007KT 10SM FEW250 22/13 A3015 RMK AO2 SLP216 T02170128","FM-15","7",,,,,,,,,,,,,,,,,,,,,,,,,,,"2007-05-17"
"72793024233","2020-09-06T21:53:00","FM-15","7",,,,,,,,,,,,,,,,,,,,,,,,,,,,,,,,,,,,,,,"30.15","55","70","0.00",,"+0.01","6","59","30.16","CLR:00","29.68","10.00","61","010",,"7",,,,,,,,,,,,,,,,,,,,,,,,,,,,,,,,,,,,,"MET10809/06/20 21:53:02 METAR KSEA 070553Z 01006KT 10SM CLR 21/13 A3015 RMK AO2 SLP214 T02110128 10272 20206 56003","FM-15","7",,,,,,,,,,,,,,,,,,,,,,,,,,,"2007-05-17"
"72793024233","2020-09-06T22:00:00","FM-12","4",,,,,,,,,,,,,,,,,,,,,,,,,,,,,,,,,,,,,,,,"55","70",,,"+0.01","6","59","30.16",,"29.67","9.94","61","010",,"7",,,,,,,,,,,,,,,,,,,,,,,,,,,,,,,,,,,,,"SYN08072793 32966 00106 10211 20128 30046 40214 56003 90553 333 10272 20133 555 90706=","FM-12","4",,,,,,,,,,,,,,,,,,,,,,,,,,,"2007-05-17"
"72793024233","2020-09-06T22:53:00","FM-15","7",,,,,,,,,,,,,,,,,,,,,,,,,,,,,,,,,,,,,,,"30.15","55","66","0.00",,,,"68","30.16","SCT:04 250","29.68","10.00","60","360",,"7",,,,,,,,,,,,,,,,,,,,,,,,,,,,,,,,,,,,,"MET09309/06/20 22:53:02 METAR KSEA 070653Z 36006KT 10SM SCT250 19/13 A3015 RMK AO2 SLP213 T01890128","FM-15","7",,,,,,,,,,,,,,,,,,,,,,,,,,,"2007-05-17"
"72793024233","2020-09-06T23:53:00","FM-15","7",,,,,,,,,,,,,,,,,,,,,,,,,,,,,,,,,,,,,,,"30.13","56","64","0.00",,,,"75","30.15","SCT:04 250","29.66","10.00","59","260",,"5",,,,,,,,,,,,,,,,,,,,,,,,,,,,,,,,,,,,,"MET10309/06/20 23:53:02 METAR KSEA 070753Z 26004KT 10SM SCT250 18/13 A3013 RMK AO2 SLP209 T01780133 402720133","FM-15","7",,,,,,,,,,,,,,,,,,,,,,,,,,,"2007-05-17"
"72793024233","2020-09-06T23:59:00","SOD  ","6",,,,,,,,,,,,,,,,,"55","69","65","30.24","29.76","61","7.8","4","5.4","0","81","56","360","18","0.00","0","0.0","350","14",,,,,,,,,,,,,,,,,,,,,,,,,,,,,,,,,,,,,,,,,,,,,,,,,,,,,,,,"SOD73924 HR PRECIPITATION (IN): 0.00 SNOW DEPTH (IN):0     24 HR SNOWFALL (IN):0.0  24 HR MAX TEMP (F): 8124 HR MIN TEMP (F): 56AVERAGE STATION PRESSURE:29.760 MINIMUM SEA LEVEL PRESSURE:30.15 TIME OF OCCURRENCE:2359 PEAK WIND SPEED (MPH): 18 PEAK WIND DIR (DEG):360 PEAK WIND TIME (LST):      FASTEST 2MIN SPEED (MPH): 14FASTEST 2MIN DIR (DEG):350 FASTEST 2MIN TIME (LST):     AVERAGE WIND SPEED (MPH): 7.8 24 HR AVG TEMP (F): 69DEPART FROM NORMAL:  5  HEATING DEGREE DAYS:  0 COOLING DEGREE DAYS:  4 LATEST DAY MAX TEMP (0700-1900 LST):81  LATEST NIGHT MIN TEMP(1900-0800 LST):56 HOURLY INCREMENTAL PRECIPITATION VALUES (IN):.00 0.00 0.00 0.00 0.00 0.00 0.00 0.00 0.00 0.00 0.00 0.00 0.00 0.00 0.00 0.00 0.00 0.00 0.00 0.00 0.00 0.00 0.00 0.00","SOD  ","6",,,,,,,,,,,,,,,,,,,,,,,,,"0536","1838","2007-05-17"
"72793024233","2020-09-07T00:53:00","FM-15","7",,,,,,,,,,,,,,,,,,,,,,,,,,,,,,,,,,,,,,,"30.12","55","62",,,"+0.03","8","78","30.13","BKN:07 250","29.65","10.00","58","330",,"6",,,,,,,,,,,,,,,,,,,,,,,,,,,,,,,,,,,,,"MET09909/07/20 00:53:02 METAR KSEA 070853Z 33005KT 10SM BKN250 17/13 A3012 RMK AO2 SLP204 T01670128 58011","FM-15","7",,,,,,,,,,,,,,,,,,,,,,,,,,,"2007-05-17"
"72793024233","2020-09-07T01:53:00","FM-15","7",,,,,,,,,,,,,,,,,,,,,,,,,,,,,,,,,,,,,,,"30.11","55","64",,,,,"73","30.12","SCT:04 250","29.64","10.00","59","020",,"8",,,,,,,,,,,,,,,,,,,,,,,,,,,,,,,,,,,,,"MET09309/07/20 01:53:02 METAR KSEA 070953Z 02007KT 10SM SCT250 18/13 A3011 RMK AO2 SLP201 T01780128","FM-15","7",,,,,,,,,,,,,,,,,,,,,,,,,,,"2007-05-17"
"72793024233","2020-09-07T02:53:00","FM-15","7",,,,,,,,,,,,,,,,,,,,,,,,,,,,,,,,,,,,,,,"30.11","56","64",,,,,"75","30.12","CLR:00","29.64","10.00","59","020",,"7",,,,,,,,,,,,,,,,,,,,,,,,,,,,,,,,,,,,,"MET09009/07/20 02:53:02 METAR KSEA 071053Z 02006KT 10SM CLR 18/13 A3011 RMK AO2 SLP200 T01780133","FM-15","7",,,,,,,,,,,,,,,,,,,,,,,,,,,"2007-05-17"
"72793024233","2020-09-07T03:53:00","FM-15","7",,,,,,,,,,,,,,,,,,,,,,,,,,,,,,,,,,,,,,,"30.12","56","63",,,"+0.00","5","78","30.13","CLR:00","29.65","10.00","59","020",,"10",,,,,,,,,,,,,,,,,,,,,,,,,,,,,,,,,,,,,"MET10809/07/20 03:53:02 METAR KSEA 071153Z 02009KT 10SM CLR 17/13 A3012 RMK AO2 SLP203 T01720133 10211 20161 55000","FM-15","7",,,,,,,,,,,,,,,,,,,,,,,,,,,"2007-05-17"
"72793024233","2020-09-07T04:00:00","FM-12","4",,,,,,,,,,,,,,,,,,,,,,,,,,,,,,,,,,,,,,,,"56","63",,,"+0.00","5","78","30.13",,"29.64","9.94","59","020",,"10",,,,,,,,,,,,,,,,,,,,,,,,,,,,,,,,,,,,,"SYN08072793 32966 00209 10172 20133 30036 40203 55000 91153 333 10272 20161 555 90712=","FM-12","4",,,,,,,,,,,,,,,,,,,,,,,,,,,"2007-05-17"
"72793024233","2020-09-07T04:53:00","FM-15","7",,,,,,,,,,,,,,,,,,,,,,,,,,,,,,,,,,,,,,,"30.12","55","61",,,,,"81","30.13","SCT:04 250","29.65","10.00","58","010",,"7",,,,,,,,,,,,,,,,,,,,,,,,,,,,,,,,,,,,,"MET09509/07/20 04:53:02 METAR KSEA 071253Z 01006KT 10SM SCT250 16/13 A3012 RMK AO2 SLP204 T01610128 $","FM-15","7",,,,,,,,,,,,,,,,,,,,,,,,,,,"2007-05-17"
"72793024233","2020-09-07T05:53:00","FM-15","7",,,,,,,,,,,,,,,,,,,,,,,,,,,,,,,,,,,,,,,"30.12","55","61",,,,,"81","30.14","BKN:07 250","29.65","10.00","58","020",,"8",,,,,,,,,,,,,,,,,,,,,,,,,,,,,,,,,,,,,"MET09509/07/20 05:53:02 METAR KSEA 071353Z 02007KT 10SM BKN250 16/13 A3012 RMK AO2 SLP205 T01610128 $","FM-15","7",,,,,,,,,,,,,,,,,,,,,,,,,,,"2007-05-17"
"72793024233","2020-09-07T06:53:00","FM-15","7",,,,,,,,,,,,,,,,,,,,,,,,,,,,,,,,,,,,,,,"30.14","55","64",,,"-0.01","3","73","30.15","FEW:02 12 BKN:07 250","29.67","10.00","59","360",,"20",,,,,,,,,,,,,,,,,,,,,,,,,,,,,,,,,,,,,"MET10609/07/20 06:53:02 METAR KSEA 071453Z 36017KT 10SM FEW012 BKN250 18/13 A3014 RMK AO2 SLP209 T01780128 53005","FM-15","7",,,,,,,,,,,,,,,,,,,,,,,,,,,"2007-05-17"
"72793024233","2020-09-07T07:41:00","FM-16","7",,,,,,,,,,,,,,,,,,,,,,,,,,,,,,,,,,,,,,,"30.14","56","66",,,,,"70",,"FEW:02 8 BKN:07 250","29.67","10.00","60","010",,"11",,,,,,,,,,,,,,,,,,,,,,,,,,,,,,,,,,,,,"MET09309/07/20 07:41:02 SPECI KSEA 071541Z 01010KT 10SM FEW008 BKN250 19/13 A3014 RMK AO2 T01890133","FM-16","7",,,,,,,,,,,,,,,,,,,,,,,,,,,"2007-05-17"
"72793024233","2020-09-07T07:53:00","FM-15","7",,,,,,,,,,,,,,,,,,,,,,,,,,,,,,,,,,,,,,,"30.15","56","65",,,,,"73","30.16","FEW:02 9 SCT:04 14 BKN:07 250","29.68","10.00","60","030",,"14",,,,,,,,,,,,,,,,,,,,,,,,,,,,,,,,,,,,,"MET10709/07/20 07:53:02 METAR KSEA 071553Z 03012KT 10SM FEW009 SCT014 BKN250 18/13 A3015 RMK AO2 SLP214 T01830133","FM-15","7",,,,,,,,,,,,,,,,,,,,,,,,,,,"2007-05-17"
"72793024233","2020-09-07T08:53:00","FM-15","7",,,,,,,,,,,,,,,,,,,,,,,,,,,,,,,,,,,,,,,"30.15","57","67",,,,,"71","30.16","FEW:02 14 BKN:07 250","29.68","10.00","61","020",,"18",,,,,,,,,,,,,,,,,,,,,,,,,,,,,,,,,,,,,"MET10009/07/20 08:53:02 METAR KSEA 071653Z 02016KT 10SM FEW014 BKN250 19/14 A3015 RMK AO2 SLP214 T01940139","FM-15","7",,,,,,,,,,,,,,,,,,,,,,,,,,,"2007-05-17"
"72793024233","2020-09-07T09:53:00","FM-15","7",,,,,,,,,,,,,,,,,,,,,,,,,,,,,,,,,,,,,,,"30.16","58","70",,,"-0.02","1","66","30.17","FEW:02 15 BKN:07 250","29.69","10.00","63","360",,"16",,,,,,,,,,,,,,,,,,,,,,,,,,,,,,,,,,,,,"MET11809/07/20 09:53:02 METAR KSEA 071753Z 36014KT 10SM FEW015 BKN250 21/14 A3016 RMK AO2 SLP217 T02110144 10211 20161 51008","FM-15","7",,,,,,,,,,,,,,,,,,,,,,,,,,,"2007-05-17"
"72793024233","2020-09-07T10:00:00","FM-12","4",,,,,,,,,,,,,,,,,,,,,,,,,,,,,,,,,,,,,,,,"58","70",,,"-0.02","1","66","30.17","15","29.68","9.94","63","360",,"16",,,,,,,,,,,,,,,,,,,,,,,,,,,,,,,,,,,,,"SYN08072793 32466 63614 10211 20144 30050 40217 51008 91753 333 10211 20161 555 90718=","FM-12","4",,,,,,,,,,,,,,,,,,,,,,,,,,,"2007-05-17"
"72793024233","2020-09-07T10:53:00","FM-15","7",,,,,,,,,,,,,,,,,,,,,,,,,,,,,,,,,,,,,,,"30.16","57","72",,,,,"59",,"FEW:02 15 BKN:07 250","29.69","10.00","63","010",,"10",,,,,,,,,,,,,,,,,,,,,,,,,,,,,,,,,,,,,"MET09909/07/20 10:53:02 METAR KSEA 071853Z 01009KT 10SM FEW015 BKN250 22/14 A3016 RMK A02 SLPNO T02220139","FM-15","7",,,,,,,,,,,,,,,,,,,,,,,,,,,"2007-05-17"
"72793024233","2020-09-07T11:53:00","FM-15","7",,,,,,,,,,,,,,,,,,,,,,,,,,,,,,,,,,,,,,,"30.14","54","77",,,,,"45","30.15","FEW:02 20 BKN:07 250","29.67","10.00","63","350",,"13",,,,,,,,,,,,,,,,,,,,,,,,,,,,,,,,,,,,,"MET10509/07/20 11:53:02 METAR KSEA 071953Z 35011KT 10SM FEW020 BKN250 25/12 A3014 RMK AO2 SLP211 T02500122 TSNO","FM-15","7",,,,,,,,,,,,,,,,,,,,,,,,,,,"2007-05-17"
"72793024233","2020-09-07T12:53:00","FM-15","7",,,,,,,,,,,,,,,,,,,,,,,,,,,,,,,,,,,,,,,"30.13","47","79",,,,,"32","30.14","FEW:02 50 BKN:07 250","29.66","10.00","61","350","26","20",,,,,,,,,,,,,,,,,,,,,,,,,,,,,,,,,,,,,"MET10309/07/20 12:53:02 METAR KSEA 072053Z 35017G23KT 10SM FEW050 BKN250 26/08 A3013 RMK AO2 SLP205 T02610083","FM-15","7",,,,,,,,,,,,,,,,,,,,,,,,,,,"2007-05-17"
"72793024233","2020-09-07T13:53:00","FM-15","7",,,,,,,,,,,,,,,,,,,,,,,,,,,,,,,,,,,,,,,"30.12","45","81",,,,,"28","30.13","FEW:02 50 BKN:07 250","29.65","10.00","61","340","31","23",,,,,,,,,,,,,,,,,,,,,,,,,,,,,,,,,,,,,"MET12309/07/20 13:53:02 METAR KSEA 072153Z 34020G27KT 10SM FEW050 BKN250 27/07 A3012 RMK AO2 PK WND 34027/2153 SLP202 T02720072 $","FM-15","7",,,,,,,,,,,,,,,,,,,,,,,,,,,"2007-05-17"
"72793024233","2020-09-07T14:53:00","FM-15","7",,,,,,,,,,,,,,,,,,,,,,,,,,,,,,,,,,,,,,,"30.11","41","83",,,,,"23",,"FEW:02 50 BKN:07 250","29.64","10.00","60","340","28","21",,,,,,,,,,,,,,,,,,,,,,,,,,,,,,,,,,,,,"MET10209/07/20 14:53:02 METAR KSEA 072253Z 34018G24KT 10SM FEW050 BKN250 28/05 A3011 RMK A02 SLPNO T02830050","FM-15","7",,,,,,,,,,,,,,,,,,,,,,,,,,,"2007-05-17"
"72793024233","2020-09-07T15:07:00","FM-16","7",,,,,,,,,,,,,,,,,,,,,,,,,,,,,,,,,,,,,,,"30.11","42","84",,,,,"23",,"FEW:02 50 BKN:07 250","29.64","10.00","61","340","34","21",,,,,,,,,,,,,,,,,,,,,,,,,,,,,,,,,,,,,"MET11609/07/20 15:07:02 SPECI KSEA 072307Z 34018G30KT 10SM FEW050 BKN250 29/06 A3011 RMK AO2 PK WND 36030/2304 T02890056 $","FM-16","7",,,,,,,,,,,,,,,,,,,,,,,,,,,"2007-05-17"
"72793024233","2020-09-07T15:53:00","FM-15","7",,,,,,,,,,,,,,,,,,,,,,,,,,,,,,,,,,,,,,,"30.12","41","83",,,,,"23",,"FEW:02 50 BKN:07 250","29.65","10.00","60","330","31","24",,,,,,,,,,,,,,,,,,,,,,,,,,,,,,,,,,,,,"MET11909/07/20 15:53:02 METAR KSEA 072353Z 33021G27KT 10SM FEW050 BKN250 28/05 A3012 RMK A02 PK WND32027/2341 SLPNO T02830050","FM-15","7",,,,,,,,,,,,,,,,,,,,,,,,,,,"2007-05-17"
"72793024233","2020-09-07T16:00:00","FM-12","4",,,,,,,,,,,,,,,,,,,,,,,,,,,,,,,,,,,,,,,,"41","83",,,,,"23",,"57","29.64","9.94","60","330",,"24",,,,,,,,,,,,,,,,,,,,,,,,,,,,,,,,,,,,,"SYN06272793 32766 63321 10283 20050 30036 92353 333 91027 555 90800=","FM-12","4",,,,,,,,,,,,,,,,,,,,,,,,,,,"2007-05-17"
"72793024233","2020-09-07T16:02:00","FM-16","7",,,,,,,,,,,,,,,,,,,,,,,,,,,,,,,,,,,,,,,"30.12","41","82",,,,,"23",,"FEW:02 50 BKN:07 250","29.65","10.00","60","330","33","26",,,,,,,,,,,,,,,,,,,,,,,,,,,,,,,,,,,,,"MET11609/07/20 16:02:01 SPECI KSEA 080002Z 33023G29KT 10SM FEW050 BKN250 28/05 A3012 RMK AO2 PK WND 35029/2359 T02780050 $","FM-16","7",,,,,,,,,,,,,,,,,,,,,,,,,,,"2007-05-17"
"72793024233","2020-09-07T16:53:00","FM-15","7",,,,,,,,,,,,,,,,,,,,,,,,,,,,,,,,,,,,,,,"30.13","39","82",,,,,"22",,"FEW:02 50 BKN:07 250","29.66","10.00","59","340","34","25",,,,,,,,,,,,,,,,,,,,,,,,,,,,,,,,,,,,,"MET12009/07/20 16:53:01 METAR KSEA 080053Z 34022G30KT 10SM FEW050 BKN250 28/04 A3013 RMK A02 PK WND34030/0004 SLPNO T027830044","FM-15","7",,,,,,,,,,,,,,,,,,,,,,,,,,,"2007-05-17"
"72793024233","2020-09-07T16:59:00","FM-16","7",,,,,,,,,,,,,,,,,,,,,,,,,,,,,,,,,,,,,,,"30.14","40","81",,,,,"23",,"FEW:02 50 BKN:07 250","29.67","10.00","59","360",,"18",,,,,,,,,,,,,,,,,,,,,,,,,,,,,,,,,,,,,"MET09509/07/20 16:59:01 SPECI KSEA 080059Z 36016KT 10SM FEW050 BKN250 27/04 A3014 RMK AO2 T02720044 $","FM-16","7",,,,,,,,,,,,,,,,,,,,,,,,,,,"2007-05-17"
"72793024233","2020-09-07T17:53:00","FM-15","7",,,,,,,,,,,,,,,,,,,,,,,,,,,,,,,,,,,,,,,"30.18","40","80",,,,,"24",,"FEW:02 60 BKN:07 250","29.71","10.00","59","020",,"11",,,,,,,,,,,,,,,,,,,,,,,,,,,,,,,,,,,,,"MET09909/07/20 17:53:01 METAR KSEA 080153Z 02010KT 10SM FEW060 BKN250 26/04 A3018 RMK A02 SLPNO T02640043","FM-15","7",,,,,,,,,,,,,,,,,,,,,,,,,,,"2007-05-17"
"72793024233","2020-09-07T18:53:00","FM-15","7",,,,,,,,,,,,,,,,,,,,,,,,,,,,,,,,,,,,,,,"30.20","39","77",,,,,"26",,"FEW:02 60 SCT:04 100 BKN:07 250","29.73","10.00","57","350",,"5",,,,,,,,,,,,,,,,,,,,,,,,,,,,,,,,,,,,,"MET11609/07/20 18:53:01 METAR KSEA 080253Z 35004KT 10SM FEW060 SCT100 BKN250 25/04 A3020 RMK A02 FU SCT100 SLPNO T02500041","FM-15","7",,,,,,,,,,,,,,,,,,,,,,,,,,,"2007-05-17"
"72793024233","2020-09-07T19:53:00","FM-15","7",,,,,,,,,,,,,,,,,,,,,,,,,,,,,,,,,,,,,,,"30.23","38","76","0.00",,,,"26",,"BKN:07 30","29.76","7.00","56","100","18","13",,,,,,,,,,,,,,,,,,,,,,,,,,,,,,,,,,,,,"MET10409/07/20 19:53:02 METAR KSEA 080353Z 10011G16KT 7SM BKN030 24/03 A3023 RMK A02 FU BKN030 SLPNO T02420033","FM-15","7",,,,,,,,,,,,,,,,,,,,,,,,,,,"2007-05-17"
"72793024233","2020-09-07T20:53:00","FM-15","7",,,,,,,,,,,,,,,,,,,,,,,,,,,,,,,,,,,,,,,"30.25","35","74","0.00",,,,"24",,"BKN:07 30","29.78","7.00","54","110","28","20",,,,,,,,,,,,,,,,,,,,,,,,,,,,,,,,,,,,,"MET10409/07/20 20:53:02 METAR KSEA 080453Z 11017G24KT 7SM BKN030 23/01 A3025 RMK A02 FU BKN030 SLPNO T02320014","FM-15","7",,,,,,,,,,,,,,,,,,,,,,,,,,,"2007-05-17"
"72793024233","2020-09-07T21:53:00","FM-15","7",,,,,,,,,,,,,,,,,,,,,,,,,,,,,,,,,,,,,,,"30.27","30","73","0.00",,,,"20",,"SCT:04 30","29.80","7.00","52","110","28","21",,,,,,,,,,,,,,,,,,,,,,,,,,,,,,,,,,,,,"MET10509/07/20 21:53:02 METAR KSEA 080553Z 11018G24KT 7SM SCT030 23/M01 A3027 RMK A02 FU SCT030 SLPNO T02271012","FM-15","7",,,,,,,,,,,,,,,,,,,,,,,,,,,"2007-05-17"
"72793024233","2020-09-07T22:00:00","FM-12","4",,,,,,,,,,,,,,,,,,,,,,,,,,,,,,,,,,,,,,,,"30","73",,,,,"20",,"26","29.78","6.84","52","110",,"21",,,,,,,,,,,,,,,,,,,,,,,,,,,,,,,,,,,,,"SYN06272793 32561 41118 10227 21012 30086 90553 333 91024 555 90806=","FM-12","4",,,,,,,,,,,,,,,,,,,,,,,,,,,"2007-05-17"
"72793024233","2020-09-07T22:53:00","FM-15","7",,,,,,,,,,,,,,,,,,,,,,,,,,,,,,,,,,,,,,,"30.29","26","72","0.00",,,,"18",,"SCT:04 30","29.82","7.00","51","100","28","17",,,,,,,,,,,,,,,,,,,,,,,,,,,,,,,,,,,,,"MET10509/07/20 22:53:02 METAR KSEA 080653Z 10015G24KT 7SM SCT030 22/M03 A3029 RMK A02 FU SCT030 SLPNO T02211342","FM-15","7",,,,,,,,,,,,,,,,,,,,,,,,,,,"2007-05-17"
"72793024233","2020-09-07T23:53:00","FM-15","7",,,,,,,,,,,,,,,,,,,,,,,,,,,,,,,,,,,,,,,"30.32","26","69","0.00",,,,"19",,"SCT:04 250","29.85","6.00","50","100","24","15",,,,,,,,,,,,,,,,,,,,,,,,,,,,,,,,,,,,,"MET09509/07/20 23:53:02 METAR KSEA 080753Z 10013G21KT 6SM SCT250 21/M04 A3032 RMK A02 SLPNO T02081036","FM-15","7",,,,,,,,,,,,,,,,,,,,,,,,,,,"2007-05-17"
"72793024233","2020-09-07T23:59:00","SOD  ","6",,,,,,,,,,,,,,,,,"47","73","46","30.15","29.69","58","14.7","8","9.6","0","84","61","340","35","0.00","0","0.0","330","26",,,,,,,,,,,,,,,,,,,,,,,,,,,,,,,,,,,,,,,,,,,,,,,,,,,,,,,,"SOD43224 HR PRECIPITATION (IN): 0.00 SNOW DEPTH (IN):0     24 HR SNOWFALL (IN):0.0  WEATHER(CODE):8  24 HR MAX TEMP (F): 8424 HR MIN TEMP (F): 61AVERAGE STATION PRESSURE(D):29.691 24 HR AVG TEMP (F): 73DEPART FROM NORMAL: 10  HEATING DEGREE DAYS:  0 COOLING DEGREE DAYS:  8 HOURLY INCREMENTAL PRECIPITATION VALUES (IN):    M    M    M    M    M    M    M    M    M    M    M    M    M    M    M    M    M    M     0.00 0.00 0.00 0.00 0.00","SOD  ","6",,,,,,,,,,,,,,,,,,,,,,,,,"0537","1836","2007-05-17"
"72793024233","2020-09-08T00:53:00","FM-15","7",,,,,,,,,,,,,,,,,,,,,,,,,,,,,,,,,,,,,,,"30.33","26","68",,,,,"20",,"SCT:04 250","29.86","7.00","49","110","29","20",,,,,,,,,,,,,,,,,,,,,,,,,,,,,,,,,,,,,"MET11609/08/20 00:53:02 METAR KSEA 080853Z 11017G25KT 7SM SCT250 20/M03 A3033 RMK A02 PK WND 11017G25/0845 SLPNO T02021032","FM-15","7",,,,,,,,,,,,,,,,,,,,,,,,,,,"2007-05-17"
"72793024233","2020-09-08T01:53:00","FM-15","7",,,,,,,,,,,,,,,,,,,,,,,,,,,,,,,,,,,,,,,"30.33","25","67",,,,,"20",,"FEW:02 250","29.86","10.00","48","120","26","20",,,,,,,,,,,,,,,,,,,,,,,,,,,,,,,,,,,,,"MET09609/08/20 01:53:02 METAR KSEA 080953Z 12017G23KT 10SM FEW250 20/M04 A3033 RMK A02 SLPNO T01961041","FM-15","7",,,,,,,,,,,,,,,,,,,,,,,,,,,"2007-05-17"
"72793024233","2020-09-08T02:53:00","FM-15","7",,,,,,,,,,,,,,,,,,,,,,,,,,,,,,,,,,,,,,,,,,,,,,,,,,,,,,,,,,,,,,,,,,,,,,,,,,,,,,,,,,,,,,,,,,,"MET05409/08/20 02:53:02 METAR KSEA 081053Z      KT RVRNO RMK","FM-15","7",,,,,,,,,,,,,,,,,,,,,,,,,,,"2007-05-17"
"72793024233","2020-09-08T03:53:00","FM-15","7",,,,,,,,,,,,,,,,,,,,,,,,,,,,,,,,,,,,,,,"30.32","34","67",,,,,"29",,"CLR:00","29.85","10.00","51","110","26","20",,,,,,,,,,,,,,,,,,,,,,,,,,,,,,,,,,,,,"MET09209/08/20 03:53:02 METAR KSEA 081153Z 11017G23KT 10SM CLR 20/01 A3032 RMK A02 SLPNO T01960012","FM-15","7",,,,,,,,,,,,,,,,,,,,,,,,,,,"2007-05-17"
"72793024233","2020-09-08T04:00:00","FM-12","4",,,,,,,,,,,,,,,,,,,,,,,,,,,,,,,,,,,,,,,,"34","67",,,,,"29",,,"29.83","9.94","51","110",,"20",,,,,,,,,,,,,,,,,,,,,,,,,,,,,,,,,,,,,"SYN06272793 32966 01117 10196 20012 30103 91153 333 91023 555 90812=","FM-12","4",,,,,,,,,,,,,,,,,,,,,,,,,,,"2007-05-17"
"72793024233","2020-09-08T04:53:00","FM-15","7",,,,,,,,,,,,,,,,,,,,,,,,,,,,,,,,,,,,,,,"30.32","26","69",,,,,"19",,"FEW:02 250","29.85","10.00","50","110","26","20",,,,,,,,,,,,,,,,,,,,,,,,,,,,,,,,,,,,,"MET09609/08/20 04:53:02 METAR KSEA 081253Z 11017G23KT 10SM FEW250 21/M04 A3032 RMK A02 SLPNO T02061036","FM-15","7",,,,,,,,,,,,,,,,,,,,,,,,,,,"2007-05-17"
"72793024233","2020-09-08T05:53:00","FM-15","7",,,,,,,,,,,,,,,,,,,,,,,,,,,,,,,,,,,,,,,"30.32","22","64",,,,,"20",,"FEW:02 20 FEW:02 250","29.85","10.00","46","090","23","16",,,,,,,,,,,,,,,,,,,,,,,,,,,,,,,,,,,,,"MET11309/08/20 05:53:02 METAR KSEA 081353Z 09014G20KT 10SM FEW020 FEW250 18/M06 A3032 RMK A02 SLPNO FU FEW020 T01781056","FM-15","7",,,,,,,,,,,,,,,,,,,,,,,,,,,"2007-05-17"
"72793024233","2020-09-08T06:53:00","FM-15","7",,,,,,,,,,,,,,,,,,,,,,,,,,,,,,,,,,,,,,,"30.33","24","65",,,,,"21",,"FEW:02 20 SCT:04 250","29.86","10.00","47","090",,"11",,,,,,,,,,,,,,,,,,,,,,,,,,,,,,,,,,,,,"MET11009/08/20 06:53:02 METAR KSEA 081453Z 09010KT 10SM FEW020 SCT250 18/M04 A3033 RMK A02 SLPNO FU FEW020 T01831044","FM-15","7",,,,,,,,,,,,,,,,,,,,,,,,,,,"2007-05-17"
"72793024233","2020-09-08T07:53:00","FM-15","7",,,,,,,,,,,,,,,,,,,,,,,,,,,,,,,,,,,,,,,"30.32","24","67",,,,,"20",,"FEW:02 20 FEW:02 250","29.85","10.00","48","080","29","15",,,,,,,,,,,,,,,,,,,,,,,,,,,,,,,,,,,,,"MET11309/08/20 07:53:02 METAR KSEA 081553Z 08013G25KT 10SM FEW020 FEW250 19/M04 A3032 RMK A02 SLPNO FU FEW020 T01941044","FM-15","7",,,,,,,,,,,,,,,,,,,,,,,,,,,"2007-05-17"
"72793024233","2020-09-08T08:53:00","FM-15","7",,,,,,,,,,,,,,,,,,,,,,,,,,,,,,,,,,,,,,,,,,,,,,,,,,,,,,,,,,,,,,,,,,,,,,,,,,,,,,,,,,,,,,,,,,,"MET05409/08/20 08:53:02 METAR KSEA 081653Z      KT RVRNO RMK","FM-15","7",,,,,,,,,,,,,,,,,,,,,,,,,,,"2007-05-17"
"72793024233","2020-09-08T09:53:00","FM-15","7",,,,,,,,,,,,,,,,,,,,,,,,,,,,,,,,,,,,,,,"30.28","26","71",,,,,"19",,"FEW:02 20 FEW:02 250","29.81","10.00","50","360",,"15",,,,,,,,,,,,,,,,,,,,,,,,,,,,,,,,,,,,,"MET11009/08/20 09:53:02 METAR KSEA 081753Z 36013KT 10SM FEW020 FEW250 22/M03 A3028 RMK A02 SLPNO FU FEW020 T02171033","FM-15","7",,,,,,,,,,,,,,,,,,,,,,,,,,,"2007-05-17"
"72793024233","2020-09-08T10:00:00","FM-12","4",,,,,,,,,,,,,,,,,,,,,,,,,,,,,,,,,,,,,,,,"27","72",,,,,"19",,"26","29.80","9.94","51","360",,"15",,,,,,,,,,,,,,,,,,,,,,,,,,,,,,,,,,,,,"SYN05272793 32566 23613 10220 21030 30090 91753 555 90818=","FM-12","4",,,,,,,,,,,,,,,,,,,,,,,,,,,"2007-05-17"
"72793024233","2020-09-08T10:53:00","FM-15","7",,,,,,,,,,,,,,,,,,,,,,,,,,,,,,,,,,,,,,,,,,,,,,,,,,,,,,,,,,,,,,,,,,,,,,,,,,,,,,,,,,,,,,,,,,,"MET05409/08/20 10:53:02 METAR KSEA 081853Z      KT RVRNO RMK","FM-15","7",,,,,,,,,,,,,,,,,,,,,,,,,,,"2007-05-17"
"72793024233","2020-09-08T11:53:00","FM-15","7",,,,,,,,,,,,,,,,,,,,,,,,,,,,,,,,,,,,,,,,,,,,,,,,,,,,,,,,,,,,,,,,,,,,,,,,,,,,,,,,,,,,,,,,,,,"MET05409/08/20 11:53:02 METAR KSEA 081953Z      KT RVRNO RMK","FM-15","7",,,,,,,,,,,,,,,,,,,,,,,,,,,"2007-05-17"
"72793024233","2020-09-08T12:53:00","FM-15","7",,,,,,,,,,,,,,,,,,,,,,,,,,,,,,,,,,,,,,,,,,,,,,,,,,,,,,,,,,,,,,,,,,,,,,,,,,,,,,,,,,,,,,,,,,,"MET05409/08/20 12:53:02 METAR KSEA 082053Z      KT RVRNO RMK","FM-15","7",,,,,,,,,,,,,,,,,,,,,,,,,,,"2007-05-17"
"72793024233","2020-09-08T13:53:00","FM-15","7",,,,,,,,,,,,,,,,,,,,,,,,,,,,,,,,,,,,,,,,,,,,,,,,,,,,,,,,,,,,,,,,,,,,,,,,,,,,,,,,,,,,,,,,,,,"MET05409/08/20 13:53:02 METAR KSEA 082153Z      KT RVRNO RMK","FM-15","7",,,,,,,,,,,,,,,,,,,,,,,,,,,"2007-05-17"
"72793024233","2020-09-08T14:53:00","FM-15","7",,,,,,,,,,,,,,,,,,,,,,,,,,,,,,,,,,,,,,,"30.14","31","81",,,,,"16",,"FEW:02 20","29.67","10.00","56","020",,"17",,,,,,,,,,,,,,,,,,,,,,,,,,,,,,,,,,,,,"MET10309/08/20 14:53:02 METAR KSEA 082253Z 02015KT 10SM FEW020 27/M01 A3014 RMK A02 SLPNO FU FEW020 T02721006","FM-15","7",,,,,,,,,,,,,,,,,,,,,,,,,,,"2007-05-17"
"72793024233","2020-09-08T15:53:00","FM-15","7",,,,,,,,,,,,,,,,,,,,,,,,,,,,,,,,,,,,,,,"30.12","32","79",,,,,"18",,"FEW:02 20","29.65","7.00","55","010","24","16",,,,,,,,,,,,,,,,,,,,,,,,,,,,,,,,,,,,,"MET10409/08/20 15:53:02 METAR KSEA 082353Z 01014G21KT 7SM FEW020 26/00 A3012 RMK A02 SLPNO FU FEW020 T02610000","FM-15","7",,,,,,,,,,,,,,,,,,,,,,,,,,,"2007-05-17"
"72793024233","2020-09-08T16:00:00","FM-12","4",,,,,,,,,,,,,,,,,,,,,,,,,,,,,,,,,,,,,,,,"32","79",,,,,"18",,"26","29.64","6.84","55","010",,"16",,,,,,,,,,,,,,,,,,,,,,,,,,,,,,,,,,,,,"SYN06272793 32561 20114 10260 20000 30036 92353 333 91021 555 90900=","FM-12","4",,,,,,,,,,,,,,,,,,,,,,,,,,,"2007-05-17"
"72793024233","2020-09-08T16:53:00","FM-15","7",,,,,,,,,,,,,,,,,,,,,,,,,,,,,,,,,,,,,,,,,,,,,,,,,,,,,,,,,,,,,,,,,,,,,,,,,,,,,,,,,,,,,,,,,,,"MET05409/08/20 16:53:01 METAR KSEA 090053Z      KT RVRNO RMK","FM-15","7",,,,,,,,,,,,,,,,,,,,,,,,,,,"2007-05-17"
"72793024233","2020-09-08T17:53:00","FM-15","7",,,,,,,,,,,,,,,,,,,,,,,,,,,,,,,,,,,,,,,,,,,,,,,,,,,,,,,,,,,,,,,,,,,,,,,,,,,,,,,,,,,,,,,,,,,"MET05409/08/20 17:53:01 METAR KSEA 090153Z      KT RVRNO RMK","FM-15","7",,,,,,,,,,,,,,,,,,,,,,,,,,,"2007-05-17"
"72793024233","2020-09-08T18:53:00","FM-15","7",,,,,,,,,,,,,,,,,,,,,,,,,,,,,,,,,,,,,,,,,,,,,,,,,,,,,,,,,,,,,,,,,,,,,,,,,,,,,,,,,,,,,,,,,,,"MET05409/08/20 18:53:01 METAR KSEA 090253Z      KT RVRNO RMK","FM-15","7",,,,,,,,,,,,,,,,,,,,,,,,,,,"2007-05-17"
"72793024233","2020-09-08T19:53:00","FM-15","7",,,,,,,,,,,,,,,,,,,,,,,,,,,,,,,,,,,,,,,"30.10","40","70",,,,,"34",,"CLR:00","29.63","7.00","54","030",,"9",,,,,,,,,,,,,,,,,,,,,,,,,,,,,,,,,,,,,"MET08809/08/20 19:53:02 METAR KSEA 090353Z 03008KT 7SM CLR 21/04 A3010 RMK A02 SLPNO T02110044","FM-15","7",,,,,,,,,,,,,,,,,,,,,,,,,,,"2007-05-17"
"72793024233","2020-09-08T20:53:00","FM-15","7",,,,,,,,,,,,,,,,,,,,,,,,,,,,,,,,,,,,,,,"30.10","42","68",,,,,"39",,"CLR:00","29.63","7.00","54","030",,"8",,,,,,,,,,,,,,,,,,,,,,,,,,,,,,,,,,,,,"MET08809/08/20 20:53:01 METAR KSEA 090453Z 03007KT 7SM CLR 20/06 A3010 RMK A02 SLPNO T02000056","FM-15","7",,,,,,,,,,,,,,,,,,,,,,,,,,,"2007-05-17"
"72793024233","2020-09-08T21:53:00","FM-15","7",,,,,,,,,,,,,,,,,,,,,,,,,,,,,,,,,,,,,,,,,,,,,,,,,,,,,,,,,,,,,,,,,,,,,,,,,,,,,,,,,,,,,,,,,,,"MET05409/08/20 21:53:01 METAR KSEA 090553Z      KT RVRNO RMK","FM-15","7",,,,,,,,,,,,,,,,,,,,,,,,,,,"2007-05-17"
"72793024233","2020-09-08T22:00:00","FM-12","4",,,,,,,,,,,,,,,,,,,,,,,,,,,,,,,,,,,,,,,,,,,,,,,,,,,,"050",,"61s",,,,,,,,,,,,,,,,,,,,,,,,,,,,,,,,,,,,,"SYN02872793 35/// 90553 555 90906=","FM-12","4",,,,,,,,,,,,,,,,,,,,,,,,,,,"2007-05-17"
"72793024233","2020-09-08T22:53:00","FM-15","7",,,,,,,,,,,,,,,,,,,,,,,,,,,,,,,,,,,,,,,"30.09","41","65",,,,,"42",,"CLR:00","29.62","10.00","53","030",,"10",,,,,,,,,,,,,,,,,,,,,,,,,,,,,,,,,,,,,"MET08909/08/20 22:53:02 METAR KSEA 090653Z 03009KT 10SM CLR 18/05 A3009 RMK A02 SLPNO T01830050","FM-15","7",,,,,,,,,,,,,,,,,,,,,,,,,,,"2007-05-17"
"72793024233","2020-09-08T23:53:00","FM-15","7",,,,,,,,,,,,,,,,,,,,,,,,,,,,,,,,,,,,,,,"30.08","42","63",,,,,"47",,"CLR:00","29.61","10.00","52","030",,"9",,,,,,,,,,,,,,,,,,,,,,,,,,,,,,,,,,,,,"MET08909/08/20 23:53:02 METAR KSEA 090753Z 03008KT 10SM CLR 17/05 A3008 RMK A02 SLPNO T01720056","FM-15","7",,,,,,,,,,,,,,,,,,,,,,,,,,,"2007-05-17"
"72793024233","2020-09-08T23:59:00","SOD  ","6",,,,,,,,,,,,,,,,,,"73",,,,,"14.8","8","9.8","0","83","63","110","29","0.00","0","0.0","110","20",,,,,,,,,,,,,,,,,,,,,,,,,,,,,,,,,,,,,,,,,,,,,,,,,,,,,,,,"SOD56724 HR PRECIPITATION (IN): 0.00 SNOW DEPTH (IN):0     24 HR SNOWFALL (IN):0.0  24 HR MAX TEMP (F): 8324 HR MIN TEMP (F): 63PEAK WIND SPEED (MPH): 29 PEAK WIND DIR (DEG):110 PEAK WIND TIME (LST):      FASTEST 2MIN SPEED (MPH): 20FASTEST 2MIN DIR (DEG):110 FASTEST 2MIN TIME (LST):     AVERAGE WIND SPEED (MPH):14.8 24 HR AVG TEMP (F): 73DEPART FROM NORMAL: 10  HEATING DEGREE DAYS:  0 COOLING DEGREE DAYS:  8 HOURLY INCREMENTAL PRECIPITATION VALUES (IN):    M    M    M    M    M    M    M    M    M    M    M    M    M    M    M    M    M    M    M    M    M    M    M","SOD  ","6",,,,,,,,,,,,,,,,,,,,,,,,,"0538","1834","2007-05-17"
"72793024233","2020-09-09T00:53:00","FM-15","7",,,,,,,,,,,,,,,,,,,,,,,,,,,,,,,,,,,,,,,"30.07","42","64",,,,,"45",,"CLR:00","29.60","10.00","53","010",,"11",,,,,,,,,,,,,,,,,,,,,,,,,,,,,,,,,,,,,"MET08909/09/20 00:53:02 METAR KSEA 090853Z 01010KT 10SM CLR 18/06 A3007 RMK A02 SLPNO T01780056","FM-15","7",,,,,,,,,,,,,,,,,,,,,,,,,,,"2007-05-17"
"72793024233","2020-09-09T01:53:00","FM-15","7",,,,,,,,,,,,,,,,,,,,,,,,,,,,,,,,,,,,,,,"30.07","42","62",,,,,"48",,"CLR:00","29.60","10.00","52","010",,"10",,,,,,,,,,,,,,,,,,,,,,,,,,,,,,,,,,,,,"MET08909/09/20 01:53:02 METAR KSEA 090953Z 01009KT 10SM CLR 17/06 A3007 RMK A02 SLPNO T01670056","FM-15","7",,,,,,,,,,,,,,,,,,,,,,,,,,,"2007-05-17"
"72793024233","2020-09-09T02:53:00","FM-15","7",,,,,,,,,,,,,,,,,,,,,,,,,,,,,,,,,,,,,,,"30.06","42","61",,,,,"50",,"CLR:00","29.59","10.00","51","040",,"11",,,,,,,,,,,,,,,,,,,,,,,,,,,,,,,,,,,,,"MET08909/09/20 02:53:02 METAR KSEA 091053Z 04010KT 10SM CLR 16/06 A3006 RMK A02 SLPNO T01610056","FM-15","7",,,,,,,,,,,,,,,,,,,,,,,,,,,"2007-05-17"
"72793024233","2020-09-09T03:53:00","FM-15","7",,,,,,,,,,,,,,,,,,,,,,,,,,,,,,,,,,,,,,,"30.05","45","61",,,,,"56",,"CLR:00","29.58","10.00","53","030",,"11",,,,,,,,,,,,,,,,,,,,,,,,,,,,,,,,,,,,,"MET08909/09/20 03:53:02 METAR KSEA 091153Z 03010KT 10SM CLR 16/07 A3005 RMK A02 SLPNO T01610072","FM-15","7",,,,,,,,,,,,,,,,,,,,,,,,,,,"2007-05-17"
"72793024233","2020-09-09T04:00:00","FM-12","4",,,,,,,,,,,,,,,,,,,,,,,,,,,,,,,,,,,,,,,,"45","61",,,,,"56",,,"29.57","9.94","53","030",,"11",,,,,,,,,,,,,,,,,,,,,,,,,,,,,,,,,,,,,"SYN05272793 32966 00310 10161 20072 30013 91153 555 90912=","FM-12","4",,,,,,,,,,,,,,,,,,,,,,,,,,,"2007-05-17"
"72793024233","2020-09-09T04:53:00","FM-15","7",,,,,,,,,,,,,,,,,,,,,,,,,,,,,,,,,,,,,,,"30.05","44","60",,,,,"56",,"CLR:00","29.58","10.00","52","020",,"10",,,,,,,,,,,,,,,,,,,,,,,,,,,,,,,,,,,,,"MET08909/09/20 04:53:02 METAR KSEA 091253Z 02009KT 10SM CLR 16/07 A3005 RMK A02 SLPNO T01560067","FM-15","7",,,,,,,,,,,,,,,,,,,,,,,,,,,"2007-05-17"
"72793024233","2020-09-09T05:53:00","FM-15","7",,,,,,,,,,,,,,,,,,,,,,,,,,,,,,,,,,,,,,,"30.05","44","60",,"FU:3 |FU |FU",,,"56",,"CLR:00","29.58","7.00","52","020",,"15",,,,,,,,,,,,,,,,,,,,,,,,,,,,,,,,,,,,,"MET09109/09/20 05:53:02 METAR KSEA 091353Z 02013KT 7SM FU CLR 16/07 A3005 RMK A02 SLPNO T01560067","FM-15","7",,,,,,,,,,,,,,,,,,,,,,,,,,,"2007-05-17"
"72793024233","2020-09-09T06:53:00","FM-15","7",,,,,,,,,,,,,,,,,,,,,,,,,,,,,,,,,,,,,,,"30.06","42","64",,"FU:3 |FU |FU",,,"45",,"CLR:00","29.59","7.00","53","020",,"14",,,,,,,,,,,,,,,,,,,,,,,,,,,,,,,,,,,,,"MET09109/09/20 06:53:02 METAR KSEA 091453Z 02012KT 7SM FU CLR 18/06 A3006 RMK A02 SLPNO T01780056","FM-15","7",,,,,,,,,,,,,,,,,,,,,,,,,,,"2007-05-17"
"72793024233","2020-09-09T07:53:00","FM-15","7",,,,,,,,,,,,,,,,,,,,,,,,,,,,,,,,,,,,,,,"30.05","43","66",,"FU:3 |FU |FU",,,"43",,"CLR:00","29.58","7.00","54","020",,"14",,,,,,,,,,,,,,,,,,,,,,,,,,,,,,,,,,,,,"MET09109/09/20 07:53:02 METAR KSEA 091553Z 02012KT 7SM FU CLR 19/06 A3005 RMK A02 SLPNO T01890061","FM-15","7",,,,,,,,,,,,,,,,,,,,,,,,,,,"2007-05-17"
"72793024233","2020-09-09T08:53:00","FM-15","7",,,,,,,,,,,,,,,,,,,,,,,,,,,,,,,,,,,,,,,"30.05","42","71",,"FU:3 |FU |FU",,,"35",,"CLR:00","29.58","7.00","56","030",,"13",,,,,,,,,,,,,,,,,,,,,,,,,,,,,,,,,,,,,"MET09109/09/20 08:53:02 METAR KSEA 091653Z 03011KT 7SM FU CLR 22/06 A3005 RMK A02 SLPNO T02170056","FM-15","7",,,,,,,,,,,,,,,,,,,,,,,,,,,"2007-05-17"
"72793024233","2020-09-09T09:53:00","FM-15","7",,,,,,,,,,,,,,,,,,,,,,,,,,,,,,,,,,,,,,,"30.04","44","76",,"FU:3 |FU |FU",,,"32",,"CLR:00","29.57","7.00","58","010",,"15",,,,,,,,,,,,,,,,,,,,,,,,,,,,,,,,,,,,,"MET09109/09/20 09:53:02 METAR KSEA 091753Z 01013KT 7SM FU CLR 24/07 A3004 RMK A02 SLPNO T02440067","FM-15","7",,,,,,,,,,,,,,,,,,,,,,,,,,,"2007-05-17"
"72793024233","2020-09-09T10:00:00","FM-12","4",,,,,,,,,,,,,,,,,,,,,,,,,,,,,,,,,,,,,,,,"44","76",,"||FU",,,"32",,,"29.56","6.84","58","010",,"15",,,,,,,,,,,,,,,,,,,,,,,,,,,,,,,,,,,,,"SYN05872793 31961 00113 10244 20067 30009 704// 91753 555 90918=","FM-12","4",,,,,,,,,,,,,,,,,,,,,,,,,,,"2007-05-17"
"72793024233","2020-09-09T10:53:00","FM-15","7",,,,,,,,,,,,,,,,,,,,,,,,,,,,,,,,,,,,,,,"30.02","45","79",,"FU:3 |FU |FU",,,"30",,"CLR:00","29.55","7.00","60","010",,"15",,,,,,,,,,,,,,,,,,,,,,,,,,,,,,,,,,,,,"MET09109/09/20 10:53:02 METAR KSEA 091853Z 01013KT 7SM FU CLR 26/07 A3002 RMK A02 SLPNO T02610072","FM-15","7",,,,,,,,,,,,,,,,,,,,,,,,,,,"2007-05-17"
"72793024233","2020-09-09T11:53:00","FM-15","7",,,,,,,,,,,,,,,,,,,,,,,,,,,,,,,,,,,,,,,"30.00","45","83",,"FU:3 |FU |FU",,,"26",,"CLR:00","29.53","7.00","61","010",,"16",,,,,,,,,,,,,,,,,,,,,,,,,,,,,,,,,,,,,"MET09109/09/20 11:53:02 METAR KSEA 091953Z 01014KT 7SM FU CLR 28/07 A3000 RMK A02 SLPNO T02830072","FM-15","7",,,,,,,,,,,,,,,,,,,,,,,,,,,"2007-05-17"
"72793024233","2020-09-09T12:53:00","FM-15","7",,,,,,,,,,,,,,,,,,,,,,,,,,,,,,,,,,,,,,,"29.98","44","86",,"FU:3 |FU |FU",,,"23",,"CLR:00","29.51","7.00","62","010",,"17",,,,,,,,,,,,,,,,,,,,,,,,,,,,,,,,,,,,,"MET09109/09/20 12:53:02 METAR KSEA 092053Z 01015KT 7SM FU CLR 30/07 A2998 RMK A02 SLPNO T03000067","FM-15","7",,,,,,,,,,,,,,,,,,,,,,,,,,,"2007-05-17"
"72793024233","2020-09-09T13:53:00","FM-15","7",,,,,,,,,,,,,,,,,,,,,,,,,,,,,,,,,,,,,,,"29.97","43","87",,,,,"22",,"CLR:00","29.50","7.00","62","020",,"14",,,,,,,,,,,,,,,,,,,,,,,,,,,,,,,,,,,,,"MET08809/09/20 13:53:02 METAR KSEA 092153Z 02012KT 7SM CLR 31/06 A2997 RMK A02 SLPNO T03060063","FM-15","7",,,,,,,,,,,,,,,,,,,,,,,,,,,"2007-05-17"
"72793024233","2020-09-09T14:53:00","FM-15","7",,,,,,,,,,,,,,,,,,,,,,,,,,,,,,,,,,,,,,,"29.95","45","87",,,,,"23",,"CLR:00","29.48","7.00","63","360",,"16",,,,,,,,,,,,,,,,,,,,,,,,,,,,,,,,,,,,,"MET08809/09/20 14:53:02 METAR KSEA 092253Z 36014KT 7SM CLR 31/07 A2995 RMK A02 SLPNO T03060072","FM-15","7",,,,,,,,,,,,,,,,,,,,,,,,,,,"2007-05-17"
"72793024233","2020-09-09T15:53:00","FM-15","7",,,,,,,,,,,,,,,,,,,,,,,,,,,,,,,,,,,,,,,"29.94","46","87",,,,,"24",,"CLR:00","29.47","7.00","63","360",,"14",,,,,,,,,,,,,,,,,,,,,,,,,,,,,,,,,,,,,"MET08809/09/20 15:53:02 METAR KSEA 092353Z 36012KT 7SM CLR 31/08 A2994 RMK A02 SLPNO T03060078","FM-15","7",,,,,,,,,,,,,,,,,,,,,,,,,,,"2007-05-17"
"72793024233","2020-09-09T16:00:00","FM-12","4",,,,,,,,,,,,,,,,,,,,,,,,,,,,,,,,,,,,,,,,"46","87",,,,,"24",,,"29.46","6.84","63","360",,"14",,,,,,,,,,,,,,,,,,,,,,,,,,,,,,,,,,,,,"SYN05272793 32961 03612 10306 20078 39976 92353 555 91000=","FM-12","4",,,,,,,,,,,,,,,,,,,,,,,,,,,"2007-05-17"
"72793024233","2020-09-09T16:53:00","FM-15","7",,,,,,,,,,,,,,,,,,,,,,,,,,,,,,,,,,,,,,,"29.93","46","85",,,,,"26",,"CLR:00","29.47","7.00","63","360",,"14",,,,,,,,,,,,,,,,,,,,,,,,,,,,,,,,,,,,,"MET08809/09/20 16:53:01 METAR KSEA 100053Z 36012KT 7SM CLR 29/14 A2993 RMK A02 SLPNO T02940078","FM-15","7",,,,,,,,,,,,,,,,,,,,,,,,,,,"2007-05-17"
"72793024233","2020-09-09T17:53:00","FM-15","7",,,,,,,,,,,,,,,,,,,,,,,,,,,,,,,,,,,,,,,"29.93","45","83",,,,,"26",,"CLR:00","29.47","7.00","61","020",,"13",,,,,,,,,,,,,,,,,,,,,,,,,,,,,,,,,,,,,"MET08809/09/20 17:53:01 METAR KSEA 100153Z 02011KT 7SM CLR 28/07 A2993 RMK A02 SLPNO T02830072","FM-15","7",,,,,,,,,,,,,,,,,,,,,,,,,,,"2007-05-17"
"72793024233","2020-09-09T18:53:00","FM-15","7",,,,,,,,,,,,,,,,,,,,,,,,,,,,,,,,,,,,,,,"29.94","47","79",,,,,"32",,"CLR:00","29.47","7.00","61","030",,"11",,,,,,,,,,,,,,,,,,,,,,,,,,,,,,,,,,,,,"MET08809/09/20 18:53:01 METAR KSEA 100253Z 03010KT 7SM CLR 26/08 A2994 RMK A02 SLPNO T02610083","FM-15","7",,,,,,,,,,,,,,,,,,,,,,,,,,,"2007-05-17"
"72793024233","2020-09-09T19:53:00","FM-15","7",,,,,,,,,,,,,,,,,,,,,,,,,,,,,,,,,,,,,,,"29.95","47","76",,,,,"36",,"CLR:00","29.48","7.00","60","030",,"11",,,,,,,,,,,,,,,,,,,,,,,,,,,,,,,,,,,,,"MET08809/09/20 19:53:02 METAR KSEA 100353Z 03010KT 7SM CLR 24/08 A2995 RMK A02 SLPNO T02440083","FM-15","7",,,,,,,,,,,,,,,,,,,,,,,,,,,"2007-05-17"
"72793024233","2020-09-09T20:53:00","FM-15","7",,,,,,,,,,,,,,,,,,,,,,,,,,,,,,,,,,,,,,,"29.96","47","76",,,,,"36",,"CLR:00","29.49","10.00","60","020",,"13",,,,,,,,,,,,,,,,,,,,,,,,,,,,,,,,,,,,,"MET08909/09/20 20:53:02 METAR KSEA 100453Z 02011KT 10SM CLR 24/08 A2996 RMK A02 SLPNO T02440082","FM-15","7",,,,,,,,,,,,,,,,,,,,,,,,,,,"2007-05-17"
"72793024233","2020-09-09T21:53:00","FM-15","7",,,,,,,,,,,,,,,,,,,,,,,,,,,,,,,,,,,,,,,"29.96","48","73",,,,,"41",,"CLR:00","29.49","10.00","59","030",,"10",,,,,,,,,,,,,,,,,,,,,,,,,,,,,,,,,,,,,"MET08809/09/20 21:53:02 METAR KSEA 100553Z 03009KT 10SM CLR 23/09 A2996 RMK A02 SLPNO T0228008","FM-15","7",,,,,,,,,,,,,,,,,,,,,,,,,,,"2007-05-17"
"72793024233","2020-09-09T22:00:00","FM-12","4",,,,,,,,,,,,,,,,,,,,,,,,,,,,,,,,,,,,,,,,"48","73",,,,,"41",,,"29.48","9.94","59","030",,"10",,,,,,,,,,,,,,,,,,,,,,,,,,,,,,,,,,,,,"SYN05272793 32966 00309 10230 20090 39983 90553 555 91006=","FM-12","4",,,,,,,,,,,,,,,,,,,,,,,,,,,"2007-05-17"
"72793024233","2020-09-09T22:53:00","FM-15","7",,,,,,,,,,,,,,,,,,,,,,,,,,,,,,,,,,,,,,,"29.96","49","71",,,,,"46",,"CLR:00","29.49","10.00","59","020",,"14",,,,,,,,,,,,,,,,,,,,,,,,,,,,,,,,,,,,,"MET08909/09/20 22:53:02 METAR KSEA 100653Z 02012KT 10SM CLR 22/09 A2996 RMK A02 SLPNO T02170094","FM-15","7",,,,,,,,,,,,,,,,,,,,,,,,,,,"2007-05-17"
"72793024233","2020-09-09T23:53:00","FM-15","7",,,,,,,,,,,,,,,,,,,,,,,,,,,,,,,,,,,,,,,"29.96","50","69",,,,,"51",,"CLR:00","29.49","10.00","58","040",,"13",,,,,,,,,,,,,,,,,,,,,,,,,,,,,,,,,,,,,"MET08909/09/20 23:53:02 METAR KSEA 100753Z 04011KT 10SM CLR 21/10 A2996 RMK A02 SLPNO T02060100","FM-15","7",,,,,,,,,,,,,,,,,,,,,,,,,,,"2007-05-17"
"72793024233","2020-09-09T23:59:00","SOD  ","6",,,,,,,,,,,,,,,,,"45","74","38","30.27","29.53","58","13.0","9","11.0","0","88","59",,,"0.00","0","0.0","010","17",,,,,,,,,,,,,,,,,,,,,,,,,,,,,,,,,,,,,,,,,,,,,,,,,,,,,,,,"SOD52624 HR PRECIPITATION (IN): 0.00 SNOW DEPTH (IN):0     24 HR SNOWFALL (IN):0.0  24 HR MAX TEMP (F): 8824 HR MIN TEMP (F): 59AVERAGE STATION PRESSURE(D):29.534  FASTEST 2MIN SPEED (MPH): 17FASTEST 2MIN DIR (DEG): 10 FASTEST 2MIN TIME (LST):     AVERAGE WIND SPEED (MPH):13.0 24 HR AVG TEMP (F): 74DEPART FROM NORMAL: 11  HEATING DEGREE DAYS:  0 COOLING DEGREE DAYS:  9 HOURLY INCREMENTAL PRECIPITATION VALUES (IN):    M    M    M    M    M    M    M    M    M    M    M    M    M    M    M    M    M    M    M    M    M    M    M","SOD  ","6",,,,,,,,,,,,,,,,,,,,,,,,,"0540","1832","2007-05-17"
"72793024233","2020-09-10T00:53:00","FM-15","7",,,,,,,,,,,,,,,,,,,,,,,,,,,,,,,,,,,,,,,"29.96","43","75",,,,,"32",,"CLR:00","29.49","10.00","58","060",,"8",,,,,,,,,,,,,,,,,,,,,,,,,,,,,,,,,,,,,"MET08909/10/20 00:53:02 METAR KSEA 100853Z 06007KT 10SM CLR 24/06 A2996 RMK A02 SLPNO T02390061","FM-15","7",,,,,,,,,,,,,,,,,,,,,,,,,,,"2007-05-17"
"72793024233","2020-09-10T01:53:00","FM-15","7",,,,,,,,,,,,,,,,,,,,,,,,,,,,,,,,,,,,,,,"29.96","49","68",,,,,"50",,"CLR:00","29.49","10.00","57","030",,"11",,,,,,,,,,,,,,,,,,,,,,,,,,,,,,,,,,,,,"MET08909/10/20 01:53:02 METAR KSEA 100953Z 03010KT 10SM CLR 20/09 A2996 RMK A02 SLPNO T02010094","FM-15","7",,,,,,,,,,,,,,,,,,,,,,,,,,,"2007-05-17"
"72793024233","2020-09-10T02:53:00","FM-15","7",,,,,,,,,,,,,,,,,,,,,,,,,,,,,,,,,,,,,,,"29.97","48","66",,,,,"52",,"CLR:00","29.50","10.00","56","030",,"8",,,,,,,,,,,,,,,,,,,,,,,,,,,,,,,,,,,,,"MET08909/10/20 02:53:02 METAR KSEA 101053Z 03007KT 10SM CLR 19/09 A2997 RMK A02 SLPNO T01890089","FM-15","7",,,,,,,,,,,,,,,,,,,,,,,,,,,"2007-05-17"
"72793024233","2020-09-10T03:53:00","FM-15","7",,,,,,,,,,,,,,,,,,,,,,,,,,,,,,,,,,,,,,,"29.97","47","65",,,,,"52",,"CLR:00","29.50","10.00","55","000",,"0",,,,,,,,,,,,,,,,,,,,,,,,,,,,,,,,,,,,,"MET08909/10/20 03:53:02 METAR KSEA 101153Z 00000KT 10SM CLR 18/08 A2997 RMK A02 SLPNO T01830083","FM-15","7",,,,,,,,,,,,,,,,,,,,,,,,,,,"2007-05-17"
"72793024233","2020-09-10T04:00:00","FM-12","4",,,,,,,,,,,,,,,,,,,,,,,,,,,,,,,,,,,,,,,,"47","65",,,,,"52",,,"29.49","9.94","55","000",,"0",,,,,,,,,,,,,,,,,,,,,,,,,,,,,,,,,,,,,"SYN05272793 32966 00000 10183 20083 39986 91153 555 91012=","FM-12","4",,,,,,,,,,,,,,,,,,,,,,,,,,,"2007-05-17"
"72793024233","2020-09-10T04:53:00","FM-15","7",,,,,,,,,,,,,,,,,,,,,,,,,,,,,,,,,,,,,,,"29.97","47","65",,,,,"51",,"CLR:00","29.50","10.00","55","350",,"3",,,,,,,,,,,,,,,,,,,,,,,,,,,,,,,,,,,,,"MET08909/10/20 04:53:02 METAR KSEA 101253Z 35003KT 10SM CLR 19/08 A2997 RMK A02 SLPNO T01860081","FM-15","7",,,,,,,,,,,,,,,,,,,,,,,,,,,"2007-05-17"
"72793024233","2020-09-10T05:53:00","FM-15","7",,,,,,,,,,,,,,,,,,,,,,,,,,,,,,,,,,,,,,,"29.98","49","61",,,,,"65",,"CLR:00","29.51","10.00","55","010",,"3",,,,,,,,,,,,,,,,,,,,,,,,,,,,,,,,,,,,,"MET08909/10/20 05:53:02 METAR KSEA 101353Z 01003KT 10SM CLR 16/09 A2998 RMK A02 SLPNO T01610094","FM-15","7",,,,,,,,,,,,,,,,,,,,,,,,,,,"2007-05-17"
"72793024233","2020-09-10T06:53:00","FM-15","7",,,,,,,,,,,,,,,,,,,,,,,,,,,,,,,,,,,,,,,"30.00","50","64",,,,,"60",,"CLR:00","29.53","10.00","56","350",,"3",,,,,,,,,,,,,,,,,,,,,,,,,,,,,,,,,,,,,"MET08909/10/20 06:53:02 METAR KSEA 101453Z 35003KT 10SM CLR 18/10 A3000 RMK A02 SLPNO T01780100","FM-15","7",,,,,,,,,,,,,,,,,,,,,,,,,,,"2007-05-17"
"72793024233","2020-09-10T07:53:00","FM-15","7",,,,,,,,,,,,,,,,,,,,,,,,,,,,,,,,,,,,,,,"30.00","50","69",,,,,"51",,"CLR:00","29.53","10.00","58","350",,"7",,,,,,,,,,,,,,,,,,,,,,,,,,,,,,,,,,,,,"MET08909/10/20 07:53:02 METAR KSEA 101553Z 35006KT 10SM CLR 21/10 A3000 RMK A02 SLPNO T02060100","FM-15","7",,,,,,,,,,,,,,,,,,,,,,,,,,,"2007-05-17"
"72793024233","2020-09-10T08:53:00","FM-15","7",,,,,,,,,,,,,,,,,,,,,,,,,,,,,,,,,,,,,,,"30.01","51","74",,,,,"45",,"CLR:00","29.54","10.00","61","000",,"0",,,,,,,,,,,,,,,,,,,,,,,,,,,,,,,,,,,,,"MET08909/10/20 08:53:02 METAR KSEA 101653Z 00000KT 10SM CLR 23/11 A3001 RMK A02 SLPNO T02330106","FM-15","7",,,,,,,,,,,,,,,,,,,,,,,,,,,"2007-05-17"
"72793024233","2020-09-10T09:53:00","FM-15","7",,,,,,,,,,,,,,,,,,,,,,,,,,,,,,,,,,,,,,,"30.00","52","78",,,,,"40",,"CLR:00","29.53","10.00","63","000",,"0",,,,,,,,,,,,,,,,,,,,,,,,,,,,,,,,,,,,,"MET08909/10/20 09:53:02 METAR KSEA 101753Z 00000KT 10SM CLR 26/11 A3000 RMK A02 SLPNO T02560111","FM-15","7",,,,,,,,,,,,,,,,,,,,,,,,,,,"2007-05-17"
"72793024233","2020-09-10T10:00:00","FM-12","4",,,,,,,,,,,,,,,,,,,,,,,,,,,,,,,,,,,,,,,,"52","78",,,,,"40",,,"29.52","9.94","63","000",,"0",,,,,,,,,,,,,,,,,,,,,,,,,,,,,,,,,,,,,"SYN05272793 32966 00000 10256 20111 39996 91753 555 91018=","FM-12","4",,,,,,,,,,,,,,,,,,,,,,,,,,,"2007-05-17"
"72793024233","2020-09-10T10:53:00","FM-15","7",,,,,,,,,,,,,,,,,,,,,,,,,,,,,,,,,,,,,,,"29.99","53","81",,,,,"38",,"CLR:00","29.52","10.00","64","290",,"5",,,,,,,,,,,,,,,,,,,,,,,,,,,,,,,,,,,,,"MET08909/10/20 10:53:02 METAR KSEA 101853Z 29004KT 10SM CLR 27/12 A2999 RMK A02 SLPNO T02720117","FM-15","7",,,,,,,,,,,,,,,,,,,,,,,,,,,"2007-05-17"
"72793024233","2020-09-10T11:53:00","FM-15","7",,,,,,,,,,,,,,,,,,,,,,,,,,,,,,,,,,,,,,,"29.97","52","83",,,,,"34",,"CLR:00","29.50","10.00","64","290",,"8",,,,,,,,,,,,,,,,,,,,,,,,,,,,,,,,,,,,,"MET08909/10/20 11:53:02 METAR KSEA 101953Z 29007KT 10SM CLR 28/11 A2997 RMK A02 SLPNO T02830111","FM-15","7",,,,,,,,,,,,,,,,,,,,,,,,,,,"2007-05-17"
"72793024233","2020-09-10T12:53:00","FM-15","7",,,,,,,,,,,,,,,,,,,,,,,,,,,,,,,,,,,,,,,"29.97","45","87",,,,,"23",,"CLR:00","29.50","10.00","63","310",,"8",,,,,,,,,,,,,,,,,,,,,,,,,,,,,,,,,,,,,"MET08909/10/20 12:53:02 METAR KSEA 102053Z 31007KT 10SM CLR 31/07 A2997 RMK A02 SLPNO T03060072","FM-15","7",,,,,,,,,,,,,,,,,,,,,,,,,,,"2007-05-17"
"72793024233","2020-09-10T13:53:00","FM-15","7",,,,,,,,,,,,,,,,,,,,,,,,,,,,,,,,,,,,,,,"29.95","45","88","0.00",,,,"22",,"CLR:00","29.48","10.00","63","310",,"8",,,,,,,,,,,,,,,,,,,,,,,,,,,,,,,,,,,,,"MET08909/10/20 13:53:02 METAR KSEA 102153Z 31007KT 10SM CLR 31/07 A2995 RMK A02 SLPNO T03110072","FM-15","7",,,,,,,,,,,,,,,,,,,,,,,,,,,"2007-05-17"
"72793024233","2020-09-10T14:53:00","FM-15","7",,,,,,,,,,,,,,,,,,,,,,,,,,,,,,,,,,,,,,,"29.94","44","91","0.00",,,,"20",,"CLR:00","29.47","10.00","64","010",,"10",,,,,,,,,,,,,,,,,,,,,,,,,,,,,,,,,,,,,"MET08909/10/20 14:53:02 METAR KSEA 102253Z 01009KT 10SM CLR 33/07 A2994 RMK A02 SLPNO T03280067","FM-15","7",,,,,,,,,,,,,,,,,,,,,,,,,,,"2007-05-17"
"72793024233","2020-09-10T15:53:00","FM-15","7",,,,,,,,,,,,,,,,,,,,,,,,,,,,,,,,,,,,,,,,,,"0.00",,,,,,,,,,,,,,,,,,,,,,,,,,,,,,,,,,,,,,,,,,,,,,,,,"MET05409/10/20 15:53:02 METAR KSEA 102353Z      KT RVRNO RMK","FM-15","7",,,,,,,,,,,,,,,,,,,,,,,,,,,"2007-05-17"
"72793024233","2020-09-10T16:00:00","FM-12","4",,,,,,,,,,,,,,,,,,,,,,,,,,,,,,,,,,,,,,,,,,,,,,,,,,,,"230",,"61s",,,,,,,,,,,,,,,,,,,,,,,,,,,,,,,,,,,,,"SYN02872793 35/// 92353 555 91100=","FM-12","4",,,,,,,,,,,,,,,,,,,,,,,,,,,"2007-05-17"
"72793024233","2020-09-10T16:53:00","FM-15","7",,,,,,,,,,,,,,,,,,,,,,,,,,,,,,,,,,,,,,,"29.92","43","86","0.00",,,,"22",,"CLR:00","29.45","7.00","62","350",,"13",,,,,,,,,,,,,,,,,,,,,,,,,,,,,,,,,,,,,"MET08809/10/20 16:53:01 METAR KSEA 110053Z 35011KT 7SM CLR 30/06 A2992 RMK A02 SLPNO T03000061","FM-15","7",,,,,,,,,,,,,,,,,,,,,,,,,,,"2007-05-17"
"72793024233","2020-09-10T17:53:00","FM-15","7",,,,,,,,,,,,,,,,,,,,,,,,,,,,,,,,,,,,,,,"29.92","47","83","0.00",,,,"28",,"CLR:00","29.45","7.00","62","360",,"6",,,,,,,,,,,,,,,,,,,,,,,,,,,,,,,,,,,,,"MET08809/10/20 17:53:01 METAR KSEA 110153Z 36005KT 7SM CLR 28/08 A2992 RMK A02 SLPNO T02830083","FM-15","7",,,,,,,,,,,,,,,,,,,,,,,,,,,"2007-05-17"
"72793024233","2020-09-10T18:53:00","FM-15","7",,,,,,,,,,,,,,,,,,,,,,,,,,,,,,,,,,,,,,,"29.92","48","79","0.00",,,,"34",,"CLR:00","29.45","10.00","61","340",,"3",,,,,,,,,,,,,,,,,,,,,,,,,,,,,,,,,,,,,"MET08909/10/20 18:53:01 METAR KSEA 110253Z 34003KT 10SM CLR 26/09 A2992 RMK A02 SLPNO T02610089","FM-15","7",,,,,,,,,,,,,,,,,,,,,,,,,,,"2007-05-17"
"72793024233","2020-09-10T19:53:00","FM-15","7",,,,,,,,,,,,,,,,,,,,,,,,,,,,,,,,,,,,,,,"29.94","49","75","0.00",,,,"40",,"CLR:00","29.47","10.00","60","330",,"3",,,,,,,,,,,,,,,,,,,,,,,,,,,,,,,,,,,,,"MET08909/10/20 19:53:02 METAR KSEA 110353Z 33003KT 10SM CLR 24/09 A2994 RMK A02 SLPNO T02390094","FM-15","7",,,,,,,,,,,,,,,,,,,,,,,,,,,"2007-05-17"
"72793024233","2020-09-10T20:53:00","FM-15","7",,,,,,,,,,,,,,,,,,,,,,,,,,,,,,,,,,,,,,,"29.95","48","74","0.00",,,,"40",,"CLR:00","29.48","10.00","59","340",,"3",,,,,,,,,,,,,,,,,,,,,,,,,,,,,,,,,,,,,"MET08909/10/20 20:53:02 METAR KSEA 110453Z 34003KT 10SM CLR 23/09 A2995 RMK A02 SLPNO T02330089","FM-15","7",,,,,,,,,,,,,,,,,,,,,,,,,,,"2007-05-17"
"72793024233","2020-09-10T21:53:00","FM-15","7",,,,,,,,,,,,,,,,,,,,,,,,,,,,,,,,,,,,,,,"29.97","50","66","0.00",,,,"56",,"CLR:00","29.50","10.00","57","200",,"5",,,,,,,,,,,,,,,,,,,,,,,,,,,,,,,,,,,,,"MET08909/10/20 21:53:02 METAR KSEA 110553Z 20004KT 10SM CLR 19/10 A2997 RMK A02 SLPNO T01890100","FM-15","7",,,,,,,,,,,,,,,,,,,,,,,,,,,"2007-05-17"
"72793024233","2020-09-10T22:00:00","FM-12","4",,,,,,,,,,,,,,,,,,,,,,,,,,,,,,,,,,,,,,,,"50","66",,,,,"56",,,"29.49","9.94","57","200",,"5",,,,,,,,,,,,,,,,,,,,,,,,,,,,,,,,,,,,,"SYN05272793 32966 02004 10189 20100 39986 90553 555 91106=","FM-12","4",,,,,,,,,,,,,,,,,,,,,,,,,,,"2007-05-17"
"72793024233","2020-09-10T22:53:00","FM-15","7",,,,,,,,,,,,,,,,,,,,,,,,,,,,,,,,,,,,,,,"29.98","51","65","0.00",,,,"61",,"CLR:00","29.51","7.00","57","180",,"8",,,,,,,,,,,,,,,,,,,,,,,,,,,,,,,,,,,,,"MET08809/10/20 22:53:02 METAR KSEA 110653Z 18007KT 7SM CLR 18/11 A2998 RMK A02 SLPNO T01830106","FM-15","7",,,,,,,,,,,,,,,,,,,,,,,,,,,"2007-05-17"
"72793024233","2020-09-10T23:53:00","FM-15","7",,,,,,,,,,,,,,,,,,,,,,,,,,,,,,,,,,,,,,,"30.01","53","61","0.00","FU:3 |FU |FU",,,"75",,"CLR:00","29.54","5.00","57","190",,"8",,,,,,,,,,,,,,,,,,,,,,,,,,,,,,,,,,,,,"MET09109/10/20 23:53:02 METAR KSEA 110753Z 19007KT 5SM FU CLR 16/12 A3001 RMK A02 SLPNO T01610117","FM-15","7",,,,,,,,,,,,,,,,,,,,,,,,,,,"2007-05-17"
"72793024233","2020-09-10T23:59:00","SOD  ","6",,,,,,,,,,,,,,,,,"49","76","44","30.08","29.50","60","6.3","11","13.2","0","91","61",,"2237","0.00","0","0.0","350","13",,,,,,,,,,,,,,,,,,,,,,,,,,,,,,,,,,,,,,,,,,,,,,,,,,,,,,,,"SOD54724 HR PRECIPITATION (IN): 0.00 SNOW DEPTH (IN):0     24 HR SNOWFALL (IN):0.0  WEATHER(CODE):8  24 HR MAX TEMP (F): 9124 HR MIN TEMP (F): 61AVERAGE STATION PRESSURE(D):29.502  FASTEST 2MIN SPEED (MPH): 13FASTEST 2MIN DIR (DEG):350 FASTEST 2MIN TIME (LST):     AVERAGE WIND SPEED (MPH): 6.3 24 HR AVG TEMP (F): 76DEPART FROM NORMAL: 13  HEATING DEGREE DAYS:  0 COOLING DEGREE DAYS: 11 HOURLY INCREMENTAL PRECIPITATION VALUES (IN):    M    M    M    M    M    M    M    M    M    M    M    M     0.00 0.00 0.00 0.00 0.00 0.00 0.00 0.00 0.00 0.00 0.00","SOD  ","6",,,,,,,,,,,,,,,,,,,,,,,,,"0541","1830","2007-05-17"
"72793024233","2020-09-11T00:53:00","FM-15","7",,,,,,,,,,,,,,,,,,,,,,,,,,,,,,,,,,,,,,,"30.03","53","59",,"FU:3 |FU |FU",,,"81",,"CLR:00","29.56","5.00","56","200",,"10",,,,,,,,,,,,,,,,,,,,,,,,,,,,,,,,,,,,,"MET09109/11/20 00:53:02 METAR KSEA 110853Z 20009KT 5SM FU CLR 15/12 A3003 RMK A02 SLPNO T01500117","FM-15","7",,,,,,,,,,,,,,,,,,,,,,,,,,,"2007-05-17"
"72793024233","2020-09-11T01:53:00","FM-15","7",,,,,,,,,,,,,,,,,,,,,,,,,,,,,,,,,,,,,,,"30.04","52","57",,"FU:3 |FU |FU",,,"83",,"CLR:00","29.57","5.00","54","200",,"8",,,,,,,,,,,,,,,,,,,,,,,,,,,,,,,,,,,,,"MET09109/11/20 01:53:02 METAR KSEA 110953Z 20007KT 5SM FU CLR 14/11 A3004 RMK A02 SLPNO T01390111","FM-15","7",,,,,,,,,,,,,,,,,,,,,,,,,,,"2007-05-17"
"72793024233","2020-09-11T02:53:00","FM-15","7",,,,,,,,,,,,,,,,,,,,,,,,,,,,,,,,,,,,,,,"30.05","52","56",,"FU:3 |FU |FU",,,"87",,"CLR:00","29.58","5.00","54","170",,"7",,,,,,,,,,,,,,,,,,,,,,,,,,,,,,,,,,,,,"MET09109/11/20 02:53:02 METAR KSEA 111053Z 17006KT 5SM FU CLR 13/11 A3005 RMK A02 SLPNO T01330111","FM-15","7",,,,,,,,,,,,,,,,,,,,,,,,,,,"2007-05-17"
"72793024233","2020-09-11T03:53:00","FM-15","7",,,,,,,,,,,,,,,,,,,,,,,,,,,,,,,,,,,,,,,"30.05","52","54",,"FU:3 |FU |FU",,,"94",,"CLR:00","29.58","5.00","53","190",,"7",,,,,,,,,,,,,,,,,,,,,,,,,,,,,,,,,,,,,"MET09109/11/20 03:53:02 METAR KSEA 111153Z 19006KT 5SM FU CLR 12/11 A3005 RMK A02 SLPNO T01210111","FM-15","7",,,,,,,,,,,,,,,,,,,,,,,,,,,"2007-05-17"
"72793024233","2020-09-11T04:00:00","FM-12","4",,,,,,,,,,,,,,,,,,,,,,,,,,,,,,,,,,,,,,,,"52","54",,"||FU",,,"94",,,"29.57","4.97","53","190",,"7",,,,,,,,,,,,,,,,,,,,,,,,,,,,,,,,,,,,,"SYN05872793 31958 01906 10121 20111 30013 704// 91153 555 91112=","FM-12","4",,,,,,,,,,,,,,,,,,,,,,,,,,,"2007-05-17"
"72793024233","2020-09-11T04:53:00","FM-15","7",,,,,,,,,,,,,,,,,,,,,,,,,,,,,,,,,,,,,,,"30.06","52","54",,"FU:3 |FU |FU",,,"93",,"CLR:00","29.59","5.00","53","200",,"7",,,,,,,,,,,,,,,,,,,,,,,,,,,,,,,,,,,,,"MET09109/11/20 04:53:02 METAR KSEA 111253Z 20006KT 5SM FU CLR 12/11 A3006 RMK A02 SLPNO T01220111","FM-15","7",,,,,,,,,,,,,,,,,,,,,,,,,,,"2007-05-17"
"72793024233","2020-09-11T05:53:00","FM-15","7",,,,,,,,,,,,,,,,,,,,,,,,,,,,,,,,,,,,,,,"30.07","51","53",,"FU:3 HZ:7 |FU |FU HZ",,,"93",,"BKN:07 250","29.60","3.00","52","200",,"6",,,,,,,,,,,,,,,,,,,,,,,,,,,,,,,,,,,,,"MET09709/11/20 05:53:02 METAR KSEA 111353Z 20005KT 3SM FU HZ BKN250 12/11 A3007 RMK A02 SLPNO T01170106","FM-15","7",,,,,,,,,,,,,,,,,,,,,,,,,,,"2007-05-17"
"72793024233","2020-09-11T06:53:00","FM-15","7",,,,,,,,,,,,,,,,,,,,,,,,,,,,,,,,,,,,,,,"30.08","52","55",,"FU:3 HZ:7 |FU |FU HZ",,,"90",,"BKN:07 250","29.61","3.00","53","200",,"7",,,,,,,,,,,,,,,,,,,,,,,,,,,,,,,,,,,,,"MET09709/11/20 06:53:02 METAR KSEA 111453Z 20006KT 3SM FU HZ BKN250 13/11 A3008 RMK A02 SLPNO T01280111","FM-15","7",,,,,,,,,,,,,,,,,,,,,,,,,,,"2007-05-17"
"72793024233","2020-09-11T07:53:00","FM-15","7",,,,,,,,,,,,,,,,,,,,,,,,,,,,,,,,,,,,,,,"30.09","52","55",,"FU:3 HZ:7 |FU |FU HZ",,,"90",,"BKN:07 250","29.62","3.00","53","200",,"7",,,,,,,,,,,,,,,,,,,,,,,,,,,,,,,,,,,,,"MET09709/11/20 07:53:02 METAR KSEA 111553Z 20006KT 3SM FU HZ BKN250 13/11 A3009 RMK A02 SLPNO T01280111","FM-15","7",,,,,,,,,,,,,,,,,,,,,,,,,,,"2007-05-17"
"72793024233","2020-09-11T08:53:00","FM-15","7",,,,,,,,,,,,,,,,,,,,,,,,,,,,,,,,,,,,,,,"30.09","52","58",,"FU:3 HZ:7 |FU |FU HZ",,,"81",,"BKN:07 250","29.62","2.00","55","190",,"6",,,,,,,,,,,,,,,,,,,,,,,,,,,,,,,,,,,,,"MET09709/11/20 08:53:01 METAR KSEA 111653Z 19005KT 2SM FU HZ BKN250 14/11 A3009 RMK A02 SLPNO T01440111","FM-15","7",,,,,,,,,,,,,,,,,,,,,,,,,,,"2007-05-17"
"72793024233","2020-09-11T09:53:00","FM-15","7",,,,,,,,,,,,,,,,,,,,,,,,,,,,,,,,,,,,,,,"30.08","53","62",,"FU:3 HZ:7 |FU |FU HZ",,,"73",,"BKN:07 250","29.61","1.50","57","240",,"6",,,,,,,,,,,,,,,,,,,,,,,,,,,,,,,,,,,,,"MET10109/11/20 09:53:02 METAR KSEA 111753Z 24005KT 1 1/2SM FU HZ BKN250 17/12 A3008 RMK A02 SLPNO T01670117","FM-15","7",,,,,,,,,,,,,,,,,,,,,,,,,,,"2007-05-17"
"72793024233","2020-09-11T10:00:00","FM-12","4",,,,,,,,,,,,,,,,,,,,,,,,,,,,,,,,,,,,,,,,"53","62",,"||HZ",,,"73",,,"29.60","1.49","57","240",,"6",,,,,,,,,,,,,,,,,,,,,,,,,,,,,,,,,,,,,"SYN06872793 31924 62405 10167 20117 30023 705// 91753 333 96005 555 91118=","FM-12","4",,,,,,,,,,,,,,,,,,,,,,,,,,,"2007-05-17"
"72793024233","2020-09-11T10:53:00","FM-15","7",,,,,,,,,,,,,,,,,,,,,,,,,,,,,,,,,,,,,,,"30.07","52","65",,"FU:3 HZ:7 |FU |FU HZ",,,"63",,"BKN:07 250","29.60","1.50","58","210",,"7",,,,,,,,,,,,,,,,,,,,,,,,,,,,,,,,,,,,,"MET10109/11/20 10:53:02 METAR KSEA 111853Z 21006KT 1 1/2SM FU HZ BKN250 18/11 A3007 RMK A02 SLPNO T01830111","FM-15","7",,,,,,,,,,,,,,,,,,,,,,,,,,,"2007-05-17"
"72793024233","2020-09-11T11:53:00","FM-15","7",,,,,,,,,,,,,,,,,,,,,,,,,,,,,,,,,,,,,,,"30.05","51","67",,"FU:3 HZ:7 |FU |FU HZ",,,"57",,"BKN:07 250","29.58","1.50","58","220",,"6",,,,,,,,,,,,,,,,,,,,,,,,,,,,,,,,,,,,,"MET10109/11/20 11:53:02 METAR KSEA 111953Z 22005KT 1 1/2SM FU HZ BKN250 19/11 A3005 RMK A02 SLPNO T01940106","FM-15","7",,,,,,,,,,,,,,,,,,,,,,,,,,,"2007-05-17"
"72793024233","2020-09-11T12:53:00","FM-15","7",,,,,,,,,,,,,,,,,,,,,,,,,,,,,,,,,,,,,,,"30.04","49","69",,,,,"49",,"OVC:08 25","29.57",,"58","220",,"8",,,,,,,,,,,,,,,,,,,,,,,,,,,,,,,,,,,,,"MET10809/11/20 12:53:02 METAR KSEA 112053Z 22007KT 1 SM FU HZ OVC025 21/09 A3004 RMK AO2 SLPNO FU OVC025 T02060094","FM-15","7",,,,,,,,,,,,,,,,,,,,,,,,,,,"2007-05-17"
"72793024233","2020-09-11T13:53:00","FM-15","7",,,,,,,,,,,,,,,,,,,,,,,,,,,,,,,,,,,,,,,"30.03","50","71",,,,,"47",,"OVC:08 20","29.56",,"59","260",,"6",,,,,,,,,,,,,,,,,,,,,,,,,,,,,,,,,,,,,"MET10809/11/20 13:53:02 METAR KSEA 112153Z 26005KT 1 SM FU HZ OVC020 22/10 A3003 RMK AO2 SLPNO FU OVC020 T02170100","FM-15","7",,,,,,,,,,,,,,,,,,,,,,,,,,,"2007-05-17"
"72793024233","2020-09-11T14:53:00","FM-15","7",,,,,,,,,,,,,,,,,,,,,,,,,,,,,,,,,,,,,,,"30.01","50","73",,"FU:3 HZ:7 |HZ FU |FU HZ",,,"44",,"OVC:08 22","29.54","1.50","60","240",,"6",,,,,,,,,,,,,,,,,,,,,,,,,,,,,,,,,,,,,"MET11109/11/20 14:53:02 METAR KSEA 112253Z 24005KT 1 1/2SM FU HZ OVC022 23/10 A3001 RMK AO2 SLPNO FU OVC022 T02280100","FM-15","7",,,,,,,,,,,,,,,,,,,,,,,,,,,"2007-05-17"
"72793024233","2020-09-11T15:53:00","FM-15","7",,,,,,,,,,,,,,,,,,,,,,,,,,,,,,,,,,,,,,,"30.00","49","73",,"FU:3 HZ:7 |HZ FU |FU HZ",,,"43",,"OVC:08 22","29.53","1.50","59","240",,"6",,,,,,,,,,,,,,,,,,,,,,,,,,,,,,,,,,,,,"MET11109/11/20 15:53:02 METAR KSEA 112353Z 24005KT 1 1/2SM FU HZ OVC022 23/09 A3000 RMK AO2 SLPNO FU OVC022 T02280094","FM-15","7",,,,,,,,,,,,,,,,,,,,,,,,,,,"2007-05-17"
"72793024233","2020-09-11T16:00:00","FM-12","4",,,,,,,,,,,,,,,,,,,,,,,,,,,,,,,,,,,,,,,,"48","73",,"||HZ",,,"41",,"26","29.52","1.49","59","240",,"6",,,,,,,,,,,,,,,,,,,,,,,,,,,,,,,,,,,,,"SYN06872793 31524 82405 10230 20090 39996 705// 92353 333 96005 555 91200=","FM-12","4",,,,,,,,,,,,,,,,,,,,,,,,,,,"2007-05-17"
"72793024233","2020-09-11T16:53:00","FM-15","7",,,,,,,,,,,,,,,,,,,,,,,,,,,,,,,,,,,,,,,"29.99","50","72",,"FU:3 HZ:7 |HZ FU |FU HZ",,,"46",,"OVC:08 23","29.52","1.50","60","190",,"6",,,,,,,,,,,,,,,,,,,,,,,,,,,,,,,,,,,,,"MET11109/11/20 16:53:01 METAR KSEA 120053Z 19005KT 1 1/2SM FU HZ OVC023 22/10 A2999 RMK AO2 SLPNO FU OVC023 T02220100","FM-15","7",,,,,,,,,,,,,,,,,,,,,,,,,,,"2007-05-17"
"72793024233","2020-09-11T17:53:00","FM-15","7",,,,,,,,,,,,,,,,,,,,,,,,,,,,,,,,,,,,,,,"29.98","50","72",,"FU:3 HZ:7 |HZ FU |FU HZ",,,"46",,"OVC:08 24","29.51","1.50","60","240",,"7",,,,,,,,,,,,,,,,,,,,,,,,,,,,,,,,,,,,,"MET11109/11/20 17:53:01 METAR KSEA 120153Z 24006KT 1 1/2SM FU HZ OVC024 21/10 A2998 RMK AO2 SLPNO FU OVC024 T02210100","FM-15","7",,,,,,,,,,,,,,,,,,,,,,,,,,,"2007-05-17"
"72793024233","2020-09-11T18:53:00","FM-15","7",,,,,,,,,,,,,,,,,,,,,,,,,,,,,,,,,,,,,,,"29.99","51","67",,"FU:3 HZ:7 |HZ FU |FU HZ",,,"57",,"OVC:08 25","29.52","1.50","58","230",,"6",,,,,,,,,,,,,,,,,,,,,,,,,,,,,,,,,,,,,"MET11109/11/20 18:53:01 METAR KSEA 120253Z 23005KT 1 1/2SM FU HZ OVC025 19/11 A2999 RMK AO2 SLPNO FU OVC025 T01940106","FM-15","7",,,,,,,,,,,,,,,,,,,,,,,,,,,"2007-05-17"
"72793024233","2020-09-11T19:53:00","FM-15","7",,,,,,,,,,,,,,,,,,,,,,,,,,,,,,,,,,,,,,,"30.01","52","65",,"FU:3 HZ:7 |HZ FU |FU HZ",,,"63",,"OVC:08 28","29.54","2.00","58","250",,"6",,,,,,,,,,,,,,,,,,,,,,,,,,,,,,,,,,,,,"MET10709/11/20 19:53:02 METAR KSEA 120353Z 25005KT 2SM FU HZ OVC028 18/11 A3001 RMK AO2 SLPNO FU OVC028 T01830111","FM-15","7",,,,,,,,,,,,,,,,,,,,,,,,,,,"2007-05-17"
"72793024233","2020-09-11T20:53:00","FM-15","7",,,,,,,,,,,,,,,,,,,,,,,,,,,,,,,,,,,,,,,"30.01","52","63",,"FU:3 HZ:7 |HZ FU |FU HZ",,,"68",,"OVC:08 29","29.54","2.00","57","250",,"9",,,,,,,,,,,,,,,,,,,,,,,,,,,,,,,,,,,,,"MET10709/11/20 20:53:02 METAR KSEA 120453Z 25008KT 2SM FU HZ OVC029 17/11 A3001 RMK AO2 SLPNO FU OVC029 T01720111","FM-15","7",,,,,,,,,,,,,,,,,,,,,,,,,,,"2007-05-17"
"72793024233","2020-09-11T21:53:00","FM-15","7",,,,,,,,,,,,,,,,,,,,,,,,,,,,,,,,,,,,,,,"30.02","52","60",,"FU:3 HZ:7 |HZ FU |FU HZ",,,"75",,"OVC:08 29","29.55","2.00","56","220",,"6",,,,,,,,,,,,,,,,,,,,,,,,,,,,,,,,,,,,,"MET10709/11/20 21:53:02 METAR KSEA 120553Z 22005KT 2SM FU HZ OVC029 16/11 A3002 RMK AO2 SLPNO FU OVC029 T01560111","FM-15","7",,,,,,,,,,,,,,,,,,,,,,,,,,,"2007-05-17"
"72793024233","2020-09-11T22:00:00","FM-12","4",,,,,,,,,,,,,,,,,,,,,,,,,,,,,,,,,,,,,,,,"52","61",,"||HZ",,,"72",,"26","29.54","1.99","56","220",,"6",,,,,,,,,,,,,,,,,,,,,,,,,,,,,,,,,,,,,"SYN06872793 31532 82205 10160 20110 30003 705// 90553 333 96005 555 91206=","FM-12","4",,,,,,,,,,,,,,,,,,,,,,,,,,,"2007-05-17"
"72793024233","2020-09-11T22:42:00","FM-16","7",,,,,,,,,,,,,,,,,,,,,,,,,,,,,,,,,,,,,,,"30.02","52","59",,"FU:3 HZ:7 |HZ FU |FU HZ",,,"77",,"OVC:08 31","29.55","2.00","55","220",,"5",,,,,,,,,,,,,,,,,,,,,,,,,,,,,,,,,,,,,"MET10609/11/20 22:42:02 SPECI KSEA 120642Z 22004KT 2SM FU HZ OVC031 15/11 A3002 RMK AO2 SLPNO FU OVC031 T0150106","FM-16","7",,,,,,,,,,,,,,,,,,,,,,,,,,,"2007-05-17"
"72793024233","2020-09-11T22:53:00","FM-15","7",,,,,,,,,,,,,,,,,,,,,,,,,,,,,,,,,,,,,,,"30.02","52","59",,"FU:3 HZ:7 |HZ FU |FU HZ",,,"77",,"OVC:08 31","29.55","2.00","55","220",,"5",,,,,,,,,,,,,,,,,,,,,,,,,,,,,,,,,,,,,"MET10609/11/20 22:53:02 METAR KSEA 120653Z 22004KT 2SM FU HZ OVC031 15/11 A3002 RMK AO2 SLPNO FU OVC031 T0150106","FM-15","7",,,,,,,,,,,,,,,,,,,,,,,,,,,"2007-05-17"
"72793024233","2020-09-11T23:53:00","FM-15","7",,,,,,,,,,,,,,,,,,,,,,,,,,,,,,,,,,,,,,,"30.02","52","59",,"FU:3 HZ:7 |HZ FU |FU HZ",,,"78",,"OVC:08 31","29.55","2.00","55","180",,"5",,,,,,,,,,,,,,,,,,,,,,,,,,,,,,,,,,,,,"MET10709/11/20 23:53:02 METAR KSEA 120753Z 18004KT 2SM FU HZ OVC031 15/11 A3002 RMK AO2 SLPNO FU OVC031 T01500111","FM-15","7",,,,,,,,,,,,,,,,,,,,,,,,,,,"2007-05-17"
"72793024233","2020-09-11T23:59:00","SOD  ","6",,,,,,,,,,,,,,,,,"51","63","69","29.96","29.57","56","6.7","0","0.4","2","73","53",,"2237","0.00","0","0.0","200","10","HZ",,,,,,,,,,,,,,,,,,,,,,,,,,,,,,,,,,,,,,,,,,,,,,,,,,,,,,,"SOD38224 HR PRECIPITATION (IN): 0.00 SNOW DEPTH (IN):0     24 HR SNOWFALL (IN):0.0  WEATHER(CODE):8  24 HR MAX TEMP (F): 7324 HR MIN TEMP (F): 53AVERAGE STATION PRESSURE(D):29.569  FASTEST 2MIN SPEED (MPH): 10FASTEST 2MIN DIR (DEG):200 FASTEST 2MIN TIME (LST):     AVERAGE WIND SPEED (MPH): 6.7 24 HR AVG TEMP (F): 63DEPART FROM NORMAL:  0  HEATING DEGREE DAYS:  2 COOLING DEGREE DAYS:  0","SOD  ","6",,,,,,,,,,,,,,,,,,,,,,,,,"0542","1828","2007-05-17"
"72793024233","2020-09-12T00:53:00","FM-15","7",,,,,,,,,,,,,,,,,,,,,,,,,,,,,,,,,,,,,,,"30.02","52","57",,"FU:3 HZ:7 |HZ FU |FU HZ",,,"83",,"OVC:08 31","29.55","2.00","54","190",,"5",,,,,,,,,,,,,,,,,,,,,,,,,,,,,,,,,,,,,"MET10709/12/20 00:53:02 METAR KSEA 120853Z 19004KT 2SM FU HZ OVC031 14/11 A3002 RMK AO2 SLPNO FU OVC031 T01390111","FM-15","7",,,,,,,,,,,,,,,,,,,,,,,,,,,"2007-05-17"
"72793024233","2020-09-12T01:53:00","FM-15","7",,,,,,,,,,,,,,,,,,,,,,,,,,,,,,,,,,,,,,,"30.03","51","55",,"FU:3 HZ:7 |HZ FU |FU HZ",,,"87",,"OVC:08 30","29.56","2.00","53","250",,"5",,,,,,,,,,,,,,,,,,,,,,,,,,,,,,,,,,,,,"MET10709/12/20 01:53:02 METAR KSEA 120953Z 25004KT 2SM FU HZ OVC030 13/11 A3003 RMK AO2 SLPNO FU OVC030 T01280106","FM-15","7",,,,,,,,,,,,,,,,,,,,,,,,,,,"2007-05-17"
"72793024233","2020-09-12T02:53:00","FM-15","7",,,,,,,,,,,,,,,,,,,,,,,,,,,,,,,,,,,,,,,"30.03","51","53",,"FU:3 BR:1 |HZ FU |FU",,,"93",,"OVC:08 31","29.56","2.00","52","260",,"5",,,,,,,,,,,,,,,,,,,,,,,,,,,,,,,,,,,,,"MET10709/12/20 02:53:02 METAR KSEA 121053Z 26004KT 2SM FU BR OVC031 12/11 A3003 RMK AO2 SLPNO FU OVC031 T01170106","FM-15","7",,,,,,,,,,,,,,,,,,,,,,,,,,,"2007-05-17"
"72793024233","2020-09-12T03:53:00","FM-15","7",,,,,,,,,,,,,,,,,,,,,,,,,,,,,,,,,,,,,,,"30.03","51","52",,"FU:3 BR:1 |HZ FU |FU",,,"97",,"BKN:07 34","29.56","2.00","51","230",,"3",,,,,,,,,,,,,,,,,,,,,,,,,,,,,,,,,,,,,"MET10709/12/20 03:53:02 METAR KSEA 121153Z 23003KT 2SM FU BR BKN034 11/11 A3003 RMK AO2 SLPNO FU BKN034 T01110106","FM-15","7",,,,,,,,,,,,,,,,,,,,,,,,,,,"2007-05-17"
"72793024233","2020-09-12T04:00:00","FM-12","4",,,,,,,,,,,,,,,,,,,,,,,,,,,,,,,,,,,,,,,,"52","52",,,,,"100",,"41","29.55","1.99","52","230",,"3",,,,,,,,,,,,,,,,,,,,,,,,,,,,,,,,,,,,,"SYN06872793 31632 62303 10110 20110 30006 710// 91153 333 96010 555 91212=","FM-12","4",,,,,,,,,,,,,,,,,,,,,,,,,,,"2007-05-17"
"72793024233","2020-09-12T04:37:00","FM-16","7",,,,,,,,,,,,,,,,,,,,,,,,,,,,,,,,,,,,,,,"30.03","51","53",,"FU:3 BR:1 |HZ FU |FU",,,"93",,"FEW:02 3 BKN:07 36","29.56","1.75","52","170",,"5",,,,,,,,,,,,,,,,,,,,,,,,,,,,,,,,,,,,,"MET11809/12/20 04:37:02 SPECI KSEA 121237Z 17004KT 1 3/4SM FU BR FEW003 BKN036 12/11 A3003 RMK AO2 SLPNO FU BKN036 T01170106","FM-16","7",,,,,,,,,,,,,,,,,,,,,,,,,,,"2007-05-17"
"72793024233","2020-09-12T04:53:00","FM-15","7",,,,,,,,,,,,,,,,,,,,,,,,,,,,,,,,,,,,,,,"30.03","51","53",,"FU:3 BR:1 |HZ FU |FU",,,"93",,"BKN:07 36","29.56","1.75","52","170",,"7",,,,,,,,,,,,,,,,,,,,,,,,,,,,,,,,,,,,,"MET11109/12/20 04:53:02 METAR KSEA 121253Z 17006KT 1 3/4SM FU BR BKN036 12/11 A3003 RMK AO2 SLPNO FU BKN036 T01170106","FM-15","7",,,,,,,,,,,,,,,,,,,,,,,,,,,"2007-05-17"
"72793024233","2020-09-12T05:53:00","FM-15","7",,,,,,,,,,,,,,,,,,,,,,,,,,,,,,,,,,,,,,,"30.04","51","52",,"FU:3 BR:1 |HZ FU |FU",,,"97",,"OVC:08 36","29.57","1.50","51","170",,"7",,,,,,,,,,,,,,,,,,,,,,,,,,,,,,,,,,,,,"MET10109/12/20 05:53:02 METAR KSEA 121353Z 17006KT 1 1/2SM FU BR OVC036 11/11 A3004 RMK AO2 SLPNO T01110106","FM-15","7",,,,,,,,,,,,,,,,,,,,,,,,,,,"2007-05-17"
"72793024233","2020-09-12T06:13:00","FM-16","7",,,,,,,,,,,,,,,,,,,,,,,,,,,,,,,,,,,,,,,"30.04","50","52",,"FU:3 BR:1 |HZ FU |FU",,,"93",,"BKN:07 5 OVC:08 30","29.57","1.00","51","200",,"5",,,,,,,,,,,,,,,,,,,,,,,,,,,,,,,,,,,,,"MET10409/12/20 06:13:02 SPECI KSEA 121413Z 20004KT 1SM FU BR BKN005 OVC030 11/10 A3004 RMK AO2 SLPNO T01110100","FM-16","7",,,,,,,,,,,,,,,,,,,,,,,,,,,"2007-05-17"
"72793024233","2020-09-12T06:53:00","FM-15","7",,,,,,,,,,,,,,,,,,,,,,,,,,,,,,,,,,,,,,,"30.04","51","53",,"FU:3 BR:1 |HZ FU |FU",,,"93",,"BKN:07 4 OVC:08 20","29.57","1.00","52","210",,"5",,,,,,,,,,,,,,,,,,,,,,,,,,,,,,,,,,,,,"MET09809/12/20 06:53:02 METAR KSEA 121453Z 21004KT 1SM FU BR BKN004 OVC020 A3004 RMK AO2 SLPNO T01170106","FM-15","7",,,,,,,,,,,,,,,,,,,,,,,,,,,"2007-05-17"
"72793024233","2020-09-12T07:53:00","FM-15","7",,,,,,,,,,,,,,,,,,,,,,,,,,,,,,,,,,,,,,,"30.04","52","53",,"FU:3 |HZ FU |FU",,,"96",,"OVC:08 3","29.57","1.00","52","280",,"5",,,,,,,,,,,,,,,,,,,,,,,,,,,,,,,,,,,,,"MET09409/12/20 07:53:02 METAR KSEA 121553Z 28004KT 1SM FU OVC003 12/11 A3004 RMK AO2 SLPNO T01170111","FM-15","7",,,,,,,,,,,,,,,,,,,,,,,,,,,"2007-05-17"
"72793024233","2020-09-12T08:53:00","FM-15","7",,,,,,,,,,,,,,,,,,,,,,,,,,,,,,,,,,,,,,,"30.04","51","53",,"FU:3 |HZ FU |FU",,,"93",,"OVC:08 3","29.57","1.00","52","220",,"6",,,,,,,,,,,,,,,,,,,,,,,,,,,,,,,,,,,,,"MET10409/12/20 08:53:02 METAR KSEA 121653Z 22005KT 1SM FU OVC003 12/11 A3004 RMK AO2 SLPNO FU OVC003 T01170106","FM-15","7",,,,,,,,,,,,,,,,,,,,,,,,,,,"2007-05-17"
"72793024233","2020-09-12T09:13:00","FM-16","7",,,,,,,,,,,,,,,,,,,,,,,,,,,,,,,,,,,,,,,"30.04","52","53",,"FU:3 |HZ FU |FU",,,"96",,"OVC:08 2","29.57","0.75","52","000",,"0",,,,,,,,,,,,,,,,,,,,,,,,,,,,,,,,,,,,,"MET10609/12/20 09:13:02 SPECI KSEA 121713Z 00000KT 3/4SM FU OVC002 12/11 A3004 RMK AO2 SLPNO FU OVC002 T01170111","FM-16","7",,,,,,,,,,,,,,,,,,,,,,,,,,,"2007-05-17"
"72793024233","2020-09-12T09:53:00","FM-15","7",,,,,,,,,,,,,,,,,,,,,,,,,,,,,,,,,,,,,,,"30.04","52","53",,"FU:3 |HZ FU |FU",,,"96",,"OVC:08 2","29.57","0.75","52","210",,"5",,,,,,,,,,,,,,,,,,,,,,,,,,,,,,,,,,,,,"MET10609/12/20 09:53:02 METAR KSEA 121753Z 21004KT 3/4SM FU OVC002 12/11 A3004 RMK AO2 SLPNO FU OVC002 T01170111","FM-15","7",,,,,,,,,,,,,,,,,,,,,,,,,,,"2007-05-17"
"72793024233","2020-09-12T10:00:00","FM-12","4",,,,,,,,,,,,,,,,,,,,,,,,,,,,,,,,,,,,,,,,"52","54",,"||FU",,,"94",,"2","29.56","0.75","53","210",,"5",,,,,,,,,,,,,,,,,,,,,,,,,,,,,,,,,,,,,"SYN05872793 31112 82104 10120 20110 30009 704// 91753 555 91218=","FM-12","4",,,,,,,,,,,,,,,,,,,,,,,,,,,"2007-05-17"
"72793024233","2020-09-12T10:53:00","FM-15","7",,,,,,,,,,,,,,,,,,,,,,,,,,,,,,,,,,,,,,,"30.03","52","54",,"FU:3 |HZ FU |FU",,,"93",,"OVC:08 4","29.56","0.75","53","200",,"6",,,,,,,,,,,,,,,,,,,,,,,,,,,,,,,,,,,,,"MET10609/12/20 10:53:02 METAR KSEA 121853Z 20005KT 3/4SM FU OVC004 12/11 A3003 RMK AO2 SLPNO FU OVC004 T01220111","FM-15","7",,,,,,,,,,,,,,,,,,,,,,,,,,,"2007-05-17"
"72793024233","2020-09-12T11:53:00","FM-15","7",,,,,,,,,,,,,,,,,,,,,,,,,,,,,,,,,,,,,,,"30.01","52","55",,"FU:3 |HZ FU |FU",,,"90",,"OVC:08 6","29.54","0.75","53","220",,"3",,,,,,,,,,,,,,,,,,,,,,,,,,,,,,,,,,,,,"MET10609/12/20 11:53:02 METAR KSEA 121953Z 22003KT 3/4SM FU OVC006 13/11 A3001 RMK AO2 SLPNO FU OVC006 T01280111","FM-15","7",,,,,,,,,,,,,,,,,,,,,,,,,,,"2007-05-17"
"72793024233","2020-09-12T12:12:00","FM-16","7",,,,,,,,,,,,,,,,,,,,,,,,,,,,,,,,,,,,,,,"30.01","52","55",,"FU:3 |HZ FU |FU",,,"90",,"OVC:08 6","29.54","0.75","53","220",,"3",,,,,,,,,,,,,,,,,,,,,,,,,,,,,,,,,,,,,"MET10609/12/20 12:12:02 SPECI KSEA 122012Z 22003KT 3/4SM FU OVC006 13/11 A3001 RMK AO2 SLPNO FU OVC006 T01280111","FM-16","7",,,,,,,,,,,,,,,,,,,,,,,,,,,"2007-05-17"
"72793024233","2020-09-12T12:53:00","FM-15","7",,,,,,,,,,,,,,,,,,,,,,,,,,,,,,,,,,,,,,,"30.00","52","57",,"FU:3 |HZ FU |FU",,,"83",,"BKN:07 6 OVC:08 30","29.53","0.75","54","000",,"0",,,,,,,,,,,,,,,,,,,,,,,,,,,,,,,,,,,,,"MET11309/12/20 12:53:02 METAR KSEA 122053Z 00000KT 3/4SM FU BKN006 OVC030 14/11 A3000 RMK AO2 SLPNO FU BKN006 T01390111","FM-15","7",,,,,,,,,,,,,,,,,,,,,,,,,,,"2007-05-17"
"72793024233","2020-09-12T13:53:00","FM-15","7",,,,,,,,,,,,,,,,,,,,,,,,,,,,,,,,,,,,,,,"29.98","52","59",,"FU:3 |HZ FU |FU",,,"77",,"BKN:07 6 OVC:08 26","29.51","0.75","55","000",,"0",,,,,,,,,,,,,,,,,,,,,,,,,,,,,,,,,,,,,"MET11309/12/20 13:53:02 METAR KSEA 122153Z 00000KT 3/4SM FU BKN006 OVC026 15/11 A2998 RMK AO2 SLPNO FU BKN006 T01510110","FM-15","7",,,,,,,,,,,,,,,,,,,,,,,,,,,"2007-05-17"
"72793024233","2020-09-12T14:53:00","FM-15","7",,,,,,,,,,,,,,,,,,,,,,,,,,,,,,,,,,,,,,,"29.97","52","60",,"FU:3 |HZ FU |FU",,,"75",,"BKN:07 7 OVC:08 24","29.50","1.00","56","260",,"3",,,,,,,,,,,,,,,,,,,,,,,,,,,,,,,,,,,,,"MET11109/12/20 14:53:02 METAR KSEA 122253Z 26003KT 1SM FU BKN007 OVC024 16/11 A2997 RMK AO2 SLPNO FU BKN007 T01560111","FM-15","7",,,,,,,,,,,,,,,,,,,,,,,,,,,"2007-05-17"
"72793024233","2020-09-12T15:27:00","FM-16","7",,,,,,,,,,,,,,,,,,,,,,,,,,,,,,,,,,,,,,,"29.96","53","59",,"FU:3 |HZ FU |FU",,,"81",,"SCT:04 7 OVC:08 24","29.49","1.00","56","000",,"0",,,,,,,,,,,,,,,,,,,,,,,,,,,,,,,,,,,,,"MET11509/12/20 15:27:02 SPECI KSEA 122327Z 00000KT 1SM FU SCT007 OVC024 15/12 A2996 RMK AO2 FU SCT007 FU OVC024 T01500117","FM-16","7",,,,,,,,,,,,,,,,,,,,,,,,,,,"2007-05-17"
"72793024233","2020-09-12T15:53:00","FM-15","7",,,,,,,,,,,,,,,,,,,,,,,,,,,,,,,,,,,,,,,"29.96","53","59",,"FU:3 |HZ FU |FU",,,"81",,"SCT:04 7 OVC:08 24","29.49","1.00","56","270",,"5",,,,,,,,,,,,,,,,,,,,,,,,,,,,,,,,,,,,,"MET12109/12/20 15:53:02 METAR KSEA 122353Z 27004KT 1SM FU SCT007 OVC024 15/12 A2996 RMK AO2 SLPNO FU SCT007 FU OVC024 T01500117","FM-15","7",,,,,,,,,,,,,,,,,,,,,,,,,,,"2007-05-17"
"72793024233","2020-09-12T16:00:00","FM-12","4",,,,,,,,,,,,,,,,,,,,,,,,,,,,,,,,,,,,,,,,"53","59",,"||FU",,,"81",,"8","29.48","0.99","56","270",,"5",,,,,,,,,,,,,,,,,,,,,,,,,,,,,,,,,,,,,"SYN05872793 31316 82704 10150 20117 39983 704// 92353 555 91300=","FM-12","4",,,,,,,,,,,,,,,,,,,,,,,,,,,"2007-05-17"
"72793024233","2020-09-12T16:53:00","FM-15","7",,,,,,,,,,,,,,,,,,,,,,,,,,,,,,,,,,,,,,,"29.95","52","58",,"FU:3 |HZ FU |FU",,,"81",,"FEW:02 7 OVC:08 24","29.48","1.00","55","260",,"6",,,,,,,,,,,,,,,,,,,,,,,,,,,,,,,,,,,,,"MET12109/12/20 16:53:01 METAR KSEA 130053Z 26005KT 1SM FU FEW007 OVC024 14/11 A2995 RMK AO2 SLPNO FU FEW007 FU OVC024 T01440111","FM-15","7",,,,,,,,,,,,,,,,,,,,,,,,,,,"2007-05-17"
"72793024233","2020-09-12T17:53:00","FM-15","7",,,,,,,,,,,,,,,,,,,,,,,,,,,,,,,,,,,,,,,"29.95","52","57",,"FU:3 |HZ FU |FU",,,"83",,"OVC:08 24","29.48","1.00","54","280",,"3",,,,,,,,,,,,,,,,,,,,,,,,,,,,,,,,,,,,,"MET10409/12/20 17:53:01 METAR KSEA 130153Z 28003KT 1SM FU OVC024 14/11 A2995 RMK AO2 SLPNO FU OVC024 T01390111","FM-15","7",,,,,,,,,,,,,,,,,,,,,,,,,,,"2007-05-17"
"72793024233","2020-09-12T18:21:00","FM-16","7",,,,,,,,,,,,,,,,,,,,,,,,,,,,,,,,,,,,,,,"29.95","52","56",,"FU:3 BR:1 |HZ FU |FU",,,"87",,"OVC:08 26","29.48","0.75","54","000",,"0",,,,,,,,,,,,,,,,,,,,,,,,,,,,,,,,,,,,,"MET10909/12/20 18:21:01 SPECI KSEA 130221Z 00000KT 3/4SM FU BR OVC026 13/11 A2995 RMK AO2 SLPNO FU OVC026 T01330111","FM-16","7",,,,,,,,,,,,,,,,,,,,,,,,,,,"2007-05-17"
"72793024233","2020-09-12T18:53:00","FM-15","7",,,,,,,,,,,,,,,,,,,,,,,,,,,,,,,,,,,,,,,"29.95","52","56",,"FU:3 BR:1 |HZ FU |FU",,,"87",,"OVC:08 28","29.48","0.75","54","000",,"0",,,,,,,,,,,,,,,,,,,,,,,,,,,,,,,,,,,,,"MET10909/12/20 18:53:01 METAR KSEA 130253Z 00000KT 3/4SM FU BR OVC028 13/11 A2995 RMK AO2 SLPNO FU OVC028 T01330111","FM-15","7",,,,,,,,,,,,,,,,,,,,,,,,,,,"2007-05-17"
"72793024233","2020-09-12T19:30:00","FM-16","7",,,,,,,,,,,,,,,,,,,,,,,,,,,,,,,,,,,,,,,"29.96","51","56",,"FU:3 HZ:7 |HZ FU |FU HZ",,,"84",,"OVC:08 30","29.49","0.75","53","000",,"0",,,,,,,,,,,,,,,,,,,,,,,,,,,,,,,,,,,,,"MET10909/12/20 19:30:02 SPECI KSEA 130330Z 00000KT 3/4SM FU HZ OVC030 13/11 A2996 RMK AO2 SLPNO FU OVC030 T01330106","FM-16","7",,,,,,,,,,,,,,,,,,,,,,,,,,,"2007-05-17"
"72793024233","2020-09-12T19:53:00","FM-15","7",,,,,,,,,,,,,,,,,,,,,,,,,,,,,,,,,,,,,,,"29.96","51","55",,"FU:3 BR:1 |HZ FU |FU",,,"87",,"OVC:08 30","29.49","1.00","53","000",,"0",,,,,,,,,,,,,,,,,,,,,,,,,,,,,,,,,,,,,"MET10709/12/20 19:53:02 METAR KSEA 130353Z 00000KT 1SM FU BR OVC030 13/11 A2996 RMK AO2 SLPNO FU OVC030 T01280106","FM-15","7",,,,,,,,,,,,,,,,,,,,,,,,,,,"2007-05-17"
"72793024233","2020-09-12T20:53:00","FM-15","7",,,,,,,,,,,,,,,,,,,,,,,,,,,,,,,,,,,,,,,"29.96","51","55",,"FU:3 BR:1 |HZ FU |FU",,,"87","29.97","OVC:08 30","29.49","1.00","53","000",,"0",,,,,,,,,,,,,,,,,,,,,,,,,,,,,,,,,,,,,"MET10809/12/20 20:53:02 METAR KSEA 130453Z 00000KT 1SM FU BR OVC030 13/11 A2996 RMK AO2 SLP150 FU OVC030 T01280106","FM-15","7",,,,,,,,,,,,,,,,,,,,,,,,,,,"2007-05-17"
"72793024233","2020-09-12T21:53:00","FM-15","7",,,,,,,,,,,,,,,,,,,,,,,,,,,,,,,,,,,,,,,"29.96","51","54",,"FU:3 BR:1 |HZ FU |FU",,,"90",,"OVC:08 32","29.49","1.00","52","180",,"3",,,,,,,,,,,,,,,,,,,,,,,,,,,,,,,,,,,,,"MET10709/12/20 21:53:02 METAR KSEA 130553Z 18003KT 1SM FU BR OVC032 12/11 A2996 RMK AO2 SLPNO FU OVC032 T01220106","FM-15","7",,,,,,,,,,,,,,,,,,,,,,,,,,,"2007-05-17"
"72793024233","2020-09-12T22:00:00","FM-12","4",,,,,,,,,,,,,,,,,,,,,,,,,,,,,,,,,,,,,,,,"52","54",,,,,"94",,"26","29.48","0.99","53","180",,"3",,,,,,,,,,,,,,,,,,,,,,,,,,,,,,,,,,,,,"SYN06872793 31516 81803 10120 20110 39983 710// 90553 333 96010 555 91306=","FM-12","4",,,,,,,,,,,,,,,,,,,,,,,,,,,"2007-05-17"
"72793024233","2020-09-12T22:53:00","FM-15","7",,,,,,,,,,,,,,,,,,,,,,,,,,,,,,,,,,,,,,,"29.96","51","53",,"FU:3 BR:1 |HZ FU |FU",,,"93","29.98","OVC:08 32","29.49","1.00","52","160",,"6",,,,,,,,,,,,,,,,,,,,,,,,,,,,,,,,,,,,,"MET10809/12/20 22:53:02 METAR KSEA 130653Z 16005KT 1SM FU BR OVC032 12/11 A2996 RMK AO2 SLP151 FU OVC032 T01170106","FM-15","7",,,,,,,,,,,,,,,,,,,,,,,,,,,"2007-05-17"
"72793024233","2020-09-12T23:53:00","FM-15","7",,,,,,,,,,,,,,,,,,,,,,,,,,,,,,,,,,,,,,,"29.96","51","53",,"FU:3 BR:1 |HZ FU |FU",,,"93","29.98","OVC:08 27","29.49","1.00","52","150",,"7",,,,,,,,,,,,,,,,,,,,,,,,,,,,,,,,,,,,,"MET10809/12/20 23:53:02 METAR KSEA 130753Z 15006KT 1SM FU BR OVC027 12/11 A2996 RMK AO2 SLP151 FU OVC027 T01170106","FM-15","7",,,,,,,,,,,,,,,,,,,,,,,,,,,"2007-05-17"
"72793024233","2020-09-12T23:59:00","SOD  ","6",,,,,,,,,,,,,,,,,"52","56","89","30.05","29.53","53","4.0","0","-6.4","9","61","51",,"2237","0.00","0","0.0","170","7","BR HZ",,,,,,,,,,,,,,,,,,,,,,,,,,,,,,,,,,,,,,,,,,,,,,,,,,,,,,,"SOD41024 HR PRECIPITATION (IN): 0.00 SNOW DEPTH (IN):0     24 HR SNOWFALL (IN):0.0  WEATHER(CODE):18  24 HR MAX TEMP (F): 6124 HR MIN TEMP (F): 51AVERAGE STATION PRESSURE(D):29.532  FASTEST 2MIN SPEED (MPH):  7FASTEST 2MIN DIR (DEG):170 FASTEST 2MIN TIME (LST):     AVERAGE WIND SPEED (MPH): 4.0 24 HR AVG TEMP (F): 56DEPART FROM NORMAL: -6  SKY COVER SR-SS (TENTHS): 1HEATING DEGREE DAYS:  9 COOLING DEGREE DAYS:  0","SOD  ","6",,,,,,,,,,,,,,,,,,,,,,,,,"0544","1826","2007-05-17"
"72793024233","2020-09-13T00:53:00","FM-15","7",,,,,,,,,,,,,,,,,,,,,,,,,,,,,,,,,,,,,,,"29.96","52","54",,"FU:3 BR:1 |HZ FU |FU",,,"93",,"OVC:08 26","29.49","1.00","53","130",,"7",,,,,,,,,,,,,,,,,,,,,,,,,,,,,,,,,,,,,"MET10709/13/20 00:53:02 METAR KSEA 130853Z 13006KT 1SM FU BR OVC026 12/11 A2996 RMK AO2 SLPNO FU OVC026 T01220111","FM-15","7",,,,,,,,,,,,,,,,,,,,,,,,,,,"2007-05-17"
"72793024233","2020-09-13T01:53:00","FM-15","7",,,,,,,,,,,,,,,,,,,,,,,,,,,,,,,,,,,,,,,"29.96","52","54",,"FU:3 BR:1 |HZ FU |FU",,,"93",,"OVC:08 28","29.49","1.00","53","000",,"0",,,,,,,,,,,,,,,,,,,,,,,,,,,,,,,,,,,,,"MET10709/13/20 01:53:02 METAR KSEA 130953Z 00000KT 1SM FU BR OVC028 12/11 A2996 RMK AO2 SLPNO FU OVC028 T01220111","FM-15","7",,,,,,,,,,,,,,,,,,,,,,,,,,,"2007-05-17"
"72793024233","2020-09-13T02:17:00","FM-16","7",,,,,,,,,,,,,,,,,,,,,,,,,,,,,,,,,,,,,,,"29.96","51","53",,"FU:3 BR:1 |HZ FU |FU",,,"93",,"OVC:08 31","29.49","1.00","52","180",,"3",,,,,,,,,,,,,,,,,,,,,,,,,,,,,,,,,,,,,"MET10109/13/20 02:17:02 SPECI KSEA 131017Z 18003KT 1SM FU BR OVC031 12/11 A2996 RMK AO2 FU OVC031 T01170106","FM-16","7",,,,,,,,,,,,,,,,,,,,,,,,,,,"2007-05-17"
"72793024233","2020-09-13T02:53:00","FM-15","7",,,,,,,,,,,,,,,,,,,,,,,,,,,,,,,,,,,,,,,"29.96","51","53",,"FU:3 BR:1 |HZ FU |FU",,,"93",,"OVC:08 31","29.49","0.75","52","120",,"3",,,,,,,,,,,,,,,,,,,,,,,,,,,,,,,,,,,,,"MET10909/13/20 02:53:02 METAR KSEA 131053Z 12003KT 3/4SM FU BR OVC031 12/11 A2996 RMK AO2 SLPNO FU OVC031 T01170106","FM-15","7",,,,,,,,,,,,,,,,,,,,,,,,,,,"2007-05-17"
"72793024233","2020-09-13T03:53:00","FM-15","7",,,,,,,,,,,,,,,,,,,,,,,,,,,,,,,,,,,,,,,"29.95","51","53",,"FU:3 BR:1 |HZ FU |FU",,,"93",,"OVC:08 31","29.48","0.75","52","130",,"5",,,,,,,,,,,,,,,,,,,,,,,,,,,,,,,,,,,,,"MET10909/13/20 03:53:02 METAR KSEA 131153Z 13004KT 3/4SM FU BR OVC031 12/11 A2995 RMK AO2 SLPNO FU OVC031 T01170106","FM-15","7",,,,,,,,,,,,,,,,,,,,,,,,,,,"2007-05-17"
"72793024233","2020-09-13T04:00:00","FM-12","4",,,,,,,,,,,,,,,,,,,,,,,,,,,,,,,,,,,,,,,,"52","54",,,,,"94",,"26","29.47","0.75","53","130",,"5",,,,,,,,,,,,,,,,,,,,,,,,,,,,,,,,,,,,,"SYN06872793 31512 81304 10120 20110 39979 710// 91153 333 96010 555 91312=","FM-12","4",,,,,,,,,,,,,,,,,,,,,,,,,,,"2007-05-17"
"72793024233","2020-09-13T04:53:00","FM-15","7",,,,,,,,,,,,,,,,,,,,,,,,,,,,,,,,,,,,,,,"29.95","50","52",,"FU:3 BR:1 |HZ FU |FU",,,"93",,"OVC:08 31","29.48","0.75","51","000",,"0",,,,,,,,,,,,,,,,,,,,,,,,,,,,,,,,,,,,,"MET10909/13/20 04:53:02 METAR KSEA 131253Z 00000KT 3/4SM FU BR OVC031 11/10 A2995 RMK AO2 SLPNO FU OVC031 T01110100","FM-15","7",,,,,,,,,,,,,,,,,,,,,,,,,,,"2007-05-17"
"72793024233","2020-09-13T05:53:00","FM-15","7",,,,,,,,,,,,,,,,,,,,,,,,,,,,,,,,,,,,,,,"29.95","50","51",,"FU:3 BR:1 |HZ FU |FU",,,"96",,"OVC:08 31","29.48","1.00","50","000",,"0",,,,,,,,,,,,,,,,,,,,,,,,,,,,,,,,,,,,,"MET10709/13/20 05:53:02 METAR KSEA 131353Z 00000KT 1SM FU BR OVC031 11/10 A2995 RMK AO2 SLPNO FU OVC031 T01060100","FM-15","7",,,,,,,,,,,,,,,,,,,,,,,,,,,"2007-05-17"
"72793024233","2020-09-13T06:53:00","FM-15","7",,,,,,,,,,,,,,,,,,,,,,,,,,,,,,,,,,,,,,,"29.95","49","50",,"FU:3 BR:1 |HZ FU |FU",,,"96",,"OVC:08 27","29.48","1.00","49","000",,"0",,,,,,,,,,,,,,,,,,,,,,,,,,,,,,,,,,,,,"MET10709/13/20 06:53:02 METAR KSEA 131453Z 00000KT 1SM FU BR OVC027 10/09 A2995 RMK AO2 SLPNO FU OVC027 T01000094","FM-15","7",,,,,,,,,,,,,,,,,,,,,,,,,,,"2007-05-17"
"72793024233","2020-09-13T07:53:00","FM-15","7",,,,,,,,,,,,,,,,,,,,,,,,,,,,,,,,,,,,,,,"29.97","50",,,"FU:3 BR:1 |HZ FU |FU",,,,,"OVC:08 27","29.50","1.00",,"000",,"0",,,,,,,,,,,,,,,,,,,,,,,,,,,,,,,,,,,,,"MET10609/13/20 07:53:02 METAR KSEA 131553Z 00000KT 1SM FU BR OVC027 10/10 A2997 RMK AO2 SLPNO FU OVC027 T1000100","FM-15","7",,,,,,,,,,,,,,,,,,,,,,,,,,,"2007-05-17"
"72793024233","2020-09-13T08:53:00","FM-15","7",,,,,,,,,,,,,,,,,,,,,,,,,,,,,,,,,,,,,,,"29.95","52","52",,"FU:3 BR:1 |FU |FU",,,"100",,"OVC:08 31 BKN:07 26","29.48","1.00","52","000",,"0",,,,,,,,,,,,,,,,,,,,,,,,,,,,,,,,,,,,,"MET09409/13/20 08:53:02 METAR KSEA 131653Z 00000KT 1SM FU BR OVC031 BKN026 11/11 A2995 RMK FU BKN026","FM-15","7",,,,,,,,,,,,,,,,,,,,,,,,,,,"2007-05-17"
"72793024233","2020-09-13T09:53:00","FM-15","4",,,,,,,,,,,,,,,,,,,,,,,,,,,,,,,,,,,,,,,"29.95","54","54",,"|HZ |",,,"100",,,,"1.00",,"210",,"3",,,,,,,,,,,,,,,,,,,,,,,,,,,,,,,,,,,,,"MET096METAR KSEA 131753Z 21003KT 1SM FU BR BKN025 OVC030 12/12 A2995 RMK AO2 SLPNO FU BKN026 T1220117=","FM-15","4",,,,,,,,,,,,,,,,,,,,,,,,,,,"2007-05-17"
"72793024233","2020-09-13T09:54:00","FM-15","7",,,,,,,,,,,,,,,,,,,,,,,,,,,,,,,,,,,,,,,"29.95","53","54",,"FU:3 BR:1 |HZ FU |FU",,,"97",,"BKN:07 25 OVC:08 30","29.48","1.00","53","210",,"3",,,,,,,,,,,,,,,,,,,,,,,,,,,,,,,,,,,,,"MET11409/13/20 09:54:02 METAR KSEA 131754Z 21003KT 1SM FU BR BKN025 OVC030 12/12 A2995 RMK AO2 SLPNO FU BKN026 T01220117","FM-15","7",,,,,,,,,,,,,,,,,,,,,,,,,,,"2007-05-17"
"72793024233","2020-09-13T10:00:00","FM-12","4",,,,,,,,,,,,,,,,,,,,,,,,,,,,,,,,,,,,,,,,"54","54",,,,,"100",,"26","29.47","0.99","54","210",,"3",,,,,,,,,,,,,,,,,,,,,,,,,,,,,,,,,,,,,"SYN06872793 31516 82103 10120 20120 39979 710// 91753 333 96010 555 91318=","FM-12","4",,,,,,,,,,,,,,,,,,,,,,,,,,,"2007-05-17"
"72793024233","2020-09-13T10:53:00","FM-15","7",,,,,,,,,,,,,,,,,,,,,,,,,,,,,,,,,,,,,,,"29.94","53","55",,"FU:3 BR:1 |HZ FU |FU",,,"93",,"OVC:08 25","29.47","1.00","54","230",,"5",,,,,,,,,,,,,,,,,,,,,,,,,,,,,,,,,,,,,"MET10709/13/20 10:53:02 METAR KSEA 131853Z 23004KT 1SM FU BR OVC025 13/12 A2994 RMK AO2 SLPNO FU OVC025 T01280117","FM-15","7",,,,,,,,,,,,,,,,,,,,,,,,,,,"2007-05-17"
"72793024233","2020-09-13T11:53:00","FM-15","7",,,,,,,,,,,,,,,,,,,,,,,,,,,,,,,,,,,,,,,"29.93","53","56",,"FU:3 BR:1 |HZ FU |FU",,,"90","29.95","OVC:08 24","29.47","1.25","54","260",,"5",,,,,,,,,,,,,,,,,,,,,,,,,,,,,,,,,,,,,"MET11209/13/20 11:53:02 METAR KSEA 131953Z 26004KT 1 1/4SM FU BR OVC024 13/12 A2993 RMK AO2 SLP141 FU OVC024 T01330117","FM-15","7",,,,,,,,,,,,,,,,,,,,,,,,,,,"2007-05-17"
"72793024233","2020-09-13T12:53:00","FM-15","7",,,,,,,,,,,,,,,,,,,,,,,,,,,,,,,,,,,,,,,"29.92","54","59",,"FU:3 BR:1 |HZ FU |FU",,,"83","29.94","OVC:08 23","29.45","1.25","56","240",,"6",,,,,,,,,,,,,,,,,,,,,,,,,,,,,,,,,,,,,"MET11209/13/20 12:53:02 METAR KSEA 132053Z 24005KT 1 1/4SM FU BR OVC023 15/12 A2992 RMK AO2 SLP138 FU OVC023 T01500122","FM-15","7",,,,,,,,,,,,,,,,,,,,,,,,,,,"2007-05-17"
"72793024233","2020-09-13T13:53:00","FM-15","7",,,,,,,,,,,,,,,,,,,,,,,,,,,,,,,,,,,,,,,"29.90","55","60",,"FU:3 HZ:7 |HZ FU |FU HZ",,,"84","29.92","OVC:08 24","29.44","1.25","57","280",,"3",,,,,,,,,,,,,,,,,,,,,,,,,,,,,,,,,,,,,"MET11209/13/20 13:53:02 METAR KSEA 132153Z 28003KT 1 1/4SM FU HZ OVC024 16/13 A2990 RMK AO2 SLP132 FU OVC024 T01560128","FM-15","7",,,,,,,,,,,,,,,,,,,,,,,,,,,"2007-05-17"
"72793024233","2020-09-13T14:53:00","FM-15","7",,,,,,,,,,,,,,,,,,,,,,,,,,,,,,,,,,,,,,,"29.90","55","62",,"FU:3 HZ:7 |HZ FU |FU HZ",,,"78","29.91","OVC:08 22","29.44","1.25","58","280",,"3",,,,,,,,,,,,,,,,,,,,,,,,,,,,,,,,,,,,,"MET11209/13/20 14:53:02 METAR KSEA 132253Z 28003KT 1 1/4SM FU HZ OVC022 17/13 A2990 RMK AO2 SLP129 FU OVC022 T01670128","FM-15","7",,,,,,,,,,,,,,,,,,,,,,,,,,,"2007-05-17"
"72793024233","2020-09-13T15:53:00","FM-15","7",,,,,,,,,,,,,,,,,,,,,,,,,,,,,,,,,,,,,,,"29.89","54","63",,"FU:3 HZ:7 |HZ FU |FU HZ",,,"73","29.90","OVC:08 22","29.42","1.00","58","000",,"0",,,,,,,,,,,,,,,,,,,,,,,,,,,,,,,,,,,,,"MET10809/13/20 15:53:02 METAR KSEA 132353Z 00000KT 1SM FU HZ OVC022 17/12 A2989 RMK AO2 SLP126 FU OVC022 T01720122","FM-15","7",,,,,,,,,,,,,,,,,,,,,,,,,,,"2007-05-17"
"72793024233","2020-09-13T16:00:00","FM-12","4",,,,,,,,,,,,,,,,,,,,,,,,,,,,,,,,,,,,,,,,"54","63",,"||HZ",,,"73","29.90","26","29.41","0.99","58","000",,"0",,,,,,,,,,,,,,,,,,,,,,,,,,,,,,,,,,,,,"SYN07472793 31516 80000 10170 20120 39959 40126 705// 92353 333 96005 555 91400=","FM-12","4",,,,,,,,,,,,,,,,,,,,,,,,,,,"2007-05-17"
"72793024233","2020-09-13T16:53:00","FM-15","7",,,,,,,,,,,,,,,,,,,,,,,,,,,,,,,,,,,,,,,"29.89","54","62",,"FU:3 HZ:7 |HZ FU |FU HZ",,,"75","29.90","OVC:08 22","29.42","1.00","57","260",,"5",,,,,,,,,,,,,,,,,,,,,,,,,,,,,,,,,,,,,"MET10809/13/20 16:53:01 METAR KSEA 140053Z 26004KT 1SM FU HZ OVC022 17/12 A2989 RMK AO2 SLP126 FU OVC022 T01670122","FM-15","7",,,,,,,,,,,,,,,,,,,,,,,,,,,"2007-05-17"
"72793024233","2020-09-13T17:53:00","FM-15","7",,,,,,,,,,,,,,,,,,,,,,,,,,,,,,,,,,,,,,,"29.88","55","61",,"FU:3 HZ:7 |HZ FU |FU HZ",,,"81","29.90","OVC:08 20","29.41","1.00","58","000",,"0",,,,,,,,,,,,,,,,,,,,,,,,,,,,,,,,,,,,,"MET10809/13/20 17:53:01 METAR KSEA 140153Z 00000KT 1SM FU HZ OVC020 16/13 A2988 RMK AO2 SLP125 FU OVC020 T01610128","FM-15","7",,,,,,,,,,,,,,,,,,,,,,,,,,,"2007-05-17"
"72793024233","2020-09-13T18:53:00","FM-15","7",,,,,,,,,,,,,,,,,,,,,,,,,,,,,,,,,,,,,,,"29.89","54","60",,"FU:3 HZ:7 |HZ FU |FU HZ",,,"80","29.91","OVC:08 22","29.42","1.25","57","000",,"0",,,,,,,,,,,,,,,,,,,,,,,,,,,,,,,,,,,,,"MET11209/13/20 18:53:01 METAR KSEA 140253Z 00000KT 1 1/4SM FU HZ OVC022 16/12 A2989 RMK AO2 SLP128 FU OVC022 T01560122","FM-15","7",,,,,,,,,,,,,,,,,,,,,,,,,,,"2007-05-17"
"72793024233","2020-09-13T19:53:00","FM-15","7",,,,,,,,,,,,,,,,,,,,,,,,,,,,,,,,,,,,,,,"29.92","54","60",,"FU:3 HZ:7 |HZ FU |FU HZ",,,"80","29.93","OVC:08 22","29.45","1.25","57","330",,"3",,,,,,,,,,,,,,,,,,,,,,,,,,,,,,,,,,,,,"MET11209/13/20 19:53:02 METAR KSEA 140353Z 33003KT 1 1/4SM FU HZ OVC022 16/12 A2992 RMK AO2 SLP137 FU OVC022 T01560122","FM-15","7",,,,,,,,,,,,,,,,,,,,,,,,,,,"2007-05-17"
"72793024233","2020-09-13T20:53:00","FM-15","7",,,,,,,,,,,,,,,,,,,,,,,,,,,,,,,,,,,,,,,"29.91","54","60",,"FU:3 HZ:7 |HZ FU |FU HZ",,,"80","29.93","OVC:08 22","29.44","1.25","57","330",,"3",,,,,,,,,,,,,,,,,,,,,,,,,,,,,,,,,,,,,"MET11209/13/20 20:53:02 METAR KSEA 140453Z 33003KT 1 1/4SM FU HZ OVC022 16/12 A2991 RMK AO2 SLP137 FU OVC022 T01560122","FM-15","7",,,,,,,,,,,,,,,,,,,,,,,,,,,"2007-05-17"
"72793024233","2020-09-13T21:53:00","FM-15","7",,,,,,,,,,,,,,,,,,,,,,,,,,,,,,,,,,,,,,,"29.93","54","57",,"FU:3 HZ:7 |HZ FU |FU HZ",,,"90","29.95","OVC:08 24","29.47","1.25","55","000",,"0",,,,,,,,,,,,,,,,,,,,,,,,,,,,,,,,,,,,,"MET11209/13/20 21:53:02 METAR KSEA 140553Z 00000KT 1 1/4SM FU HZ OVC024 14/12 A2993 RMK AO2 SLP141 FU OVC024 T01390122","FM-15","7",,,,,,,,,,,,,,,,,,,,,,,,,,,"2007-05-17"
"72793024233","2020-09-13T22:00:00","FM-12","4",,,,,,,,,,,,,,,,,,,,,,,,,,,,,,,,,,,,,,,,"54","57",,"||HZ",,,"88","29.95","26","29.45","1.24","55","000",,"0",,,,,,,,,,,,,,,,,,,,,,,,,,,,,,,,,,,,,"SYN07472793 31520 80000 10140 20120 39973 40141 705// 90553 333 96005 555 91406=","FM-12","4",,,,,,,,,,,,,,,,,,,,,,,,,,,"2007-05-17"
"72793024233","2020-09-13T22:53:00","FM-15","7",,,,,,,,,,,,,,,,,,,,,,,,,,,,,,,,,,,,,,,"29.95","54","58",,"FU:3 HZ:7 |HZ FU |FU HZ",,,"87","29.97","BKN:07 26 OVC:08 34","29.48","1.25","56","240",,"3",,,,,,,,,,,,,,,,,,,,,,,,,,,,,,,,,,,,,"MET12909/13/20 22:53:02 METAR KSEA 140653Z 24003KT 1 1/4SM FU HZ BKN026 OVC034 14/12 A2995 RMK AO2 SLP148 FU BKN026 FU OVC034 T01440122","FM-15","7",,,,,,,,,,,,,,,,,,,,,,,,,,,"2007-05-17"
"72793024233","2020-09-13T23:33:00","FM-16","7",,,,,,,,,,,,,,,,,,,,,,,,,,,,,,,,,,,,,,,"29.94","54","55",,"FU:3 BR:1 |HZ FU |FU",,,"95",,"OVC:08 30","29.47","1.50","54","070",,"5",,,,,,,,,,,,,,,,,,,,,,,,,,,,,,,,,,,,,"MET10509/13/20 23:33:02 SPECI KSEA 140733Z 07004KT 1 1/2SM FU BR OVC030 13/12 A2994 RMK AO2 FU OVC030 T01300122","FM-16","7",,,,,,,,,,,,,,,,,,,,,,,,,,,"2007-05-17"
"72793024233","2020-09-13T23:53:00","FM-15","7",,,,,,,,,,,,,,,,,,,,,,,,,,,,,,,,,,,,,,,"29.94","54","55",,"FU:3 BR:1 |HZ FU |FU",,,"95","29.96","OVC:08 30","29.47","1.50","54","110",,"5",,,,,,,,,,,,,,,,,,,,,,,,,,,,,,,,,,,,,"MET11209/13/20 23:53:02 METAR KSEA 140753Z 11004KT 1 1/2SM FU BR OVC030 13/12 A2994 RMK AO2 SLP145 FU OVC030 T01300122","FM-15","7",,,,,,,,,,,,,,,,,,,,,,,,,,,"2007-05-17"
"72793024233","2020-09-13T23:59:00","SOD  ","6",,,,,,,,,,,,,,,,,"53","57","88","30.03","29.47","54","2.7","0","-5.1","8","64","50",,"2237","0.00","0","0.0","130","7","BR HZ",,,,,,,,,,,,,,,,,,,,,,,,,,,,,,,,,,,,,,,,,,,,,,,,,,,,,,,"SOD41024 HR PRECIPITATION (IN): 0.00 SNOW DEPTH (IN):0     24 HR SNOWFALL (IN):0.0  WEATHER(CODE):18  24 HR MAX TEMP (F): 6424 HR MIN TEMP (F): 50AVERAGE STATION PRESSURE(D):29.467  FASTEST 2MIN SPEED (MPH):  7FASTEST 2MIN DIR (DEG):130 FASTEST 2MIN TIME (LST):     AVERAGE WIND SPEED (MPH): 2.7 24 HR AVG TEMP (F): 57DEPART FROM NORMAL: -5  SKY COVER SR-SS (TENTHS): 1HEATING DEGREE DAYS:  8 COOLING DEGREE DAYS:  0","SOD  ","6",,,,,,,,,,,,,,,,,,,,,,,,,"0545","1824","2007-05-17"
"72793024233","2020-09-14T00:53:00","FM-15","7",,,,,,,,,,,,,,,,,,,,,,,,,,,,,,,,,,,,,,,"29.94","54","56",,"FU:3 BR:1 |HZ FU |FU",,,"93","29.96","OVC:08 32","29.47","1.50","55","000",,"0",,,,,,,,,,,,,,,,,,,,,,,,,,,,,,,,,,,,,"MET11209/14/20 00:53:02 METAR KSEA 140853Z 00000KT 1 1/2SM FU BR OVC032 13/12 A2994 RMK AO2 SLP145 FU OVC032 T01330122","FM-15","7",,,,,,,,,,,,,,,,,,,,,,,,,,,"2007-05-17"
"72793024233","2020-09-14T01:53:00","FM-15","7",,,,,,,,,,,,,,,,,,,,,,,,,,,,,,,,,,,,,,,"29.95","54","57",,"FU:3 BR:1 |HZ FU |FU",,,"90","29.96","OVC:08 32","29.48","1.50","55","000",,"0",,,,,,,,,,,,,,,,,,,,,,,,,,,,,,,,,,,,,"MET11209/14/20 01:53:02 METAR KSEA 140953Z 00000KT 1 1/2SM FU BR OVC032 14/12 A2995 RMK AO2 SLP147 FU OVC032 T01390122","FM-15","7",,,,,,,,,,,,,,,,,,,,,,,,,,,"2007-05-17"
"72793024233","2020-09-14T02:53:00","FM-15","7",,,,,,,,,,,,,,,,,,,,,,,,,,,,,,,,,,,,,,,"29.96","54","56",,"FU:3 BR:1 |HZ FU |FU",,,"93","29.97","OVC:08 30","29.49","1.50","55","000",,"0",,,,,,,,,,,,,,,,,,,,,,,,,,,,,,,,,,,,,"MET11209/14/20 02:53:02 METAR KSEA 141053Z 00000KT 1 1/2SM FU BR OVC030 13/12 A2996 RMK AO2 SLP149 FU OVC030 T01330122","FM-15","7",,,,,,,,,,,,,,,,,,,,,,,,,,,"2007-05-17"
"72793024233","2020-09-14T03:53:00","FM-15","7",,,,,,,,,,,,,,,,,,,,,,,,,,,,,,,,,,,,,,,"29.96","54","55",,"FU:3 BR:1 |HZ FU |FU",,,"96","29.97","OVC:08 30","29.49","1.50","54","000",,"0",,,,,,,,,,,,,,,,,,,,,,,,,,,,,,,,,,,,,"MET11209/14/20 03:53:02 METAR KSEA 141153Z 00000KT 1 1/2SM FU BR OVC030 13/12 A2996 RMK AO2 SLP149 FU OVC030 T01280122","FM-15","7",,,,,,,,,,,,,,,,,,,,,,,,,,,"2007-05-17"
"72793024233","2020-09-14T04:00:00","FM-12","4",,,,,,,,,,,,,,,,,,,,,,,,,,,,,,,,,,,,,,,,"54","55",,,,,"94","29.97","26","29.48","1.49","54","000",,"0",,,,,,,,,,,,,,,,,,,,,,,,,,,,,,,,,,,,,"SYN07472793 31524 80000 10130 20120 39983 40149 710// 91153 333 96010 555 91412=","FM-12","4",,,,,,,,,,,,,,,,,,,,,,,,,,,"2007-05-17"
"72793024233","2020-09-14T04:53:00","FM-15","7",,,,,,,,,,,,,,,,,,,,,,,,,,,,,,,,,,,,,,,"29.95","54","56",,"FU:3 BR:1 |HZ FU |FU",,,"93","29.96","OVC:08 28","29.48","1.50","55","160",,"3",,,,,,,,,,,,,,,,,,,,,,,,,,,,,,,,,,,,,"MET11209/14/20 04:53:02 METAR KSEA 141253Z 16003KT 1 1/2SM FU BR OVC028 13/12 A2995 RMK AO2 SLP147 FU OVC028 T01330122","FM-15","7",,,,,,,,,,,,,,,,,,,,,,,,,,,"2007-05-17"
"72793024233","2020-09-14T05:53:00","FM-15","7",,,,,,,,,,,,,,,,,,,,,,,,,,,,,,,,,,,,,,,"29.95","55","57",,"FU:3 BR:1 |HZ FU |FU",,,"93","29.96","OVC:08 29","29.48","1.00","56","110",,"5",,,,,,,,,,,,,,,,,,,,,,,,,,,,,,,,,,,,,"MET10809/14/20 05:53:02 METAR KSEA 141353Z 11004KT 1SM FU BR OVC029 14/13 A2995 RMK AO2 SLP147 FU OVC029 T01390128","FM-15","7",,,,,,,,,,,,,,,,,,,,,,,,,,,"2007-05-17"
"72793024233","2020-09-14T06:53:00","FM-15","7",,,,,,,,,,,,,,,,,,,,,,,,,,,,,,,,,,,,,,,"29.95","55","57",,"FU:3 BR:1 |HZ FU |FU",,,"93","29.96","OVC:08 29","29.48","1.00","56","000",,"0",,,,,,,,,,,,,,,,,,,,,,,,,,,,,,,,,,,,,"MET10809/14/20 06:53:02 METAR KSEA 141453Z 00000KT 1SM FU BR OVC029 14/13 A2995 RMK AO2 SLP146 FU OVC029 T01390128","FM-15","7",,,,,,,,,,,,,,,,,,,,,,,,,,,"2007-05-17"
"72793024233","2020-09-14T07:53:00","FM-15","7",,,,,,,,,,,,,,,,,,,,,,,,,,,,,,,,,,,,,,,"29.95","55","57",,"FU:3 BR:1 |HZ FU |FU",,,"93","29.97","OVC:08 26","29.48","1.00","56","000",,"0",,,,,,,,,,,,,,,,,,,,,,,,,,,,,,,,,,,,,"MET10809/14/20 07:53:02 METAR KSEA 141553Z 00000KT 1SM FU BR OVC026 14/13 A2995 RMK AO2 SLP148 FU OVC026 T01390128","FM-15","7",,,,,,,,,,,,,,,,,,,,,,,,,,,"2007-05-17"
"72793024233","2020-09-14T08:53:00","FM-15","7",,,,,,,,,,,,,,,,,,,,,,,,,,,,,,,,,,,,,,,"29.96","56","60",,"FU:3 BR:1 |HZ FU |FU",,,"86","29.97","OVC:08 26","29.49","1.00","58","000",,"0",,,,,,,,,,,,,,,,,,,,,,,,,,,,,,,,,,,,,"MET10809/14/20 08:53:02 METAR KSEA 141653Z 00000KT 1SM FU BR OVC026 16/13 A2996 RMK AO2 SLP150 FU OVC026 T01560133","FM-15","7",,,,,,,,,,,,,,,,,,,,,,,,,,,"2007-05-17"
"72793024233","2020-09-14T09:53:00","FM-15","7",,,,,,,,,,,,,,,,,,,,,,,,,,,,,,,,,,,,,,,"29.97","57","62",,"FU:3 HZ:7 |HZ FU |FU HZ",,,"83","29.96","OVC:08 20","29.50","1.00","59","260",,"5",,,,,,,,,,,,,,,,,,,,,,,,,,,,,,,,,,,,,"MET10809/14/20 09:53:02 METAR KSEA 141753Z 26004KT 1SM FU HZ OVC020 17/14 A2997 RMK AO2 SLP147 FU OVC020 T01670137","FM-15","7",,,,,,,,,,,,,,,,,,,,,,,,,,,"2007-05-17"
"72793024233","2020-09-14T10:00:00","FM-12","4",,,,,,,,,,,,,,,,,,,,,,,,,,,,,,,,,,,,,,,,"57","63",,"||HZ",,,"83","29.96","26","29.49","0.99","60","260",,"5",,,,,,,,,,,,,,,,,,,,,,,,,,,,,,,,,,,,,"SYN07472793 31516 82604 10170 20140 39986 40147 705// 91753 333 96005 555 91418=","FM-12","4",,,,,,,,,,,,,,,,,,,,,,,,,,,"2007-05-17"
"72793024233","2020-09-14T10:53:00","FM-15","7",,,,,,,,,,,,,,,,,,,,,,,,,,,,,,,,,,,,,,,"29.96","56","65",,"FU:3 HZ:7 |HZ FU |FU HZ",,,"73",,"OVC:08 20","29.49","1.00","60","010",,"3",,,,,,,,,,,,,,,,,,,,,,,,,,,,,,,,,,,,,"MET10709/14/20 10:53:02 METAR KSEA 141853Z 01003KT 1SM FU HZ OVC020 18/13 A2996 RMK AO2 SLPNO FU OVC020 T01830133","FM-15","7",,,,,,,,,,,,,,,,,,,,,,,,,,,"2007-05-17"
"72793024233","2020-09-14T11:53:00","FM-15","7",,,,,,,,,,,,,,,,,,,,,,,,,,,,,,,,,,,,,,,"29.95","57","64",,"-RA:02 FU:3 HZ:7 |HZ FU RA |FU HZ RA",,,"78",,"OVC:08 20","29.48","1.00","60","260",,"5",,,,,,,,,,,,,,,,,,,,,,,,,,,,,,,,,,,,,"MET11709/14/20 11:53:02 METAR KSEA 141953Z 26004KT 1SM -RA FU HZ OVC020 18/14 A2995 RMK AO2 RAB45 SLPNO FU OVC020 T01780139","FM-15","7",,,,,,,,,,,,,,,,,,,,,,,,,,,"2007-05-17"
"72793024233","2020-09-14T12:53:00","FM-15","7",,,,,,,,,,,,,,,,,,,,,,,,,,,,,,,,,,,,,,,"29.95","57","66",,"FU:3 HZ:7 |HZ FU |FU HZ",,,"73",,"OVC:08 18","29.48","1.00","61","270",,"6",,,,,,,,,,,,,,,,,,,,,,,,,,,,,,,,,,,,,"MET11309/14/20 12:53:02 METAR KSEA 142053Z 27005KT 1SM FU HZ OVC018 19/14 A2995 RMK AO2 RAE05 SLPNO FU OVC018 T01890139","FM-15","7",,,,,,,,,,,,,,,,,,,,,,,,,,,"2007-05-17"
"72793024233","2020-09-14T13:53:00","FM-15","7",,,,,,,,,,,,,,,,,,,,,,,,,,,,,,,,,,,,,,,"29.93","57","66",,"FU:3 HZ:7 |HZ FU |FU HZ",,,"73",,"OVC:08 18","29.47","1.00","61","290",,"5",,,,,,,,,,,,,,,,,,,,,,,,,,,,,,,,,,,,,"MET10709/14/20 13:53:02 METAR KSEA 142153Z 29004KT 1SM FU HZ OVC018 19/14 A2993 RMK AO2 SLPNO FU OVC018 T01890139","FM-15","7",,,,,,,,,,,,,,,,,,,,,,,,,,,"2007-05-17"
"72793024233","2020-09-14T14:53:00","FM-15","7",,,,,,,,,,,,,,,,,,,,,,,,,,,,,,,,,,,,,,,"29.93","57","66",,"FU:3 HZ:7 |HZ FU |FU HZ",,,"73",,"OVC:08 18","29.47","1.00","61","300",,"6",,,,,,,,,,,,,,,,,,,,,,,,,,,,,,,,,,,,,"MET10709/14/20 14:53:02 METAR KSEA 142253Z 30005KT 1SM FU HZ OVC018 19/14 A2993 RMK AO2 SLPNO FU OVC018 T01890139","FM-15","7",,,,,,,,,,,,,,,,,,,,,,,,,,,"2007-05-17"
"72793024233","2020-09-14T15:53:00","FM-15","7",,,,,,,,,,,,,,,,,,,,,,,,,,,,,,,,,,,,,,,"29.94","57","67",,"FU:3 HZ:7 |HZ FU |FU HZ",,,"71",,"OVC:08 23","29.47","1.00","61","300",,"3",,,,,,,,,,,,,,,,,,,,,,,,,,,,,,,,,,,,,"MET10709/14/20 15:53:02 METAR KSEA 142353Z 30003KT 1SM FU HZ OVC023 19/14 A2994 RMK AO2 SLPNO FU OVC023 T01940139","FM-15","7",,,,,,,,,,,,,,,,,,,,,,,,,,,"2007-05-17"
"72793024233","2020-09-14T16:00:00","FM-12","4",,,,,,,,,,,,,,,,,,,,,,,,,,,,,,,,,,,,,,,,"57","66",,"||HZ",,,"73",,"26","29.46","0.99","61","300",,"3",,,,,,,,,,,,,,,,,,,,,,,,,,,,,,,,,,,,,"SYN06872793 31516 83003 10190 20140 39976 705// 92353 333 96005 555 91500=","FM-12","4",,,,,,,,,,,,,,,,,,,,,,,,,,,"2007-05-17"
"72793024233","2020-09-14T16:53:00","FM-15","7",,,,,,,,,,,,,,,,,,,,,,,,,,,,,,,,,,,,,,,"29.95","57","69",,"FU:3 HZ:7 |HZ FU |FU HZ",,,"66",,"OVC:08 24","29.48","1.00","62","290",,"3",,,,,,,,,,,,,,,,,,,,,,,,,,,,,,,,,,,,,"MET10709/14/20 16:53:01 METAR KSEA 150053Z 29003KT 1SM FU HZ OVC024 21/14 A2995 RMK AO2 SLPNO FU OVC024 T02060139","FM-15","7",,,,,,,,,,,,,,,,,,,,,,,,,,,"2007-05-17"
"72793024233","2020-09-14T17:53:00","FM-15","7",,,,,,,,,,,,,,,,,,,,,,,,,,,,,,,,,,,,,,,"29.95","58","67",,"FU:3 HZ:7 |HZ FU |FU HZ",,,"73",,"OVC:08 26","29.48","1.00","62","000",,"0",,,,,,,,,,,,,,,,,,,,,,,,,,,,,,,,,,,,,"MET10709/14/20 17:53:01 METAR KSEA 150153Z 00000KT 1SM FU HZ OVC026 19/14 A2995 RMK AO2 SLPNO FU OVC026 T01940144","FM-15","7",,,,,,,,,,,,,,,,,,,,,,,,,,,"2007-05-17"
"72793024233","2020-09-14T18:53:00","FM-15","7",,,,,,,,,,,,,,,,,,,,,,,,,,,,,,,,,,,,,,,"29.96","57","64",,"FU:3 HZ:7 |HZ FU |FU HZ",,,"78",,"OVC:08 29","29.49","1.00","60","000",,"0",,,,,,,,,,,,,,,,,,,,,,,,,,,,,,,,,,,,,"MET10709/14/20 18:53:01 METAR KSEA 150253Z 00000KT 1SM FU HZ OVC029 18/14 A2996 RMK AO2 SLPNO FU OVC029 T01780139","FM-15","7",,,,,,,,,,,,,,,,,,,,,,,,,,,"2007-05-17"
"72793024233","2020-09-14T19:53:00","FM-15","7",,,,,,,,,,,,,,,,,,,,,,,,,,,,,,,,,,,,,,,"29.99","56","63",,"FU:3 HZ:7 |HZ FU |FU HZ",,,"78",,"OVC:08 29","29.52","1.00","59","320",,"3",,,,,,,,,,,,,,,,,,,,,,,,,,,,,,,,,,,,,"MET10709/14/20 19:53:02 METAR KSEA 150353Z 32003KT 1SM FU HZ OVC029 17/13 A2999 RMK AO2 SLPNO FU OVC029 T01720133","FM-15","7",,,,,,,,,,,,,,,,,,,,,,,,,,,"2007-05-17"
"72793024233","2020-09-14T20:53:00","FM-15","7",,,,,,,,,,,,,,,,,,,,,,,,,,,,,,,,,,,,,,,"30.02","56","63",,"FU:3 HZ:7 |HZ FU |FU HZ",,,"78","30.03","OVC:08 28","29.55","1.00","59","000",,"0",,,,,,,,,,,,,,,,,,,,,,,,,,,,,,,,,,,,,"MET10809/14/20 20:53:02 METAR KSEA 150453Z 00000KT 1SM FU HZ OVC028 17/13 A3002 RMK AO2 SLP170 FU OVC028 T01720133","FM-15","7",,,,,,,,,,,,,,,,,,,,,,,,,,,"2007-05-17"
"72793024233","2020-09-14T21:09:00","FM-16","7",,,,,,,,,,,,,,,,,,,,,,,,,,,,,,,,,,,,,,,"30.02","57","63",,"FU:3 HZ:7 |HZ FU |FU HZ",,,"81",,"OVC:08 28","29.55","1.50","60","000",,"0",,,,,,,,,,,,,,,,,,,,,,,,,,,,,,,,,,,,,"MET10509/14/20 21:09:02 SPECI KSEA 150509Z 00000KT 1 1/2SM FU HZ OVC028 17/14 A3002 RMK AO2 FU OVC028 T01720139","FM-16","7",,,,,,,,,,,,,,,,,,,,,,,,,,,"2007-05-17"
"72793024233","2020-09-14T21:18:00","FM-16","7",,,,,,,,,,,,,,,,,,,,,,,,,,,,,,,,,,,,,,,"30.02","57","62",,"-RA:02 FU:3 HZ:7 |HZ FU RA |FU HZ RA",,,"84",,"BKN:07 31 OVC:08 75","29.55","1.50","59","280",,"6",,,,,,,,,,,,,,,,,,,,,,,,,,,,,,,,,,,,,"MET12209/14/20 21:18:02 SPECI KSEA 150518Z 28005KT 1 1/2SM -RA FU HZ BKN031 OVC075 17/14 A3002 RMK AO2 RAB17 FU BKN031 T01670139","FM-16","7",,,,,,,,,,,,,,,,,,,,,,,,,,,"2007-05-17"
"72793024233","2020-09-14T21:53:00","FM-15","7",,,,,,,,,,,,,,,,,,,,,,,,,,,,,,,,,,,,,,,"30.03","57","61",,"-RA:02 FU:3 HZ:7 |HZ FU RA |FU HZ RA",,,"87","30.05","BKN:07 33 BKN:07 45 OVC:08 85","29.56","1.50","59","280",,"6",,,,,,,,,,,,,,,,,,,,,,,,,,,,,,,,,,,,,"MET14209/14/20 21:53:02 METAR KSEA 150553Z 28005KT 1 1/2SM -RA FU HZ BKN033 BKN045 OVC085 16/14 A3003 RMK AO2 RAB17E28B48 SLP176 FU BKN033 T01610139","FM-15","7",,,,,,,,,,,,,,,,,,,,,,,,,,,"2007-05-17"
"72793024233","2020-09-14T22:00:00","FM-12","4",,,,,,,,,,,,,,,,,,,,,,,,,,,,,,,,,,,,,,,,"57","61",,"||RA",,,"88","30.05","26","29.55","1.49","59","280",,"6",,,,,,,,,,,,,,,,,,,,,,,,,,,,,,,,,,,,,"SYN08072793 31524 82805 10160 20140 30006 40176 761// 90553 333 96004 96005 555 91506=","FM-12","4",,,,,,,,,,,,,,,,,,,,,,,,,,,"2007-05-17"
"72793024233","2020-09-14T22:23:00","FM-16","7",,,,,,,,,,,,,,,,,,,,,,,,,,,,,,,,,,,,,,,"30.03","58","61",,"FU:3 BR:1 |HZ FU |FU",,,"90",,"BKN:07 28 OVC:08 70","29.56","1.75","59","010",,"5",,,,,,,,,,,,,,,,,,,,,,,,,,,,,,,,,,,,,"MET11809/14/20 22:23:02 SPECI KSEA 150623Z 01004KT 1 3/4SM FU BR BKN028 OVC070 16/14 A3003 RMK AO2 RAE17 FU BKN028 T01610144","FM-16","7",,,,,,,,,,,,,,,,,,,,,,,,,,,"2007-05-17"
"72793024233","2020-09-14T22:53:00","FM-15","7",,,,,,,,,,,,,,,,,,,,,,,,,,,,,,,,,,,,,,,"30.04","57","62",,"FU:3 BR:1 |HZ FU |FU",,,"84","30.06","BKN:07 28 BKN:07 70 OVC:08 90","29.57","1.50","59","000",,"0",,,,,,,,,,,,,,,,,,,,,,,,,,,,,,,,,,,,,"MET13209/14/20 22:53:02 METAR KSEA 150653Z 00000KT 1 1/2SM FU BR BKN028 BKN070 OVC090 17/14 A3004 RMK AO2 RAE17 SLP179 FU BKN028 T01670139","FM-15","7",,,,,,,,,,,,,,,,,,,,,,,,,,,"2007-05-17"
"72793024233","2020-09-14T23:00:00","FM-16","7",,,,,,,,,,,,,,,,,,,,,,,,,,,,,,,,,,,,,,,"30.05","57","62",,"FU:3 BR:1 |HZ FU |FU",,,"84",,"SCT:04 32 BKN:07 70 OVC:08 90","29.58","1.50","59","000",,"0",,,,,,,,,,,,,,,,,,,,,,,,,,,,,,,,,,,,,"MET11909/14/20 23:00:02 SPECI KSEA 150700Z 00000KT 1 1/2SM FU BR SCT032 BKN070 OVC090 17/14 A3005 RMK AO2 FU SCT032 T01670139","FM-16","7",,,,,,,,,,,,,,,,,,,,,,,,,,,"2007-05-17"
"72793024233","2020-09-14T23:53:00","FM-15","7",,,,,,,,,,,,,,,,,,,,,,,,,,,,,,,,,,,,,,,"30.04","58","62",,"BR:1 FU:3 |HZ FU |FU",,,"86","30.05","FEW:02 24 SCT:04 55 OVC:08 70","29.57","1.50","60","070",,"7",,,,,,,,,,,,,,,,,,,,,,,,,,,,,,,,,,,,,"MET12609/14/20 23:53:02 METAR KSEA 150753Z 07006KT 1 1/2SM BR FU FEW024 SCT055 OVC070 17/14 A3004 RMK AO2 SLP177 FU FEW024 T01670144","FM-15","7",,,,,,,,,,,,,,,,,,,,,,,,,,,"2007-05-17"
"72793024233","2020-09-14T23:59:00","SOD  ","6",,,,,,,,,,,,,,,,,"56","62","82","30.07","29.51","58","2.1","0","0.1","3","69","55",,"2237","0.05","0","0.0","300","6","RA BR HZ",,,,,,,,,,,,,,,,,,,,,,,,,,,,,,,,,,,,,,,,,,,,,,,,,,,,,,,"SOD41024 HR PRECIPITATION (IN): 0.05 SNOW DEPTH (IN):0     24 HR SNOWFALL (IN):0.0  WEATHER(CODE):18  24 HR MAX TEMP (F): 6924 HR MIN TEMP (F): 55AVERAGE STATION PRESSURE(D):29.509  FASTEST 2MIN SPEED (MPH):  6FASTEST 2MIN DIR (DEG):300 FASTEST 2MIN TIME (LST):     AVERAGE WIND SPEED (MPH): 2.1 24 HR AVG TEMP (F): 62DEPART FROM NORMAL:  0  SKY COVER SR-SS (TENTHS): 1HEATING DEGREE DAYS:  3 COOLING DEGREE DAYS:  0","SOD  ","6",,,,,,,,,,,,,,,,,,,,,,,,,"0546","1822","2007-05-17"
"72793024233","2020-09-15T00:53:00","FM-15","7",,,,,,,,,,,,,,,,,,,,,,,,,,,,,,,,,,,,,,,"30.04","59","62",,"BR:1 FU:3 |HZ FU |FU",,,"90",,"SCT:04 25 BKN:07 75 OVC:08 110","29.57","1.50","60","030",,"7",,,,,,,,,,,,,,,,,,,,,,,,,,,,,,,,,,,,,"MET12509/15/20 00:53:02 METAR KSEA 150853Z 03006KT 1 1/2SM BR FU SCT025 BKN075 OVC110 17/15 A3004 RMK AO2 SLPNO FU SCT025 T01670150","FM-15","7",,,,,,,,,,,,,,,,,,,,,,,,,,,"2007-05-17"
"72793024233","2020-09-15T01:53:00","FM-15","7",,,,,,,,,,,,,,,,,,,,,,,,,,,,,,,,,,,,,,,"30.04","59","62",,"BR:1 FU:3 |HZ FU |FU",,,"90",,"FEW:02 40 BKN:07 70 OVC:08 85","29.57","1.50","60","000",,"0",,,,,,,,,,,,,,,,,,,,,,,,,,,,,,,,,,,,,"MET11509/15/20 01:53:02 METAR KSEA 150953Z 00000KT 1 1/2SM BR FU FEW040 BKN070 OVC085 17/15 A3004 RMK AO2 SLPNO T01670150","FM-15","7",,,,,,,,,,,,,,,,,,,,,,,,,,,"2007-05-17"
"72793024233","2020-09-15T02:53:00","FM-15","7",,,,,,,,,,,,,,,,,,,,,,,,,,,,,,,,,,,,,,,"30.07","59","61",,"BR:1 FU:3 |HZ FU |FU",,,"93",,"FEW:02 22 OVC:08 60","29.60","1.50","60","250",,"3",,,,,,,,,,,,,,,,,,,,,,,,,,,,,,,,,,,,,"MET10809/15/20 02:53:02 METAR KSEA 151053Z 25003KT 1 1/2SM BR FU FEW022 OVC060 16/15 A3007 RMK AO2 SLPNO T01610150","FM-15","7",,,,,,,,,,,,,,,,,,,,,,,,,,,"2007-05-17"
"72793024233","2020-09-15T03:00:00","FM-16","7",,,,,,,,,,,,,,,,,,,,,,,,,,,,,,,,,,,,,,,"30.07","60","62",,"BR:1 FU:3 |HZ FU |FU",,,"93",,"FEW:02 22 OVC:08 60","29.60","1.25","61","000",,"0",,,,,,,,,,,,,,,,,,,,,,,,,,,,,,,,,,,,,"MET10209/15/20 03:00:02 SPECI KSEA 151100Z 00000KT 1 1/4SM BR FU FEW022 OVC060 17/16 A3007 RMK AO2 T01670156","FM-16","7",,,,,,,,,,,,,,,,,,,,,,,,,,,"2007-05-17"
"72793024233","2020-09-15T03:53:00","FM-15","7",,,,,,,,,,,,,,,,,,,,,,,,,,,,,,,,,,,,,,,"30.08","60","62",,"BR:1 FU:3 |HZ FU |FU",,,"93","30.09","FEW:02 35 OVC:08 50","29.61","1.00","61","000",,"0",,,,,,,,,,,,,,,,,,,,,,,,,,,,,,,,,,,,,"MET10509/15/20 03:53:02 METAR KSEA 151153Z 00000KT 1SM BR FU FEW035 OVC050 17/16 A3008 RMK AO2 SLP191 T01670156","FM-15","7",,,,,,,,,,,,,,,,,,,,,,,,,,,"2007-05-17"
"72793024233","2020-09-15T04:00:00","FM-12","4",,,,,,,,,,,,,,,,,,,,,,,,,,,,,,,,,,,,,,,,"60","62",,,,,"93","30.09","41","29.60","0.99","61","000",,"0",,,,,,,,,,,,,,,,,,,,,,,,,,,,,,,,,,,,,"SYN07472793 31616 80000 10167 20156 30023 40191 710// 91153 333 96004 555 91512=","FM-12","4",,,,,,,,,,,,,,,,,,,,,,,,,,,"2007-05-17"
"72793024233","2020-09-15T04:53:00","FM-15","7",,,,,,,,,,,,,,,,,,,,,,,,,,,,,,,,,,,,,,,"30.08","60","61",,"BR:1 FU:3 |HZ FU |FU",,,"97","30.10","FEW:02 35 OVC:08 50","29.61","1.25","60","000",,"0",,,,,,,,,,,,,,,,,,,,,,,,,,,,,,,,,,,,,"MET10909/15/20 04:53:02 METAR KSEA 151253Z 00000KT 1 1/4SM BR FU FEW035 OVC050 16/16 A3008 RMK AO2 SLP192 T01610156","FM-15","7",,,,,,,,,,,,,,,,,,,,,,,,,,,"2007-05-17"
"72793024233","2020-09-15T05:53:00","FM-15","7",,,,,,,,,,,,,,,,,,,,,,,,,,,,,,,,,,,,,,,"30.09","60","62",,"BR:1 FU:3 |HZ FU |FU",,,"93","30.10","OVC:08 50","29.62","1.00","61","150",,"7",,,,,,,,,,,,,,,,,,,,,,,,,,,,,,,,,,,,,"MET11009/15/20 05:53:02 METAR KSEA 151353Z 15006KT 1SM R16L/6000FT BR FU OVC050 17/16 A3009 RMK AO2 SLP194 T01670156","FM-15","7",,,,,,,,,,,,,,,,,,,,,,,,,,,"2007-05-17"
"72793024233","2020-09-15T06:53:00","FM-15","7",,,,,,,,,,,,,,,,,,,,,,,,,,,,,,,,,,,,,,,"30.10","60","63",,"BR:1 FU:3 |HZ FU |FU","-0.02","3","90","30.12","FEW:02 30 BKN:07 50 BKN:07 65","29.63","1.00","61","140",,"6",,,,,,,,,,,,,,,,,,,,,,,,,,,,,,,,,,,,,"MET13009/15/20 06:53:02 METAR KSEA 151453Z 14005KT 1SM R16L/5000FT BR FU FEW030 BKN050 BKN065 17/16 A3010 RMK AO2 SLP199 T01720156 53008","FM-15","7",,,,,,,,,,,,,,,,,,,,,,,,,,,"2007-05-17"
"72793024233","2020-09-15T07:47:00","FM-16","7",,,,,,,,,,,,,,,,,,,,,,,,,,,,,,,,,,,,,,,"30.11","60","64",,"BR:1 FU:3 |HZ FU |FU",,,"87",,"BKN:07 26 BKN:07 45","29.64","1.00","62","130",,"6",,,,,,,,,,,,,,,,,,,,,,,,,,,,,,,,,,,,,"MET11009/15/20 07:47:02 SPECI KSEA 151547Z 13005KT 1SM R16L/6000FT BR FU BKN026 BKN045 18/16 A3011 RMK AO2 T01780156","FM-16","7",,,,,,,,,,,,,,,,,,,,,,,,,,,"2007-05-17"
"72793024233","2020-09-15T07:53:00","FM-15","7",,,,,,,,,,,,,,,,,,,,,,,,,,,,,,,,,,,,,,,"30.11","60","64",,"BR:1 FU:3 |HZ FU |FU",,,"87","30.12","BKN:07 26 BKN:07 45","29.64","1.00","62","120",,"3",,,,,,,,,,,,,,,,,,,,,,,,,,,,,,,,,,,,,"MET11709/15/20 07:53:02 METAR KSEA 151553Z 12003KT 1SM R16L/6000FT BR FU BKN026 BKN045 18/16 A3011 RMK AO2 SLP200 T01780156","FM-15","7",,,,,,,,,,,,,,,,,,,,,,,,,,,"2007-05-17"
"72793024233","2020-09-15T08:53:00","FM-15","7",,,,,,,,,,,,,,,,,,,,,,,,,,,,,,,,,,,,,,,"30.11","60","66",,"HZ:7 FU:3 |HZ FU |FU HZ",,,"81","30.12","BKN:07 23 BKN:07 55 BKN:07 110","29.64","1.00","62","000",,"0",,,,,,,,,,,,,,,,,,,,,,,,,,,,,,,,,,,,,"MET12509/15/20 08:53:02 METAR KSEA 151653Z 00000KT 1SM R16L/P6000FT HZ FU BKN023 BKN055 BKN110 19/16 A3011 RMK AO2 SLP201 T01890156","FM-15","7",,,,,,,,,,,,,,,,,,,,,,,,,,,"2007-05-17"
"72793024233","2020-09-15T09:53:00","FM-15","7",,,,,,,,,,,,,,,,,,,,,,,,,,,,,,,,,,,,,,,"30.12","62","65",,"BR:1 FU:3 |HZ FU |FU",,,"90",,"BKN:07 23 BKN:07 55","29.65","1.00","63","000",,"0",,,,,,,,,,,,,,,,,,,,,,,,,,,,,,,,,,,,,"MET11709/15/20 09:53:02 METAR KSEA 151753Z 00000KT 1SM R16L/P6000FT BR FU BKN023 BKN055 18/17 A3012 RMK AO2 SLPNO T01830167","FM-15","7",,,,,,,,,,,,,,,,,,,,,,,,,,,"2007-05-17"
"72793024233","2020-09-15T10:00:00","FM-12","4",,,,,,,,,,,,,,,,,,,,,,,,,,,,,,,,,,,,,,,,"62","65",,,,,"90",,"26","29.64","0.99","63","000",,"0",,,,,,,,,,,,,,,,,,,,,,,,,,,,,,,,,,,,,"SYN06872793 31516 60000 10183 20167 30036 710// 91753 333 96004 555 91518=","FM-12","4",,,,,,,,,,,,,,,,,,,,,,,,,,,"2007-05-17"
"72793024233","2020-09-15T10:53:00","FM-15","7",,,,,,,,,,,,,,,,,,,,,,,,,,,,,,,,,,,,,,,"30.11","60","67",,"HZ:7 FU:3 |HZ FU |FU HZ",,,"79",,"BKN:07 25 OVC:08 55","29.64","1.00","63","260",,"3",,,,,,,,,,,,,,,,,,,,,,,,,,,,,,,,,,,,,"MET11709/15/20 10:53:02 METAR KSEA 151853Z 26003KT 1SM R16L/P6000FT HZ FU BKN025 OVC055 19/16 A3011 RMK AO2 SLPNO T01940156","FM-15","7",,,,,,,,,,,,,,,,,,,,,,,,,,,"2007-05-17"
"72793024233","2020-09-15T11:53:00","FM-15","7",,,,,,,,,,,,,,,,,,,,,,,,,,,,,,,,,,,,,,,"30.10","62","72",,"HZ:7 FU:3 |HZ FU |FU HZ",,,"71",,"SCT:04 25 OVC:08 90","29.63","1.00","66","030",,"5",,,,,,,,,,,,,,,,,,,,,,,,,,,,,,,,,,,,,"MET11709/15/20 11:53:02 METAR KSEA 151953Z 03004KT 1SM R16L/P6000FT HZ FU SCT025 OVC090 22/17 A3010 RMK AO2 SLPNO T02220167","FM-15","7",,,,,,,,,,,,,,,,,,,,,,,,,,,"2007-05-17"
"72793024233","2020-09-15T12:41:00","FM-16","7",,,,,,,,,,,,,,,,,,,,,,,,,,,,,,,,,,,,,,,"30.09","62","72",,"HZ:7 FU:3 |HZ FU |FU HZ",,,"71",,"SCT:04 25 BKN:07 90","29.62","1.00","66","030",,"5",,,,,,,,,,,,,,,,,,,,,,,,,,,,,,,,,,,,,"MET09809/15/20 12:41:02 SPECI KSEA 152041Z 03004KT 1SM HZ FU SCT025 BKN090 22/17 A3009 RMK AO2 T02220167","FM-16","7",,,,,,,,,,,,,,,,,,,,,,,,,,,"2007-05-17"
"72793024233","2020-09-15T12:53:00","FM-15","7",,,,,,,,,,,,,,,,,,,,,,,,,,,,,,,,,,,,,,,"30.09","61","75",,"HZ:7 FU:3 |HZ FU |FU HZ",,,"62","30.10","SCT:04 25 BKN:07 85","29.62","1.50","66","300",,"5",,,,,,,,,,,,,,,,,,,,,,,,,,,,,,,,,,,,,"MET10909/15/20 12:53:02 METAR KSEA 152053Z 30004KT 1 1/2SM HZ FU SCT025 BKN085 24/16 A3009 RMK AO2 SLP193 T02390161","FM-15","7",,,,,,,,,,,,,,,,,,,,,,,,,,,"2007-05-17"
"72793024233","2020-09-15T13:53:00","FM-15","7",,,,,,,,,,,,,,,,,,,,,,,,,,,,,,,,,,,,,,,"30.07","61","73",,"HZ:7 FU:3 |HZ FU |FU HZ",,,"66",,"SCT:04 25 BKN:07 85","29.60","1.50","66","280",,"7",,,,,,,,,,,,,,,,,,,,,,,,,,,,,,,,,,,,,"MET10809/15/20 13:53:02 METAR KSEA 152153Z 28006KT 1 1/2SM HZ FU SCT025 BKN085 23/16 A3007 RMK AO2 SLPNO T02280161","FM-15","7",,,,,,,,,,,,,,,,,,,,,,,,,,,"2007-05-17"
"72793024233","2020-09-15T14:53:00","FM-15","7",,,,,,,,,,,,,,,,,,,,,,,,,,,,,,,,,,,,,,,"30.04","60","75",,"HZ:7 FU:3 |HZ FU |FU HZ",,,"60",,"SCT:04 25 BKN:07 100","29.57","1.50","66","350",,"8",,,,,,,,,,,,,,,,,,,,,,,,,,,,,,,,,,,,,"MET10809/15/20 14:53:02 METAR KSEA 152253Z 35007KT 1 1/2SM HZ FU SCT025 BKN100 24/16 A3004 RMK AO2 SLPNO T02390156","FM-15","7",,,,,,,,,,,,,,,,,,,,,,,,,,,"2007-05-17"
"72793024233","2020-09-15T15:53:00","FM-15","7",,,,,,,,,,,,,,,,,,,,,,,,,,,,,,,,,,,,,,,"30.04","60","72",,"HZ:7 FU:3 |HZ FU |FU HZ",,,"66",,"SCT:04 25 OVC:08 100","29.57","1.50","65","270",,"6",,,,,,,,,,,,,,,,,,,,,,,,,,,,,,,,,,,,,"MET10809/15/20 15:53:02 METAR KSEA 152353Z 27005KT 1 1/2SM HZ FU SCT025 OVC100 22/16 A3004 RMK AO2 SLPNO T02220156","FM-15","7",,,,,,,,,,,,,,,,,,,,,,,,,,,"2007-05-17"
"72793024233","2020-09-15T16:00:00","FM-12","4",,,,,,,,,,,,,,,,,,,,,,,,,,,,,,,,,,,,,,,,"60","72",,"||HZ",,,"66",,"26","29.56","1.49","65","270",,"6",,,,,,,,,,,,,,,,,,,,,,,,,,,,,,,,,,,,,"SYN06872793 31524 82705 10222 20156 30009 705// 92353 333 96004 555 91600=","FM-12","4",,,,,,,,,,,,,,,,,,,,,,,,,,,"2007-05-17"
"72793024233","2020-09-15T16:53:00","FM-15","7",,,,,,,,,,,,,,,,,,,,,,,,,,,,,,,,,,,,,,,"30.05","58","71",,"HZ:7 FU:3 |HZ FU |FU HZ",,,"63","30.06","SCT:04 25 OVC:08 120","29.58","1.50","63","300",,"3",,,,,,,,,,,,,,,,,,,,,,,,,,,,,,,,,,,,,"MET10909/15/20 16:53:01 METAR KSEA 160053Z 30003KT 1 1/2SM HZ FU SCT025 OVC120 22/14 A3005 RMK AO2 SLP180 T02170144","FM-15","7",,,,,,,,,,,,,,,,,,,,,,,,,,,"2007-05-17"
"72793024233","2020-09-15T17:53:00","FM-15","7",,,,,,,,,,,,,,,,,,,,,,,,,,,,,,,,,,,,,,,"30.06","59","69",,"HZ:7 FU:3 |HZ FU |FU HZ",,,"70","30.07","SCT:04 20 OVC:08 100","29.59","1.00","63","270",,"3",,,,,,,,,,,,,,,,,,,,,,,,,,,,,,,,,,,,,"MET10509/15/20 17:53:01 METAR KSEA 160153Z 27003KT 1SM HZ FU SCT020 OVC100 21/15 A3006 RMK AO2 SLP182 T02060150","FM-15","7",,,,,,,,,,,,,,,,,,,,,,,,,,,"2007-05-17"
"72793024233","2020-09-15T18:15:00","FM-16","7",,,,,,,,,,,,,,,,,,,,,,,,,,,,,,,,,,,,,,,"30.07","59","69",,"HZ:7 FU:3 |HZ FU |FU HZ",,,"70",,"BKN:07 19 OVC:08 100","29.60","1.00","63","160",,"5",,,,,,,,,,,,,,,,,,,,,,,,,,,,,,,,,,,,,"MET09809/15/20 18:15:01 SPECI KSEA 160215Z 16004KT 1SM HZ FU BKN019 OVC100 21/16 A3007 RMK AO2 T02060150","FM-16","7",,,,,,,,,,,,,,,,,,,,,,,,,,,"2007-05-17"
"72793024233","2020-09-15T18:53:00","FM-15","7",,,,,,,,,,,,,,,,,,,,,,,,,,,,,,,,,,,,,,,"30.07","60","68",,"HZ:7 FU:3 |HZ FU |FU HZ",,,"76","30.08","BKN:07 25 OVC:08 70","29.60","1.00","63","190",,"5",,,,,,,,,,,,,,,,,,,,,,,,,,,,,,,,,,,,,"MET10509/15/20 18:53:01 METAR KSEA 160253Z 19004KT 1SM HZ FU BKN025 OVC070 20/16 A3007 RMK AO2 SLP187 T02000156","FM-15","7",,,,,,,,,,,,,,,,,,,,,,,,,,,"2007-05-17"
"72793024233","2020-09-15T19:43:00","FM-16","7",,,,,,,,,,,,,,,,,,,,,,,,,,,,,,,,,,,,,,,"30.09","61","68",,"HZ:7 FU:3 |HZ FU |FU HZ",,,"78",,"SCT:04 27 BKN:07 75 OVC:08 110","29.62","1.00","64","340",,"5",,,,,,,,,,,,,,,,,,,,,,,,,,,,,,,,,,,,,"MET11809/15/20 19:43:02 SPECI KSEA 160343Z 34004KT 1SM HZ FU SCT027 BKN075 OVC110 20/16 A3009 RMK AO2 TWR VIS 1 1/2 T2000156","FM-16","7",,,,,,,,,,,,,,,,,,,,,,,,,,,"2007-05-17"
"72793024233","2020-09-15T19:50:00","FM-16","7",,,,,,,,,,,,,,,,,,,,,,,,,,,,,,,,,,,,,,,"30.09","60","68",,"|FU RA |",,,"76",,,"29.62",,"63","000",,"0",,,,,,,,,,,,,,,,,,,,,,,,,,,,,,,,,,,,,"MET07009/15/20 19:50:02 SPECI KSEA 160350Z 00000KT 1 1/2 A3009 RMK AO2 RAB44","FM-16","7",,,,,,,,,,,,,,,,,,,,,,,,,,,"2007-05-17"
"72793024233","2020-09-15T19:53:00","FM-15","7",,,,,,,,,,,,,,,,,,,,,,,,,,,,,,,,,,,,,,,"30.09","60","68",,"|FU RA |",,,"76","30.10",,"29.62",,"63","020",,"3",,,,,,,,,,,,,,,,,,,,,,,,,,,,,,,,,,,,,"MET08709/15/20 19:53:02 METAR KSEA 160353Z 02003KT 1 1/2 A3009 RMK AO2 RAB44 SLP194 T02000156","FM-15","7",,,,,,,,,,,,,,,,,,,,,,,,,,,"2007-05-17"
"72793024233","2020-09-15T20:17:00","FM-16","7",,,,,,,,,,,,,,,,,,,,,,,,,,,,,,,,,,,,,,,"30.10","61","68",,,,,"78",,,"29.63",,"64","000",,"0",,,,,,,,,,,,,,,,,,,,,,,,,,,,,,,,,,,,,"MET08009/15/20 20:17:02 SPECI KSEA 160417Z 00000KT 1 1/2 A3010 RMK AO2 RAE09 T02000161","FM-16","7",,,,,,,,,,,,,,,,,,,,,,,,,,,"2007-05-17"
"72793024233","2020-09-15T20:53:00","FM-15","7",,,,,,,,,,,,,,,,,,,,,,,,,,,,,,,,,,,,,,,"30.09","61","69","T",,,,"76","30.10",,"29.62",,"64","060",,"6",,,,,,,,,,,,,,,,,,,,,,,,,,,,,,,,,,,,,"MET09309/15/20 20:53:02 METAR KSEA 160453Z 06005KT 1 1/2 A3009 RMK AO2 RAE09 SLP194 P0000 T02060161","FM-15","7",,,,,,,,,,,,,,,,,,,,,,,,,,,"2007-05-17"
"72793024233","2020-09-15T21:53:00","FM-15","7",,,,,,,,,,,,,,,,,,,,,,,,,,,,,,,,,,,,,,,"30.07","61","68",,,"+0.02","8","78","30.09",,"29.60",,"64","030",,"3",,,,,,,,,,,,,,,,,,,,,,,,,,,,,,,,,,,,,"MET10409/15/20 21:53:02 METAR KSEA 160553Z 03003KT 1 1/2 A3007 RMK AO2 SLP188 6000 T02000161 10222 20194 58006","FM-15","7",,,,,,,,,,,,,,,,,,,,,,,,,,,"2007-05-17"
"72793024233","2020-09-15T22:00:00","FM-12","4",,,,,,,,,,,,,,,,,,,,,,,,,,,,,,,,,,,,,,,,"61","68",,,"+0.02","8","78","30.09",,"29.59",,"64","030",,"3",,,,,,,,,,,,,,,,,,,,,,,,,,,,,,,,,,,,,"SYN06472793 32/// /0303 10200 20161 30019 40188 58006 90553 555 91606=","FM-12","4",,,,,,,,,,,,,,,,,,,,,,,,,,,"2007-05-17"
"72793024233","2020-09-15T22:53:00","FM-15","7",,,,,,,,,,,,,,,,,,,,,,,,,,,,,,,,,,,,,,,"30.07","61","65",,,,,"87","30.08",,"29.60",,"63","290",,"3",,,,,,,,,,,,,,,,,,,,,,,,,,,,,,,,,,,,,"MET08109/15/20 22:53:02 METAR KSEA 160653Z 29003KT 1 1/2 A3007 RMK AO2 SLP186 T01830161","FM-15","7",,,,,,,,,,,,,,,,,,,,,,,,,,,"2007-05-17"
"72793024233","2020-09-15T23:53:00","FM-15","7",,,,,,,,,,,,,,,,,,,,,,,,,,,,,,,,,,,,,,,"30.05","59","64",,,,,"84",,,"29.58",,"61","350",,"7",,,,,,,,,,,,,,,,,,,,,,,,,,,,,,,,,,,,,"MET09009/15/20 23:53:02 METAR KSEA 160753Z 35006KT 1 1/2 A3005 RMK AO2 SLPNO T01780150 402390161","FM-15","7",,,,,,,,,,,,,,,,,,,,,,,,,,,"2007-05-17"
"72793024233","2020-09-15T23:59:00","SOD  ","6",,,,,,,,,,,,,,,,,"60","68","79","30.07","29.61","63","3.9","3","6.3","0","75","61",,"2237","0.01","0","0.0","350","8","BR HZ RA",,,,,,,,,,,,,,,,,,,,,,,,,,,,,,,,,,,,,,,,,,,,,,,,,,,,,,,"SOD38324 HR PRECIPITATION (IN): 0.01 SNOW DEPTH (IN):0     24 HR SNOWFALL (IN):0.0  WEATHER(CODE):18  24 HR MAX TEMP (F): 7524 HR MIN TEMP (F): 61AVERAGE STATION PRESSURE(D):29.612  FASTEST 2MIN SPEED (MPH):  8FASTEST 2MIN DIR (DEG):350 FASTEST 2MIN TIME (LST):     AVERAGE WIND SPEED (MPH): 3.9 24 HR AVG TEMP (F): 68DEPART FROM NORMAL:  6  HEATING DEGREE DAYS:  0 COOLING DEGREE DAYS:  3","SOD  ","6",,,,,,,,,,,,,,,,,,,,,,,,,"0548","1820","2007-05-17"
"72793024233","2020-09-16T00:25:00","FM-16","7",,,,,,,,,,,,,,,,,,,,,,,,,,,,,,,,,,,,,,,"30.05","59","63",,"|FG |",,,"87",,,"29.58",,"61","360",,"3",,,,,,,,,,,,,,,,,,,,,,,,,,,,,,,,,,,,,"MET07409/16/20 00:25:02 SPECI KSEA 160825Z 36003KT 1 1/2 A3005 RMK AO2 T01720150","FM-16","7",,,,,,,,,,,,,,,,,,,,,,,,,,,"2007-05-17"
"72793024233","2020-09-16T00:53:00","FM-15","7",,,,,,,,,,,,,,,,,,,,,,,,,,,,,,,,,,,,,,,"30.06","59","64",,,"+0.01","5","84","30.07",,"29.59",,"61","000",,"0",,,,,,,,,,,,,,,,,,,,,,,,,,,,,,,,,,,,,"MET08709/16/20 00:53:02 METAR KSEA 160853Z 00000KT 1 1/2 A3006 RMK AO2 SLP184 T01780150 55004","FM-15","7",,,,,,,,,,,,,,,,,,,,,,,,,,,"2007-05-17"
"72793024233","2020-09-16T01:53:00","FM-15","7",,,,,,,,,,,,,,,,,,,,,,,,,,,,,,,,,,,,,,,"30.05","59","63",,"|FG |",,,"87",,,"29.58",,"61","030",,"5",,,,,,,,,,,,,,,,,,,,,,,,,,,,,,,,,,,,,"MET08009/16/20 01:53:02 METAR KSEA 160953Z 03004KT 1 1/2 A3005 RMK AO2 SLPNO T01720150","FM-15","7",,,,,,,,,,,,,,,,,,,,,,,,,,,"2007-05-17"
"72793024233","2020-09-16T02:53:00","FM-15","7",,,,,,,,,,,,,,,,,,,,,,,,,,,,,,,,,,,,,,,"30.05","58","60",,"|FG |",,,"93",,,"29.58",,"59","320",,"5",,,,,,,,,,,,,,,,,,,,,,,,,,,,,,,,,,,,,"MET08009/16/20 02:53:02 METAR KSEA 161053Z 32004KT 1 1/2 A3005 RMK AO2 SLPNO T01560144","FM-15","7",,,,,,,,,,,,,,,,,,,,,,,,,,,"2007-05-17"
"72793024233","2020-09-16T03:53:00","FM-15","7",,,,,,,,,,,,,,,,,,,,,,,,,,,,,,,,,,,,,,,"30.04","58","61",,"|FG |","+0.03","8","90",,"SCT:04 25 BKN:07 60","29.57",,"59","360",,"3",,,,,,,,,,,,,,,,,,,,,,,,,,,,,,,,,,,,,"MET12409/16/20 03:53:02 METAR KSEA 161153Z 36003KT 2 SM BR FU SCT025 BKN060 16/14 A3004 RMK AO2 SLPNO T01610144 102000 20156 58009","FM-15","7",,,,,,,,,,,,,,,,,,,,,,,,,,,"2007-05-17"
"72793024233","2020-09-16T04:00:00","FM-12","4",,,,,,,,,,,,,,,,,,,,,,,,,,,,,,,,,,,,,,,,"58","61",,,"+0.03","8","90",,"26","29.56",,"59","360",,"3",,,,,,,,,,,,,,,,,,,,,,,,,,,,,,,,,,,,,"SYN08672793 315// 63603 10161 20144 30009 58009 710// 91153 333 10239 20156 96004 555 91612=","FM-12","4",,,,,,,,,,,,,,,,,,,,,,,,,,,"2007-05-17"
"72793024233","2020-09-16T04:53:00","FM-15","7",,,,,,,,,,,,,,,,,,,,,,,,,,,,,,,,,,,,,,,"30.02","59","62",,"|FG |",,,"90","30.03","FEW:02 25 OVC:08 60","29.55",,"60","030",,"11",,,,,,,,,,,,,,,,,,,,,,,,,,,,,,,,,,,,,"MET10609/16/20 04:53:02 METAR KSEA 161253Z 03010KT 2 SM BR FU FEW025 OVC060 17/15 A3002 RMK AO2 SLP171 T01670150","FM-15","7",,,,,,,,,,,,,,,,,,,,,,,,,,,"2007-05-17"
"72793024233","2020-09-16T05:53:00","FM-15","7",,,,,,,,,,,,,,,,,,,,,,,,,,,,,,,,,,,,,,,"30.04","58","60",,"BR:1 FU:3 |HZ FU |FU",,,"93","30.05","FEW:02 25 OVC:08 48","29.57","1.25","59","360",,"8",,,,,,,,,,,,,,,,,,,,,,,,,,,,,,,,,,,,,"MET10909/16/20 05:53:02 METAR KSEA 161353Z 36007KT 1 1/4SM BR FU FEW025 OVC048 16/14 A3004 RMK AO2 SLP176 T01560144","FM-15","7",,,,,,,,,,,,,,,,,,,,,,,,,,,"2007-05-17"
"72793024233","2020-09-16T06:53:00","FM-15","7",,,,,,,,,,,,,,,,,,,,,,,,,,,,,,,,,,,,,,,"30.04","58","60",,"BR:1 FU:3 |HZ FU |FU","-0.01","3","93","30.05","FEW:02 25 OVC:08 36","29.57","1.00","59","350",,"7",,,,,,,,,,,,,,,,,,,,,,,,,,,,,,,,,,,,,"MET12309/16/20 06:53:02 METAR KSEA 161453Z 35006KT 1SM R16L/6000FT BR FU FEW025 OVC036 16/14 A3004 RMK AO2 SLP177 T01560144 53002","FM-15","7",,,,,,,,,,,,,,,,,,,,,,,,,,,"2007-05-17"
"72793024233","2020-09-16T07:53:00","FM-15","7",,,,,,,,,,,,,,,,,,,,,,,,,,,,,,,,,,,,,,,"30.04","58","62",,"BR:1 FU:3 |HZ FU |FU",,,"86","30.05","OVC:08 34","29.57","1.00","60","360",,"6",,,,,,,,,,,,,,,,,,,,,,,,,,,,,,,,,,,,,"MET11109/16/20 07:53:02 METAR KSEA 161553Z 36005KT 1SM R16L/P6000FT BR FU OVC034 17/14 A3004 RMK AO2 SLP176 T01670144","FM-15","7",,,,,,,,,,,,,,,,,,,,,,,,,,,"2007-05-17"
"72793024233","2020-09-16T08:53:00","FM-15","7",,,,,,,,,,,,,,,,,,,,,,,,,,,,,,,,,,,,,,,"30.03","59","64",,"BR:1 FU:3 |HZ FU |FU",,,"84","30.05","OVC:08 32","29.56","1.00","61","360",,"5",,,,,,,,,,,,,,,,,,,,,,,,,,,,,,,,,,,,,"MET11109/16/20 08:53:02 METAR KSEA 161653Z 36004KT 1SM R16L/P6000FT BR FU OVC032 18/15 A3003 RMK AO2 SLP175 T01780150","FM-15","7",,,,,,,,,,,,,,,,,,,,,,,,,,,"2007-05-17"
"72793024233","2020-09-16T09:43:00","FM-16","7",,,,,,,,,,,,,,,,,,,,,,,,,,,,,,,,,,,,,,,"30.03","59","66",,"HZ:7 FU:3 |HZ FU |FU HZ",,,"78",,"OVC:08 29","29.56","1.00","62","360",,"5",,,,,,,,,,,,,,,,,,,,,,,,,,,,,,,,,,,,,"MET10409/16/20 09:43:02 SPECI KSEA 161743Z 36004KT 1SM R16L/P6000FT HZ FU OVC029 19/15 A3003 RMK AO2 T01890150","FM-16","7",,,,,,,,,,,,,,,,,,,,,,,,,,,"2007-05-17"
"72793024233","2020-09-16T09:53:00","FM-15","7",,,,,,,,,,,,,,,,,,,,,,,,,,,,,,,,,,,,,,,"30.03","59","66",,"HZ:7 FU:3 |HZ FU |FU HZ","+0.01","6","78","30.05","OVC:08 30","29.56","1.25","62","360",,"5",,,,,,,,,,,,,,,,,,,,,,,,,,,,,,,,,,,,,"MET12009/16/20 09:53:02 METAR KSEA 161753Z 36004KT 1 1/4SM HZ FU OVC030 19/15 A3003 RMK AO2 SLP175 T01890150 10189 20150 56003","FM-15","7",,,,,,,,,,,,,,,,,,,,,,,,,,,"2007-05-17"
"72793024233","2020-09-16T10:00:00","FM-12","4",,,,,,,,,,,,,,,,,,,,,,,,,,,,,,,,,,,,,,,,"59","66",,"||HZ","+0.01","6","78","30.05","26","29.55","1.24","62","360",,"5",,,,,,,,,,,,,,,,,,,,,,,,,,,,,,,,,,,,,"SYN08072793 31520 83604 10189 20150 30006 40175 56003 705// 91753 333 96004 555 91618=","FM-12","4",,,,,,,,,,,,,,,,,,,,,,,,,,,"2007-05-17"
"72793024233","2020-09-16T10:53:00","FM-15","7",,,,,,,,,,,,,,,,,,,,,,,,,,,,,,,,,,,,,,,"30.02","59","67",,"HZ:7 FU:3 |HZ FU |FU HZ",,,"76","30.03","SCT:04 11 OVC:08 30","29.55","1.25","62","280",,"5",,,,,,,,,,,,,,,,,,,,,,,,,,,,,,,,,,,,,"MET12909/16/20 10:53:02 METAR KSEA 161853Z 28004KT 1 1/4SM HZ FU SCT011 OVC030 19/15 A3002 RMK AO2 SLP171 FU SCT011 FU OVC030 T01940150","FM-15","7",,,,,,,,,,,,,,,,,,,,,,,,,,,"2007-05-17"
"72793024233","2020-09-16T11:53:00","FM-15","7",,,,,,,,,,,,,,,,,,,,,,,,,,,,,,,,,,,,,,,"30.01","59","67",,"HZ:7 FU:3 |HZ FU |FU HZ",,,"76","30.02","OVC:08 30","29.54","1.25","62","300",,"3",,,,,,,,,,,,,,,,,,,,,,,,,,,,,,,,,,,,,"MET11209/16/20 11:53:02 METAR KSEA 161953Z 30003KT 1 1/4SM HZ FU OVC030 19/15 A3001 RMK AO2 SLP167 FU OVC030 T01940150","FM-15","7",,,,,,,,,,,,,,,,,,,,,,,,,,,"2007-05-17"
"72793024233","2020-09-16T12:53:00","FM-15","7",,,,,,,,,,,,,,,,,,,,,,,,,,,,,,,,,,,,,,,"30.01","60","68",,"HZ:7 FU:3 |HZ FU |FU HZ","+0.03","6","76","30.02","OVC:08 30","29.54","1.50","63","270",,"5",,,,,,,,,,,,,,,,,,,,,,,,,,,,,,,,,,,,,"MET11809/16/20 12:53:02 METAR KSEA 162053Z 27004KT 1 1/2SM HZ FU OVC030 20/16 A3001 RMK AO2 SLP166 FU OVC030 T02000156 56009","FM-15","7",,,,,,,,,,,,,,,,,,,,,,,,,,,"2007-05-17"
"72793024233","2020-09-16T13:53:00","FM-15","7",,,,,,,,,,,,,,,,,,,,,,,,,,,,,,,,,,,,,,,"30.01","60","69",,"HZ:7 FU:3 |HZ FU |FU HZ",,,"73","30.02","OVC:08 33","29.54","1.50","64","280",,"6",,,,,,,,,,,,,,,,,,,,,,,,,,,,,,,,,,,,,"MET11209/16/20 13:53:02 METAR KSEA 162153Z 28005KT 1 1/2SM HZ FU OVC033 21/16 A3001 RMK AO2 SLP166 FU OVC033 T02060156","FM-15","7",,,,,,,,,,,,,,,,,,,,,,,,,,,"2007-05-17"
"72793024233","2020-09-16T14:53:00","FM-15","7",,,,,,,,,,,,,,,,,,,,,,,,,,,,,,,,,,,,,,,"30.01","60","70",,"HZ:7 FU:3 |HZ FU |FU HZ",,,"71","30.03","OVC:08 37","29.54","1.50","64","270",,"3",,,,,,,,,,,,,,,,,,,,,,,,,,,,,,,,,,,,,"MET11209/16/20 14:53:02 METAR KSEA 162253Z 27003KT 1 1/2SM HZ FU OVC037 21/16 A3001 RMK AO2 SLP168 FU OVC037 T02110156","FM-15","7",,,,,,,,,,,,,,,,,,,,,,,,,,,"2007-05-17"
"72793024233","2020-09-16T15:53:00","FM-15","7",,,,,,,,,,,,,,,,,,,,,,,,,,,,,,,,,,,,,,,"30.01","60","70",,"HZ:7 FU:3 |HZ FU |FU HZ","-0.01","0","71","30.02","OVC:08 35","29.54","1.50","64","280",,"3",,,,,,,,,,,,,,,,,,,,,,,,,,,,,,,,,,,,,"MET13009/16/20 15:53:02 METAR KSEA 162353Z 28003KT 1 1/2SM HZ FU OVC035 21/16 A3001 RMK AO2 SLP167 FU OVC035 T02110156 10217 20189 50002","FM-15","7",,,,,,,,,,,,,,,,,,,,,,,,,,,"2007-05-17"
"72793024233","2020-09-16T16:00:00","FM-12","4",,,,,,,,,,,,,,,,,,,,,,,,,,,,,,,,,,,,,,,,"61","70",,"||HZ","0.01","9","73","30.02","41","29.53","1.49","64","280",,"3",,,,,,,,,,,,,,,,,,,,,,,,,,,,,,,,,,,,,"SYN09272793 31624 82803 10210 20160 39999 40167 50002 705// 92353 333 10217 20156 96004 555 91700=","FM-12","4",,,,,,,,,,,,,,,,,,,,,,,,,,,"2007-05-17"
"72793024233","2020-09-16T16:53:00","FM-15","7",,,,,,,,,,,,,,,,,,,,,,,,,,,,,,,,,,,,,,,"30.01","60","70",,"HZ:7 FU:3 |HZ FU |FU HZ",,,"71","30.02","OVC:08 35","29.54","1.50","64","000",,"0",,,,,,,,,,,,,,,,,,,,,,,,,,,,,,,,,,,,,"MET11209/16/20 16:53:01 METAR KSEA 170053Z 00000KT 1 1/2SM HZ FU OVC035 21/16 A3001 RMK AO2 SLP167 FU OVC035 T02110156","FM-15","7",,,,,,,,,,,,,,,,,,,,,,,,,,,"2007-05-17"
"72793024233","2020-09-16T17:53:00","FM-15","7",,,,,,,,,,,,,,,,,,,,,,,,,,,,,,,,,,,,,,,"30.02","60","68",,"HZ:7 FU:3 |HZ FU |FU HZ",,,"76","30.02","OVC:08 38","29.55","1.50","63","000",,"0",,,,,,,,,,,,,,,,,,,,,,,,,,,,,,,,,,,,,"MET11209/16/20 17:53:01 METAR KSEA 170153Z 00000KT 1 1/2SM HZ FU OVC038 20/16 A3002 RMK AO2 SLP167 FU OVC038 T02000156","FM-15","7",,,,,,,,,,,,,,,,,,,,,,,,,,,"2007-05-17"
"72793024233","2020-09-16T18:53:00","FM-15","7",,,,,,,,,,,,,,,,,,,,,,,,,,,,,,,,,,,,,,,"30.03","60","67",,"HZ:7 FU:3 |HZ FU |FU HZ",,,"79","30.04","OVC:08 38","29.56","1.50","63","180",,"6",,,,,,,,,,,,,,,,,,,,,,,,,,,,,,,,,,,,,"MET11209/16/20 18:53:01 METAR KSEA 170253Z 18005KT 1 1/2SM HZ FU OVC038 19/16 A3003 RMK AO2 SLP172 FU OVC038 T01940156","FM-15","7",,,,,,,,,,,,,,,,,,,,,,,,,,,"2007-05-17"
"72793024233","2020-09-16T19:53:00","FM-15","7",,,,,,,,,,,,,,,,,,,,,,,,,,,,,,,,,,,,,,,"30.04","60","66",,"HZ:7 FU:3 |HZ FU |FU HZ",,,"81","30.05","OVC:08 43","29.57","1.50","62","150",,"7",,,,,,,,,,,,,,,,,,,,,,,,,,,,,,,,,,,,,"MET11209/16/20 19:53:02 METAR KSEA 170353Z 15006KT 1 1/2SM HZ FU OVC043 19/16 A3004 RMK AO2 SLP176 FU OVC043 T01890156","FM-15","7",,,,,,,,,,,,,,,,,,,,,,,,,,,"2007-05-17"
"72793024233","2020-09-16T20:20:00","FM-16","7",,,,,,,,,,,,,,,,,,,,,,,,,,,,,,,,,,,,,,,"30.04","60","67",,"HZ:7 FU:3 |HZ FU |FU HZ",,,"79",,"OVC:08 50","29.57","2.50","63","160",,"5",,,,,,,,,,,,,,,,,,,,,,,,,,,,,,,,,,,,,"MET09509/16/20 20:20:02 SPECI KSEA 170420Z 16004KT 2 1/2SM HZ FU OVC050 19/16 A3004 RMK AO2 T01940156","FM-16","7",,,,,,,,,,,,,,,,,,,,,,,,,,,"2007-05-17"
"72793024233","2020-09-16T20:53:00","FM-15","7",,,,,,,,,,,,,,,,,,,,,,,,,,,,,,,,,,,,,,,"30.05","60","67",,"HZ:7 FU:3 |HZ FU |FU HZ",,,"79","30.06","OVC:08 50","29.58","2.50","63","160",,"5",,,,,,,,,,,,,,,,,,,,,,,,,,,,,,,,,,,,,"MET10209/16/20 20:53:02 METAR KSEA 170453Z 16004KT 2 1/2SM HZ FU OVC050 19/16 A3005 RMK AO2 SLP180 T01940156","FM-15","7",,,,,,,,,,,,,,,,,,,,,,,,,,,"2007-05-17"
"72793024233","2020-09-16T21:28:00","FM-16","7",,,,,,,,,,,,,,,,,,,,,,,,,,,,,,,,,,,,,,,"30.05","60","67",,"HZ:7 FU:3 |HZ FU |FU HZ",,,"79",,"OVC:08 50","29.58","6.00","63","160",,"6",,,,,,,,,,,,,,,,,,,,,,,,,,,,,,,,,,,,,"MET09109/16/20 21:28:02 SPECI KSEA 170528Z 16005KT 6SM HZ FU OVC050 19/16 A3005 RMK AO2 T01940156","FM-16","7",,,,,,,,,,,,,,,,,,,,,,,,,,,"2007-05-17"
"72793024233","2020-09-16T21:53:00","FM-16","7",,,,,,,,,,,,,,,,,,,,,,,,,,,,,,,,,,,,,,,"30.05","60","66",,"HZ:7 FU:3 |HZ FU |FU HZ","-0.02","0","81","30.06","OVC:08 50","29.58","6.00","62","160",,"6",,,,,,,,,,,,,,,,,,,,,,,,,,,,,,,,,,,,,"MET11609/16/20 21:53:02 SPECI KSEA 170553Z 16005KT 6SM HZ FU OVC050 19/16 A3005 RMK AO2 SLP180 T01890156 10211 20183 50008","FM-16","7",,,,,,,,,,,,,,,,,,,,,,,,,,,"2007-05-17"
"72793024233","2020-09-16T22:53:00","FM-15","7",,,,,,,,,,,,,,,,,,,,,,,,,,,,,,,,,,,,,,,"30.04","60","65",,"HZ:7 FU:3 |HZ FU |FU HZ",,,"84","30.06","OVC:08 50","29.57","6.00","62","150",,"6",,,,,,,,,,,,,,,,,,,,,,,,,,,,,,,,,,,,,"MET09809/16/20 22:53:02 METAR KSEA 170653Z 15005KT 6SM HZ FU OVC050 18/16 A3004 RMK AO2 SLP178 T01830156","FM-15","7",,,,,,,,,,,,,,,,,,,,,,,,,,,"2007-05-17"
"72793024233","2020-09-16T23:53:00","FM-15","7",,,,,,,,,,,,,,,,,,,,,,,,,,,,,,,,,,,,,,,"30.05","60","65",,"HZ:7 FU:3 |HZ FU |FU HZ",,,"84","30.06","OVC:08 50","29.58","6.00","62","130",,"6",,,,,,,,,,,,,,,,,,,,,,,,,,,,,,,,,,,,,"MET10809/16/20 23:53:02 METAR KSEA 170753Z 13005KT 6SM HZ FU OVC050 18/16 A3005 RMK AO2 SLP179 T01830156 402170150","FM-15","7",,,,,,,,,,,,,,,,,,,,,,,,,,,"2007-05-17"
"72793024233","2020-09-16T23:59:00","SOD  ","6",,,,,,,,,,,,,,,,,"59","65","80","30.02","29.57","62","4.8","0","3.6","0","71","59",,"2237","0.00","0","0.0","030","12","BR HZ FG",,,,,,,,,,,,,,,,,,,,,,,,,,,,,,,,,,,,,,,,,,,,,,,,,,,,,,,"SOD41024 HR PRECIPITATION (IN): 0.00 SNOW DEPTH (IN):0     24 HR SNOWFALL (IN):0.0  WEATHER(CODE):18  24 HR MAX TEMP (F): 7124 HR MIN TEMP (F): 59AVERAGE STATION PRESSURE(D):29.567  FASTEST 2MIN SPEED (MPH): 12FASTEST 2MIN DIR (DEG): 30 FASTEST 2MIN TIME (LST):     AVERAGE WIND SPEED (MPH): 4.8 24 HR AVG TEMP (F): 65DEPART FROM NORMAL:  4  SKY COVER SR-SS (TENTHS): 1HEATING DEGREE DAYS:  0 COOLING DEGREE DAYS:  0","SOD  ","6",,,,,,,,,,,,,,,,,,,,,,,,,"0549","1817","2007-05-17"
"72793024233","2020-09-17T00:53:00","FM-15","7",,,,,,,,,,,,,,,,,,,,,,,,,,,,,,,,,,,,,,,"30.05","60","64",,"BR:1 FU:3 |HZ FU |FU",,,"87","30.06","SCT:04 8 OVC:08 50","29.58","6.00","62","000",,"0",,,,,,,,,,,,,,,,,,,,,,,,,,,,,,,,,,,,,"MET11509/17/20 00:53:02 METAR KSEA 170853Z 00000KT 6SM BR FU SCT008 OVC050 18/16 A3005 RMK AO2 SLP181 FU SCT008 T01780156","FM-15","7",,,,,,,,,,,,,,,,,,,,,,,,,,,"2007-05-17"
"72793024233","2020-09-17T01:38:00","FM-16","7",,,,,,,,,,,,,,,,,,,,,,,,,,,,,,,,,,,,,,,"30.05","60","65",,"HZ:7 FU:3 |HZ FU |FU HZ",,,"84",,"BKN:07 12","29.58","4.00","62","000",,"0",,,,,,,,,,,,,,,,,,,,,,,,,,,,,,,,,,,,,"MET10109/17/20 01:38:02 SPECI KSEA 170938Z 00000KT 4SM HZ FU BKN012 18/16 A3005 RMK AO2 FU BKN012 T01830156","FM-16","7",,,,,,,,,,,,,,,,,,,,,,,,,,,"2007-05-17"
"72793024233","2020-09-17T01:53:00","FM-15","7",,,,,,,,,,,,,,,,,,,,,,,,,,,,,,,,,,,,,,,"30.05","59","64",,"HZ:7 FU:3 |HZ FU |FU HZ",,,"84","30.06","BKN:07 14","29.58","4.00","61","000",,"0",,,,,,,,,,,,,,,,,,,,,,,,,,,,,,,,,,,,,"MET10809/17/20 01:53:02 METAR KSEA 170953Z 00000KT 4SM HZ FU BKN014 18/15 A3005 RMK AO2 SLP179 FU BKN014 T01780150","FM-15","7",,,,,,,,,,,,,,,,,,,,,,,,,,,"2007-05-17"
"72793024233","2020-09-17T02:38:00","FM-16","7",,,,,,,,,,,,,,,,,,,,,,,,,,,,,,,,,,,,,,,"30.04","60","64",,"BR:1 FU:3 |HZ FU |FU",,,"87",,"FEW:02 14 BKN:07 50","29.57","4.00","62","000",,"0",,,,,,,,,,,,,,,,,,,,,,,,,,,,,,,,,,,,,"MET09809/17/20 02:38:02 SPECI KSEA 171038Z 00000KT 4SM BR FU FEW014 BKN050 18/16 A3004 RMK AO2 T01780156","FM-16","7",,,,,,,,,,,,,,,,,,,,,,,,,,,"2007-05-17"
"72793024233","2020-09-17T02:53:00","FM-15","7",,,,,,,,,,,,,,,,,,,,,,,,,,,,,,,,,,,,,,,"30.04","60","64",,"BR:1 FU:3 |HZ FU |FU",,,"87","30.05","FEW:02 17 BKN:07 50","29.57","4.00","62","010",,"3",,,,,,,,,,,,,,,,,,,,,,,,,,,,,,,,,,,,,"MET10509/17/20 02:53:02 METAR KSEA 171053Z 01003KT 4SM BR FU FEW017 BKN050 18/16 A3004 RMK AO2 SLP177 T01780156","FM-15","7",,,,,,,,,,,,,,,,,,,,,,,,,,,"2007-05-17"
"72793024233","2020-09-17T03:53:00","FM-15","7",,,,,,,,,,,,,,,,,,,,,,,,,,,,,,,,,,,,,,,"30.04","59","62",,"HZ:7 FU:3 |HZ FU |FU HZ","+0.01","7","90","30.05","FEW:02 17 BKN:07 50","29.57","4.00","60","000",,"0",,,,,,,,,,,,,,,,,,,,,,,,,,,,,,,,,,,,,"MET12309/17/20 03:53:02 METAR KSEA 171153Z 00000KT 4SM HZ FU FEW017 BKN050 17/15 A3004 RMK AO2 SLP176 T01670150 10189 20167 57005","FM-15","7",,,,,,,,,,,,,,,,,,,,,,,,,,,"2007-05-17"
"72793024233","2020-09-17T04:00:00","FM-12","4",,,,,,,,,,,,,,,,,,,,,,,,,,,,,,,,,,,,,,,,"59","62",,"||HZ","+0.01","7","90","30.05","15","29.56","3.73","60","000",,"0",,,,,,,,,,,,,,,,,,,,,,,,,,,,,,,,,,,,,"SYN08672793 31456 60000 10167 20150 30009 40176 57005 705// 91153 333 10217 96004 555 91712=","FM-12","4",,,,,,,,,,,,,,,,,,,,,,,,,,,"2007-05-17"
"72793024233","2020-09-17T04:53:00","FM-15","7",,,,,,,,,,,,,,,,,,,,,,,,,,,,,,,,,,,,,,,"30.03","58","60",,"BR:1 FU:3 |FU |FU",,,"93","30.04","SCT:04 17 BKN:07 50","29.56","4.00","59","330",,"5",,,,,,,,,,,,,,,,,,,,,,,,,,,,,,,,,,,,,"MET10509/17/20 04:53:02 METAR KSEA 171253Z 33004KT 4SM BR FU SCT017 BKN050 16/14 A3003 RMK A02 SLP172 T01560144","FM-15","7",,,,,,,,,,,,,,,,,,,,,,,,,,,"2007-05-17"
"72793024233","2020-09-17T05:32:00","FM-16","7",,,,,,,,,,,,,,,,,,,,,,,,,,,,,,,,,,,,,,,"30.02","59","60",,"BR:1 FU:3 |FU |FU",,,"96",,"OVC:08 40","29.55","2.00","59","360",,"5",,,,,,,,,,,,,,,,,,,,,,,,,,,,,,,,,,,,,"MET10109/17/20 05:32:02 SPECI KSEA 171332Z 36004KT 2SM BR FU OVC040 16/15 A3002 RMK A02 FU OVC040 T01560150","FM-16","7",,,,,,,,,,,,,,,,,,,,,,,,,,,"2007-05-17"
"72793024233","2020-09-17T05:53:00","FM-15","7",,,,,,,,,,,,,,,,,,,,,,,,,,,,,,,,,,,,,,,"30.03","60","61",,"BR:1 FU:3 |FU |FU",,,"97","30.04","OVC:08 40","29.56","1.50","60","340",,"3",,,,,,,,,,,,,,,,,,,,,,,,,,,,,,,,,,,,,"MET11209/17/20 05:53:02 METAR KSEA 171353Z 34003KT 1 1/2SM BR FU OVC040 16/16 A3003 RMK A02 SLP172 FU OVC040 T01610156","FM-15","7",,,,,,,,,,,,,,,,,,,,,,,,,,,"2007-05-17"
"72793024233","2020-09-17T06:18:00","FM-16","7",,,,,,,,,,,,,,,,,,,,,,,,,,,,,,,,,,,,,,,"30.03","59","60",,"BR:1 FU:3 |FU |FU",,,"96",,"SCT:04 2 OVC:08 19","29.56","1.50","59","310",,"3",,,,,,,,,,,,,,,,,,,,,,,,,,,,,,,,,,,,,"MET12409/17/20 06:18:02 SPECI KSEA 171418Z 31003KT 1 1/2SM R16L/5000FT BR FU SCT002 OVC019 16/15 A3003 RMK A02 FU OVC019 T01560150","FM-16","7",,,,,,,,,,,,,,,,,,,,,,,,,,,"2007-05-17"
"72793024233","2020-09-17T06:53:00","FM-15","7",,,,,,,,,,,,,,,,,,,,,,,,,,,,,,,,,,,,,,,"30.03","61","62",,"BR:1 FU:3 |FU |FU","+0.01","6","96","30.04","BKN:07 3 OVC:08 19","29.56","0.75","61","350",,"6",,,,,,,,,,,,,,,,,,,,,,,,,,,,,,,,,,,,,"MET13509/17/20 06:53:02 METAR KSEA 171453Z 35005KT 3/4SM R16L/5000FT BR FU BKN003 OVC019 17/16 A3003 RMK A02 SLP172 FU OVC019 T01670161 56003","FM-15","7",,,,,,,,,,,,,,,,,,,,,,,,,,,"2007-05-17"
"72793024233","2020-09-17T07:53:00","FM-15","7",,,,,,,,,,,,,,,,,,,,,,,,,,,,,,,,,,,,,,,"30.02","61","63",,"BR:1 FU:3 |FU |FU",,,"93","30.03","BKN:07 3 OVC:08 17","29.55","1.00","62","350",,"6",,,,,,,,,,,,,,,,,,,,,,,,,,,,,,,,,,,,,"MET12809/17/20 07:53:02 METAR KSEA 171553Z 35005KT 1SM R16L/P6000FT BR FU BKN003 OVC017 17/16 A3002 RMK A02 SLP170 FU OVC017 T01720161","FM-15","7",,,,,,,,,,,,,,,,,,,,,,,,,,,"2007-05-17"
"72793024233","2020-09-17T08:53:00","FM-15","7",,,,,,,,,,,,,,,,,,,,,,,,,,,,,,,,,,,,,,,"30.01","61","66",,"HZ:7 FU:3 |FU |FU HZ",,,"84","30.02","BKN:07 4 OVC:08 20","29.54","1.25","63","030",,"8",,,,,,,,,,,,,,,,,,,,,,,,,,,,,,,,,,,,,"MET11909/17/20 08:53:02 METAR KSEA 171653Z 03007KT 1 1/4SM HZ FU BKN004 OVC020 19/16 A3001 RMK A02 SLP167 FU OVC020 T01890161","FM-15","7",,,,,,,,,,,,,,,,,,,,,,,,,,,"2007-05-17"
"72793024233","2020-09-17T09:22:00","FM-16","7",,,,,,,,,,,,,,,,,,,,,,,,,,,,,,,,,,,,,,,"30.01","60","67",,"HZ:7 FU:3 |FU |FU HZ",,,"79",,"SCT:04 8 OVC:08 20","29.54","1.75","63","030",,"7",,,,,,,,,,,,,,,,,,,,,,,,,,,,,,,,,,,,,"MET11209/17/20 09:22:02 SPECI KSEA 171722Z 03006KT 1 3/4SM HZ FU SCT008 OVC020 19/16 A3001 RMK A02 FU OVC020 T01940156","FM-16","7",,,,,,,,,,,,,,,,,,,,,,,,,,,"2007-05-17"
"72793024233","2020-09-17T09:53:00","FM-16","7",,,,,,,,,,,,,,,,,,,,,,,,,,,,,,,,,,,,,,,"30.01","61","69",,"HZ:7 FU:3 |FU |FU HZ","+0.02","8","76","30.02","SCT:04 8 OVC:08 22","29.54","1.75","64","360",,"8",,,,,,,,,,,,,,,,,,,,,,,,,,,,,,,,,,,,,"MET13709/17/20 09:53:02 SPECI KSEA 171753Z 36007KT 1 3/4SM HZ FU SCT008 OVC022 21/16 A3001 RMK A02 SLP165 FU OVC022 T02060161 10206 20156 58007","FM-16","7",,,,,,,,,,,,,,,,,,,,,,,,,,,"2007-05-17"
"72793024233","2020-09-17T10:24:00","FM-16","7",,,,,,,,,,,,,,,,,,,,,,,,,,,,,,,,,,,,,,,"29.99","61","69",,"HZ:7 FU:3 |FU |FU HZ",,,"76",,"FEW:02 7 OVC:08 11","29.52","1.75","64","VRB",,"6",,,,,,,,,,,,,,,,,,,,,,,,,,,,,,,,,,,,,"MET10209/17/20 10:24:02 SPECI KSEA 171824Z VRB05KT 1 3/4SM HZ FU FEW007 OVC011 21/16 A2999 RMK A02 T02060161","FM-16","7",,,,,,,,,,,,,,,,,,,,,,,,,,,"2007-05-17"
"72793024233","2020-09-17T10:53:00","FM-15","7",,,,,,,,,,,,,,,,,,,,,,,,,,,,,,,,,,,,,,,"29.98","61","67",,"HZ:7 FU:3 |FU |FU HZ",,,"81","30.00","FEW:02 7 OVC:08 11","29.51","1.75","63","260",,"6",,,,,,,,,,,,,,,,,,,,,,,,,,,,,,,,,,,,,"MET10909/17/20 10:53:02 METAR KSEA 171853Z 26005KT 1 3/4SM HZ FU FEW007 OVC011 19/16 A2998 RMK A02 SLP158 T01940161","FM-15","7",,,,,,,,,,,,,,,,,,,,,,,,,,,"2007-05-17"
"72793024233","2020-09-17T11:53:00","FM-15","7",,,,,,,,,,,,,,,,,,,,,,,,,,,,,,,,,,,,,,,"29.97","61","71",,"HZ:7 FU:3 |FU |FU HZ",,,"71","29.98","OVC:08 12","29.50","1.75","65","010",,"3",,,,,,,,,,,,,,,,,,,,,,,,,,,,,,,,,,,,,"MET10209/17/20 11:53:02 METAR KSEA 171953Z 01003KT 1 3/4SM HZ FU OVC012 22/16 A2997 RMK A02 SLP154 T02170161","FM-15","7",,,,,,,,,,,,,,,,,,,,,,,,,,,"2007-05-17"
"72793024233","2020-09-17T12:38:00","FM-16","7",,,,,,,,,,,,,,,,,,,,,,,,,,,,,,,,,,,,,,,"29.96","61","71",,"HZ:7 FU:3 |FU |FU HZ",,,"71",,"OVC:08 15","29.49","1.75","65","VRB",,"6",,,,,,,,,,,,,,,,,,,,,,,,,,,,,,,,,,,,,"MET09509/17/20 12:38:02 SPECI KSEA 172038Z VRB05KT 1 3/4SM HZ FU OVC015 22/16 A2996 RMK A02 T02170161","FM-16","7",,,,,,,,,,,,,,,,,,,,,,,,,,,"2007-05-17"
"72793024233","2020-09-17T12:53:00","FM-15","7",,,,,,,,,,,,,,,,,,,,,,,,,,,,,,,,,,,,,,,"29.95","61","72",,"HZ:7 FU:3 |FU |FU HZ","+0.05","7","68","29.96","BKN:07 16","29.48","1.75","65","290",,"7",,,,,,,,,,,,,,,,,,,,,,,,,,,,,,,,,,,,,"MET10809/17/20 12:53:02 METAR KSEA 172053Z 29006KT 1 3/4SM HZ FU BKN016 22/16 A2995 RMK A02 SLP147 T02220161 57017","FM-15","7",,,,,,,,,,,,,,,,,,,,,,,,,,,"2007-05-17"
"72793024233","2020-09-17T13:53:00","FM-15","7",,,,,,,,,,,,,,,,,,,,,,,,,,,,,,,,,,,,,,,"29.93","61","73",,"HZ:7 FU:3 |FU |FU HZ",,,"66","29.94","BKN:07 19","29.47","2.50","66","020",,"8",,,,,,,,,,,,,,,,,,,,,,,,,,,,,,,,,,,,,"MET10209/17/20 13:53:02 METAR KSEA 172153Z 02007KT 2 1/2SM HZ FU BKN019 23/16 A2993 RMK A02 SLP140 T02280161","FM-15","7",,,,,,,,,,,,,,,,,,,,,,,,,,,"2007-05-17"
"72793024233","2020-09-17T14:53:00","FM-15","7",,,,,,,,,,,,,,,,,,,,,,,,,,,,,,,,,,,,,,,"29.92","60","71",,"HZ:7 FU:3 |FU |FU HZ",,,"68","29.93","BKN:07 20","29.45","2.50","64","300",,"10",,,,,,,,,,,,,,,,,,,,,,,,,,,,,,,,,,,,,"MET10209/17/20 14:53:02 METAR KSEA 172253Z 30009KT 2 1/2SM HZ FU BKN020 22/16 A2992 RMK A02 SLP137 T02170156","FM-15","7",,,,,,,,,,,,,,,,,,,,,,,,,,,"2007-05-17"
"72793024233","2020-09-17T15:53:00","FM-15","7",,,,,,,,,,,,,,,,,,,,,,,,,,,,,,,,,,,,,,,"29.92","60","70",,"HZ:7 FU:3 |FU |FU HZ","+0.04","6","71","29.93","BKN:07 20","29.45","2.50","64","300",,"7",,,,,,,,,,,,,,,,,,,,,,,,,,,,,,,,,,,,,"MET12009/17/20 15:53:02 METAR KSEA 172353Z 30006KT 2 1/2SM HZ FU BKN020 21/16 A2992 RMK A02 SLP134 T02110156 10233 20194 56013","FM-15","7",,,,,,,,,,,,,,,,,,,,,,,,,,,"2007-05-17"
"72793024233","2020-09-17T16:00:00","FM-12","4",,,,,,,,,,,,,,,,,,,,,,,,,,,,,,,,,,,,,,,,"60","70",,"||HZ","+0.04","6","71","29.93","26","29.44","2.49","64","300",,"7",,,,,,,,,,,,,,,,,,,,,,,,,,,,,,,,,,,,,"SYN08672793 31540 63006 10211 20156 39969 40134 56013 705// 92353 333 20167 96004 555 91800=","FM-12","4",,,,,,,,,,,,,,,,,,,,,,,,,,,"2007-05-17"
"72793024233","2020-09-17T16:53:00","FM-15","7",,,,,,,,,,,,,,,,,,,,,,,,,,,,,,,,,,,,,,,"29.92","60","70",,"HZ:7 FU:3 |FU |FU HZ",,,"71","29.93","BKN:07 20","29.45","2.50","64","320",,"6",,,,,,,,,,,,,,,,,,,,,,,,,,,,,,,,,,,,,"MET10209/17/20 16:53:01 METAR KSEA 180053Z 32005KT 2 1/2SM HZ FU BKN020 21/16 A2992 RMK A02 SLP135 T02110156","FM-15","7",,,,,,,,,,,,,,,,,,,,,,,,,,,"2007-05-17"
"72793024233","2020-09-17T17:43:00","FM-16","7",,,,,,,,,,,,,,,,,,,,,,,,,,,,,,,,,,,,,,,"29.91","59","68",,"HZ:7 FU:3 |FU |FU HZ",,,"73",,"SCT:04 20 BKN:07 42 BKN:07 250","29.44","2.50","63","360",,"3",,,,,,,,,,,,,,,,,,,,,,,,,,,,,,,,,,,,,"MET10909/17/20 17:43:01 SPECI KSEA 180143Z 36003KT 2 1/2SM HZ FU SCT020 BKN042 BKN250 20/15 A2991 RMK A02 T02000150","FM-16","7",,,,,,,,,,,,,,,,,,,,,,,,,,,"2007-05-17"
"72793024233","2020-09-17T17:53:00","FM-15","7",,,,,,,,,,,,,,,,,,,,,,,,,,,,,,,,,,,,,,,"29.91","59","68",,"HZ:7 FU:3 |FU |FU HZ",,,"73","29.92","SCT:04 20 BKN:07 42 BKN:07 250","29.44","2.50","63","000",,"0",,,,,,,,,,,,,,,,,,,,,,,,,,,,,,,,,,,,,"MET11609/17/20 17:53:01 METAR KSEA 180153Z 00000KT 2 1/2SM HZ FU SCT020 BKN042 BKN250 20/15 A2991 RMK A02 SLP133 T02000150","FM-15","7",,,,,,,,,,,,,,,,,,,,,,,,,,,"2007-05-17"
"72793024233","2020-09-17T18:53:00","FM-15","7",,,,,,,,,,,,,,,,,,,,,,,,,,,,,,,,,,,,,,,"29.92","59","66",,"HZ:7 FU:3 |FU |FU HZ","-0.00","3","78","29.93","SCT:04 20 BKN:07 47 BKN:07 250","29.45","2.50","62","000",,"0",,,,,,,,,,,,,,,,,,,,,,,,,,,,,,,,,,,,,"MET12209/17/20 18:53:01 METAR KSEA 180253Z 00000KT 2 1/2SM HZ FU SCT020 BKN047 BKN250 19/15 A2992 RMK A02 SLP136 T01890150 53001","FM-15","7",,,,,,,,,,,,,,,,,,,,,,,,,,,"2007-05-17"
"72793024233","2020-09-17T19:53:00","FM-15","7",,,,,,,,,,,,,,,,,,,,,,,,,,,,,,,,,,,,,,,"29.92","59","65",,"HZ:7 FU:3 |FU |FU HZ",,,"81","29.93","SCT:04 20 OVC:08 48","29.45","3.00","61","330",,"3",,,,,,,,,,,,,,,,,,,,,,,,,,,,,,,,,,,,,"MET10509/17/20 19:53:02 METAR KSEA 180353Z 33003KT 3SM HZ FU SCT020 OVC048 18/15 A2992 RMK A02 SLP136 T01830150","FM-15","7",,,,,,,,,,,,,,,,,,,,,,,,,,,"2007-05-17"
"72793024233","2020-09-17T20:53:00","FM-15","7",,,,,,,,,,,,,,,,,,,,,,,,,,,,,,,,,,,,,,,"29.92","59","64",,"HZ:7 FU:3 |FU |FU HZ",,,"84","29.93","SCT:04 20 OVC:08 48","29.45","3.00","61","360",,"7",,,,,,,,,,,,,,,,,,,,,,,,,,,,,,,,,,,,,"MET10509/17/20 20:53:02 METAR KSEA 180453Z 36006KT 3SM HZ FU SCT020 OVC048 18/15 A2992 RMK A02 SLP135 T01780150","FM-15","7",,,,,,,,,,,,,,,,,,,,,,,,,,,"2007-05-17"
"72793024233","2020-09-17T21:53:00","FM-15","7",,,,,,,,,,,,,,,,,,,,,,,,,,,,,,,,,,,,,,,"29.94","59","62",,"BR:1 FU:3 |FU |FU","-0.02","3","90","29.95","FEW:02 25 BKN:07 48","29.47","3.00","60","270",,"5",,,,,,,,,,,,,,,,,,,,,,,,,,,,,,,,,,,,,"MET12309/17/20 21:53:02 METAR KSEA 180553Z 27004KT 3SM BR FU FEW025 BKN048 17/15 A2994 RMK A02 SLP142 T01670150 10217 20161 53007","FM-15","7",,,,,,,,,,,,,,,,,,,,,,,,,,,"2007-05-17"
"72793024233","2020-09-17T22:00:00","FM-12","4",,,,,,,,,,,,,,,,,,,,,,,,,,,,,,,,,,,,,,,,"59","62",,,"-0.02","3","90","29.95","26","29.46","2.98","60","270",,"5",,,,,,,,,,,,,,,,,,,,,,,,,,,,,,,,,,,,,"SYN09272793 31548 62704 10167 20150 39976 40142 53007 710// 90553 333 10217 20161 96004 555 91806=","FM-12","4",,,,,,,,,,,,,,,,,,,,,,,,,,,"2007-05-17"
"72793024233","2020-09-17T22:53:00","FM-15","7",,,,,,,,,,,,,,,,,,,,,,,,,,,,,,,,,,,,,,,"29.95","58","60",,"BR:1 FU:3 |FU |FU",,,"93","29.96","OVC:08 49","29.48","3.00","59","180",,"3",,,,,,,,,,,,,,,,,,,,,,,,,,,,,,,,,,,,,"MET09809/17/20 22:53:02 METAR KSEA 180653Z 18003KT 3SM BR FU OVC049 16/14 A2995 RMK A02 SLP145 T01560144","FM-15","7",,,,,,,,,,,,,,,,,,,,,,,,,,,"2007-05-17"
"72793024233","2020-09-17T23:53:00","FM-15","7",,,,,,,,,,,,,,,,,,,,,,,,,,,,,,,,,,,,,,,"29.95","59","62",,"BR:1 FU:3 |HZ FU |FU",,,"90","29.96","BKN:07 42","29.48","3.00","60","110",,"8",,,,,,,,,,,,,,,,,,,,,,,,,,,,,,,,,,,,,"MET10809/17/20 23:53:02 METAR KSEA 180753Z 11007KT 3SM BR FU BKN042 17/15 A2995 RMK AO2 SLP144 T01670150 402330150","FM-15","7",,,,,,,,,,,,,,,,,,,,,,,,,,,"2007-05-17"
"72793024233","2020-09-17T23:59:00","SOD  ","6",,,,,,,,,,,,,,,,,"60","67","81","29.99","29.52","62","4.5","2","5.9","0","74","59",,"2237","0.00","0","0.0","300","10","BR HZ",,,,,,,,,,,,,,,,,,,,,,,,,,,,,,,,,,,,,,,,,,,,,,,,,,,,,,,"SOD38324 HR PRECIPITATION (IN): 0.00 SNOW DEPTH (IN):0     24 HR SNOWFALL (IN):0.0  WEATHER(CODE):18  24 HR MAX TEMP (F): 7424 HR MIN TEMP (F): 59AVERAGE STATION PRESSURE(D):29.516  FASTEST 2MIN SPEED (MPH): 10FASTEST 2MIN DIR (DEG):300 FASTEST 2MIN TIME (LST):     AVERAGE WIND SPEED (MPH): 4.5 24 HR AVG TEMP (F): 67DEPART FROM NORMAL:  6  HEATING DEGREE DAYS:  0 COOLING DEGREE DAYS:  2","SOD  ","6",,,,,,,,,,,,,,,,,,,,,,,,,"0550","1815","2007-05-17"
"72793024233","2020-09-18T00:53:00","FM-15","7",,,,,,,,,,,,,,,,,,,,,,,,,,,,,,,,,,,,,,,"29.92","60","64",,"BR:1 FU:3 |HZ FU |FU","+0.02","8","87","29.93","SCT:04 50 BKN:07 100","29.45","3.00","62","110",,"8",,,,,,,,,,,,,,,,,,,,,,,,,,,,,,,,,,,,,"MET11109/18/20 00:53:02 METAR KSEA 180853Z 11007KT 3SM BR FU SCT050 BKN100 18/16 A2992 RMK AO2 SLP136 T01780156 58006","FM-15","7",,,,,,,,,,,,,,,,,,,,,,,,,,,"2007-05-17"
"72793024233","2020-09-18T01:53:00","FM-15","7",,,,,,,,,,,,,,,,,,,,,,,,,,,,,,,,,,,,,,,"29.90","59","62",,"BR:1 FU:3 |HZ FU |FU",,,"90","29.91","FEW:02 50 BKN:07 100","29.44","3.00","60","000",,"0",,,,,,,,,,,,,,,,,,,,,,,,,,,,,,,,,,,,,"MET10509/18/20 01:53:02 METAR KSEA 180953Z 00000KT 3SM BR FU FEW050 BKN100 17/15 A2990 RMK AO2 SLP130 T01670150","FM-15","7",,,,,,,,,,,,,,,,,,,,,,,,,,,"2007-05-17"
"72793024233","2020-09-18T02:53:00","FM-15","7",,,,,,,,,,,,,,,,,,,,,,,,,,,,,,,,,,,,,,,"29.89","59","62",,"BR:1 FU:3 |HZ FU |FU",,,"90","29.90","BKN:07 100","29.42","3.00","60","050",,"6",,,,,,,,,,,,,,,,,,,,,,,,,,,,,,,,,,,,,"MET09809/18/20 02:53:02 METAR KSEA 181053Z 05005KT 3SM BR FU BKN100 17/15 A2989 RMK AO2 SLP126 T01670150","FM-15","7",,,,,,,,,,,,,,,,,,,,,,,,,,,"2007-05-17"
"72793024233","2020-09-18T03:53:00","FM-15","7",,,,,,,,,,,,,,,,,,,,,,,,,,,,,,,,,,,,,,,"29.91","59","61",,"BR:1 FU:3 |HZ FU |FU","+0.01","5","93","29.92","FEW:02 3 SCT:04 20 OVC:08 100","29.44","3.00","60","290",,"7",,,,,,,,,,,,,,,,,,,,,,,,,,,,,,,,,,,,,"MET13009/18/20 03:53:02 METAR KSEA 181153Z 29006KT 3SM BR FU FEW003 SCT020 OVC100 16/15 A2991 RMK AO2 SLP131 T01610150 10178 20150 55005","FM-15","7",,,,,,,,,,,,,,,,,,,,,,,,,,,"2007-05-17"
"72793024233","2020-09-18T04:00:00","FM-12","4",,,,,,,,,,,,,,,,,,,,,,,,,,,,,,,,,,,,,,,,"59","61",,,"+0.01","5","93","29.92","2","29.43","2.98","60","290",,"7",,,,,,,,,,,,,,,,,,,,,,,,,,,,,,,,,,,,,"SYN09272793 31148 82906 10161 20150 39966 40131 55005 710// 91153 333 10233 20150 96004 555 91812=","FM-12","4",,,,,,,,,,,,,,,,,,,,,,,,,,,"2007-05-17"
"72793024233","2020-09-18T04:02:00","FM-16","7",,,,,,,,,,,,,,,,,,,,,,,,,,,,,,,,,,,,,,,"29.91","59","60",,"BR:1 FU:3 |HZ FU |FU",,,"96",,"FEW:02 3 SCT:04 20 OVC:08 100","29.44","3.00","59","300",,"8",,,,,,,,,,,,,,,,,,,,,,,,,,,,,,,,,,,,,"MET10509/18/20 04:02:02 SPECI KSEA 181202Z 30007KT 3SM BR FU FEW003 SCT020 OVC100 16/15 A2991 RMK AO2 T01560150","FM-16","7",,,,,,,,,,,,,,,,,,,,,,,,,,,"2007-05-17"
"72793024233","2020-09-18T04:13:00","FM-16","7",,,,,,,,,,,,,,,,,,,,,,,,,,,,,,,,,,,,,,,"29.91","59","60",,"BR:1 FU:3 |HZ FU |FU",,,"96",,"BKN:07 3 OVC:08 100","29.44","0.75","59","290",,"8",,,,,,,,,,,,,,,,,,,,,,,,,,,,,,,,,,,,,"MET12709/18/20 04:13:02 SPECI KSEA 181213Z 29007KT 3/4SM R16L/P6000FT BR FU BKN003 OVC100 16/15 A2991 RMK AO2 SFC VIS 1 1/4 T01560150","FM-16","7",,,,,,,,,,,,,,,,,,,,,,,,,,,"2007-05-17"
"72793024233","2020-09-18T04:53:00","FM-15","7",,,,,,,,,,,,,,,,,,,,,,,,,,,,,,,,,,,,,,,"29.90",,"60",,"BR:1 FU:3 |HZ FU |FU",,,,"29.91","BKN:07 3 OVC:08 100","29.44","0.75",,"000",,"0",,,,,,,,,,,,,,,,,,,,,,,,,,,,,,,,,,,,,"MET13509/18/20 04:53:02 METAR KSEA 181253Z 00000KT 3/4SM R16L/P6000FT BR FU BKN003 OVC100 16/15 A2990 RMK AO2 SFC VIS 1 1/4 SLP130 T015600150","FM-15","7",,,,,,,,,,,,,,,,,,,,,,,,,,,"2007-05-17"
"72793024233","2020-09-18T05:53:00","FM-15","7",,,,,,,,,,,,,,,,,,,,,,,,,,,,,,,,,,,,,,,"29.91","59","61",,"BR:1 FU:3 |HZ FU |FU",,,"93","29.92","BKN:07 4 OVC:08 100","29.44","1.00","60","170",,"3",,,,,,,,,,,,,,,,,,,,,,,,,,,,,,,,,,,,,"MET12809/18/20 05:53:02 METAR KSEA 181353Z 17003KT 1SM R16L/P6000FT BR FU BKN004 OVC100 16/15 A2991 RMK AO2 SFC VIS 2 SLP131 T01610150","FM-15","7",,,,,,,,,,,,,,,,,,,,,,,,,,,"2007-05-17"
"72793024233","2020-09-18T06:53:00","FM-15","7",,,,,,,,,,,,,,,,,,,,,,,,,,,,,,,,,,,,,,,"29.91","59","60",,"BR:1 FU:3 |HZ FU |FU",,,"96","29.92","BKN:07 4 BKN:07 100","29.44","1.00","59","130",,"6",,,,,,,,,,,,,,,,,,,,,,,,,,,,,,,,,,,,,"MET12809/18/20 06:53:02 METAR KSEA 181453Z 13005KT 1SM R16L/P6000FT BR FU BKN004 BKN100 16/15 A2991 RMK AO2 SFC VIS 2 SLP131 T01560150","FM-15","7",,,,,,,,,,,,,,,,,,,,,,,,,,,"2007-05-17"
"72793024233","2020-09-18T07:11:00","FM-16","7",,,,,,,,,,,,,,,,,,,,,,,,,,,,,,,,,,,,,,,"29.91","60","62",,"BR:1 FU:3 |HZ FU |FU",,,"93",,"BKN:07 4 BKN:07 100","29.44","1.00","61","140",,"8",,,,,,,,,,,,,,,,,,,,,,,,,,,,,,,,,,,,,"MET12109/18/20 07:11:02 SPECI KSEA 181511Z 14007KT 1SM R16L/P6000FT BR FU BKN004 BKN100 17/16 A2991 RMK AO2 SFC VIS 2 T01670156","FM-16","7",,,,,,,,,,,,,,,,,,,,,,,,,,,"2007-05-17"
"72793024233","2020-09-18T07:53:00","FM-15","7",,,,,,,,,,,,,,,,,,,,,,,,,,,,,,,,,,,,,,,"29.90","60","64",,"BR:1 FU:3 |HZ FU |FU",,,"87","29.91","FEW:02 6 SCT:04 30 BKN:07 90","29.44","2.00","62","130",,"10",,,,,,,,,,,,,,,,,,,,,,,,,,,,,,,,,,,,,"MET11209/18/20 07:53:02 METAR KSEA 181553Z 13009KT 2SM BR FU FEW006 SCT030 BKN090 18/16 A2990 RMK AO2 SLP128 T01780156","FM-15","7",,,,,,,,,,,,,,,,,,,,,,,,,,,"2007-05-17"
"72793024233","2020-09-18T08:53:00","FM-15","7",,,,,,,,,,,,,,,,,,,,,,,,,,,,,,,,,,,,,,,"29.90","60","66",,"BR:1 FU:3 |HZ FU |FU",,,"81","29.91","FEW:02 9 SCT:04 26 OVC:08 90","29.44","2.50","62","180",,"6",,,,,,,,,,,,,,,,,,,,,,,,,,,,,,,,,,,,,"MET11609/18/20 08:53:02 METAR KSEA 181653Z 18005KT 2 1/2SM BR FU FEW009 SCT026 OVC090 19/16 A2990 RMK AO2 SLP129 T01890156","FM-15","7",,,,,,,,,,,,,,,,,,,,,,,,,,,"2007-05-17"
"72793024233","2020-09-18T09:15:00","FM-16","7",,,,,,,,,,,,,,,,,,,,,,,,,,,,,,,,,,,,,,,"29.90","60","66",,"BR:1 FU:3 |HZ FU |FU",,,"81",,"SCT:04 9 BKN:07 21 OVC:08 90","29.44","2.50","62","180",,"7",,,,,,,,,,,,,,,,,,,,,,,,,,,,,,,,,,,,,"MET10909/18/20 09:15:02 SPECI KSEA 181715Z 18006KT 2 1/2SM BR FU SCT009 BKN021 OVC090 19/16 A2990 RMK AO2 T01890156","FM-16","7",,,,,,,,,,,,,,,,,,,,,,,,,,,"2007-05-17"
"72793024233","2020-09-18T09:53:00","FM-15","7",,,,,,,,,,,,,,,,,,,,,,,,,,,,,,,,,,,,,,,"29.91","60","65",,"HZ:7 FU:3 |HZ FU |FU HZ",,,"84","29.92","FEW:02 9 BKN:07 19 OVC:08 90","29.44","2.50","62","250",,"6",,,,,,,,,,,,,,,,,,,,,,,,,,,,,,,,,,,,,"MET12809/18/20 09:53:02 METAR KSEA 181753Z 25005KT 2 1/2SM HZ FU FEW009 BKN019 OVC090 18/16 A2991 RMK AO2 SLP133 T01830156 10189 20156","FM-15","7",,,,,,,,,,,,,,,,,,,,,,,,,,,"2007-05-17"
"72793024233","2020-09-18T10:00:00","FM-12","4",,,,,,,,,,,,,,,,,,,,,,,,,,,,,,,,,,,,,,,,"60","65",,"||HZ",,,"84","29.92","8","29.43","2.49","62","250",,"6",,,,,,,,,,,,,,,,,,,,,,,,,,,,,,,,,,,,,"SYN08672793 31340 82505 10183 20156 39966 40133 705// 91753 333 10189 20156 96004 555 91818=","FM-12","4",,,,,,,,,,,,,,,,,,,,,,,,,,,"2007-05-17"
"72793024233","2020-09-18T10:53:00","FM-15","7",,,,,,,,,,,,,,,,,,,,,,,,,,,,,,,,,,,,,,,"29.92","60","65",,"HZ:7 FU:3 |HZ FU |FU HZ",,,"84","29.93","SCT:04 14 BKN:07 24 OVC:08 90","29.45","2.50","62","200",,"7",,,,,,,,,,,,,,,,,,,,,,,,,,,,,,,,,,,,,"MET11609/18/20 10:53:02 METAR KSEA 181853Z 20006KT 2 1/2SM HZ FU SCT014 BKN024 OVC090 18/16 A2992 RMK AO2 SLP136 T01830156","FM-15","7",,,,,,,,,,,,,,,,,,,,,,,,,,,"2007-05-17"
"72793024233","2020-09-18T11:53:00","FM-15","7",,,,,,,,,,,,,,,,,,,,,,,,,,,,,,,,,,,,,,,"29.92","61","63",,"|FG RA |",,,"93","29.94","FEW:02 14 FEW:02 24 OVC:08 85","29.45",,"62","200",,"8",,,,,,,,,,,,,,,,,,,,,,,,,,,,,,,,,,,,,"MET12009/18/20 11:53:02 METAR KSEA 181953Z 20007KT 2 SM -RA BR FEW014 FEW024 OVC085 17/16 A2992 RMK AO2 RAB29 SLP138 T01720161","FM-15","7",,,,,,,,,,,,,,,,,,,,,,,,,,,"2007-05-17"
"72793024233","2020-09-18T12:53:00","FM-15","7",,,,,,,,,,,,,,,,,,,,,,,,,,,,,,,,,,,,,,,"29.92","61","63","0.15","|FG RA |","-0.01","1","93","29.94","FEW:02 5 OVC:08 85","29.45",,"62","150",,"6",,,,,,,,,,,,,,,,,,,,,,,,,,,,,,,,,,,,,"MET12409/18/20 12:53:02 METAR KSEA 182053Z 15005KT 2 SM RA BR FEW005 OVC085 17/16 A2992 RMK AO2 SLP138 P0015 60018 T01720161 51004","FM-15","7",,,,,,,,,,,,,,,,,,,,,,,,,,,"2007-05-17"
"72793024233","2020-09-18T13:53:00","FM-15","7",,,,,,,,,,,,,,,,,,,,,,,,,,,,,,,,,,,,,,,"29.92","62","64","0.12","-RA:02 BR:1 |RA |RA",,,"93","29.93","FEW:02 5 OVC:08 75","29.45","2.50","63","140",,"9",,,,,,,,,,,,,,,,,,,,,,,,,,,,,,,,,,,,,"MET11609/18/20 13:53:02 METAR KSEA 182153Z 14008KT 2 1/2SM -RA BR FEW005 OVC075 18/17 A2992 RMK AO2 SLP136 P0009 T01780167","FM-15","7",,,,,,,,,,,,,,,,,,,,,,,,,,,"2007-05-17"
"72793024233","2020-09-18T14:26:00","FM-16","7",,,,,,,,,,,,,,,,,,,,,,,,,,,,,,,,,,,,,,,"29.92","62","64","T","BR:1 ||",,,"93",,"BKN:07 6 OVC:08 60","29.45","2.50","63","120",,"10",,,,,,,,,,,,,,,,,,,,,,,,,,,,,,,,,,,,,"MET11109/18/20 14:26:02 SPECI KSEA 182226Z 12009KT 2 1/2SM BR BKN006 OVC060 18/17 A2992 RMK AO2 RAE07 P0000 T01780167","FM-16","7",,,,,,,,,,,,,,,,,,,,,,,,,,,"2007-05-17"
"72793024233","2020-09-18T14:45:00","FM-16","7",,,,,,,,,,,,,,,,,,,,,,,,,,,,,,,,,,,,,,,"29.92","62","64","T","BR:1 ||",,,"93",,"SCT:04 6 BKN:07 14 OVC:08 85","29.45","2.50","63","120",,"8",,,,,,,,,,,,,,,,,,,,,,,,,,,,,,,,,,,,,"MET11809/18/20 14:45:02 SPECI KSEA 182245Z 12007KT 2 1/2SM BR SCT006 BKN014 OVC085 18/17 A2992 RMK AO2 RAE07 P0000 T01780167","FM-16","7",,,,,,,,,,,,,,,,,,,,,,,,,,,"2007-05-17"
"72793024233","2020-09-18T14:53:00","FM-15","7",,,,,,,,,,,,,,,,,,,,,,,,,,,,,,,,,,,,,,,"29.92","61","64","T","BR:1 FU:3 |HZ FU |FU",,,"90",,"SCT:04 6 SCT:04 14 OVC:08 85","29.45","3.00","62","120",,"7",,,,,,,,,,,,,,,,,,,,,,,,,,,,,,,,,,,,,"MET11709/18/20 14:53:02 METAR KSEA 182253Z 12006KT 3SM BR FU SCT006 SCT014 OVC085 18/16 A2992 RMK AO2 RAE07 P0000 T01780161","FM-15","7",,,,,,,,,,,,,,,,,,,,,,,,,,,"2007-05-17"
"72793024233","2020-09-18T15:14:00","FM-16","7",,,,,,,,,,,,,,,,,,,,,,,,,,,,,,,,,,,,,,,"29.92","62","64","0.01","-RA:02 BR:1 FU:3 |HZ FU |FU RA",,,"93",,"SCT:04 6 BKN:07 16 OVC:08 85","29.45","3.00","63","120",,"9",,,,,,,,,,,,,,,,,,,,,,,,,,,,,,,,,,,,,"MET12109/18/20 15:14:02 SPECI KSEA 182314Z 12008KT 3SM -RA BR FU SCT006 BKN016 OVC085 18/17 A2992 RMK AO2 RAB08 P0001 T01780167","FM-16","7",,,,,,,,,,,,,,,,,,,,,,,,,,,"2007-05-17"
"72793024233","2020-09-18T15:53:00","FM-15","7",,,,,,,,,,,,,,,,,,,,,,,,,,,,,,,,,,,,,,,"29.92","61","64","0.02","BR:1 FU:3 |HZ FU |FU","+0.01","8","90","29.93","SCT:04 6 BKN:07 23 OVC:08 80","29.45","3.00","62","120",,"8",,,,,,,,,,,,,,,,,,,,,,,,,,,,,,,,,,,,,"MET15109/18/20 15:53:02 METAR KSEA 182353Z 12007KT 3SM BR FU SCT006 BKN023 OVC080 18/16 A2992 RMK AO2 RAB08E38 SLP136 P0002 60029 T01780161 10189 20172 58002","FM-15","7",,,,,,,,,,,,,,,,,,,,,,,,,,,"2007-05-17"
"72793024233","2020-09-18T16:00:00","FM-12","4",,,,,,,,,,,,,,,,,,,,,,,,,,,,,,,,,,,,,,,,"61","64",,,"+0.01","8","90","29.93","5","29.44","2.98","62","120",,"8",,,,,,,,,,,,,,,,,,,,,,,,,,,,,,,,,,,,,"SYN09872793 11248 81207 10178 20161 39969 40136 58002 60071 710// 92353 333 10189 20150 96004 555 91900=","FM-12","4",,,,,,,,,,,,,,,,,,,,,,,,,,,"2007-05-17"
"72793024233","2020-09-18T16:29:00","FM-16","7",,,,,,,,,,,,,,,,,,,,,,,,,,,,,,,,,,,,,,,"29.92","61","65",,"BR:1 FU:3 |HZ FU |FU",,,"87",,"FEW:02 7 BKN:07 30 OVC:08 90","29.45","3.00","63","120",,"7",,,,,,,,,,,,,,,,,,,,,,,,,,,,,,,,,,,,,"MET10509/18/20 16:29:01 SPECI KSEA 190029Z 12006KT 3SM BR FU FEW007 BKN030 OVC090 18/16 A2992 RMK AO2 T01830161","FM-16","7",,,,,,,,,,,,,,,,,,,,,,,,,,,"2007-05-17"
"72793024233","2020-09-18T16:53:00","FM-15","7",,,,,,,,,,,,,,,,,,,,,,,,,,,,,,,,,,,,,,,"29.92","61","65","T","-RA:02 BR:1 FU:3 |HZ FU |FU RA",,,"87","29.93","SCT:04 14 BKN:07 30 OVC:08 110","29.45","3.00","63","130",,"8",,,,,,,,,,,,,,,,,,,,,,,,,,,,,,,,,,,,,"MET12809/18/20 16:53:01 METAR KSEA 190053Z 13007KT 3SM -RA BR FU SCT014 BKN030 OVC110 18/16 A2992 RMK AO2 RAB53 SLP137 P0000 T01830161","FM-15","7",,,,,,,,,,,,,,,,,,,,,,,,,,,"2007-05-17"
"72793024233","2020-09-18T17:16:00","FM-16","7",,,,,,,,,,,,,,,,,,,,,,,,,,,,,,,,,,,,,,,"29.92","61","64","T","-RA:02 BR:1 FU:3 |HZ FU |FU RA",,,"90",,"FEW:02 8 BKN:07 23 OVC:08 90","29.45","3.00","62","120",,"8",,,,,,,,,,,,,,,,,,,,,,,,,,,,,,,,,,,,,"MET11509/18/20 17:16:01 SPECI KSEA 190116Z 12007KT 3SM -RA BR FU FEW008 BKN023 OVC090 18/16 A2992 RMK AO2 P0000 T01780161","FM-16","7",,,,,,,,,,,,,,,,,,,,,,,,,,,"2007-05-17"
"72793024233","2020-09-18T17:53:00","FM-15","7",,,,,,,,,,,,,,,,,,,,,,,,,,,,,,,,,,,,,,,"29.92","61","64","T","-RA:02 BR:1 FU:3 |HZ FU |FU RA",,,"90","29.94","FEW:02 8 BKN:07 21 OVC:08 85","29.45","3.00","62","150",,"7",,,,,,,,,,,,,,,,,,,,,,,,,,,,,,,,,,,,,"MET12209/18/20 17:53:01 METAR KSEA 190153Z 15006KT 3SM -RA BR FU FEW008 BKN021 OVC085 18/16 A2992 RMK AO2 SLP139 P0000 T01780161","FM-15","7",,,,,,,,,,,,,,,,,,,,,,,,,,,"2007-05-17"
"72793024233","2020-09-18T18:53:00","FM-15","7",,,,,,,,,,,,,,,,,,,,,,,,,,,,,,,,,,,,,,,"29.93","61","64","T","BR:1 FU:3 |HZ FU |FU","-0.01","3","90","29.94","FEW:02 8 BKN:07 27 OVC:08 85","29.47","4.00","62","150",,"7",,,,,,,,,,,,,,,,,,,,,,,,,,,,,,,,,,,,,"MET13609/18/20 18:53:01 METAR KSEA 190253Z 15006KT 4SM BR FU FEW008 BKN027 OVC085 18/16 A2993 RMK AO2 RAE52 SLP140 P0000 60000 T01780161 53004","FM-15","7",,,,,,,,,,,,,,,,,,,,,,,,,,,"2007-05-17"
"72793024233","2020-09-18T19:24:00","FM-16","7",,,,,,,,,,,,,,,,,,,,,,,,,,,,,,,,,,,,,,,"29.95","61","63",,"BR:1 ||",,,"93",,"BKN:07 8 OVC:08 15","29.48","5.00","62","240",,"3",,,,,,,,,,,,,,,,,,,,,,,,,,,,,,,,,,,,,"MET09509/18/20 19:24:01 SPECI KSEA 190324Z 24003KT 5SM BR BKN008 OVC015 17/16 A2995 RMK AO2 T01720161","FM-16","7",,,,,,,,,,,,,,,,,,,,,,,,,,,"2007-05-17"
"72793024233","2020-09-18T19:48:00","FM-16","7",,,,,,,,,,,,,,,,,,,,,,,,,,,,,,,,,,,,,,,"29.94","60","63",,"BR:1 ||",,,"90",,"SCT:04 8 BKN:07 28 OVC:08 60","29.47","5.00","61","200",,"6",,,,,,,,,,,,,,,,,,,,,,,,,,,,,,,,,,,,,"MET10209/18/20 19:48:02 SPECI KSEA 190348Z 20005KT 5SM BR SCT008 BKN028 OVC060 17/16 A2994 RMK AO2 T01720156","FM-16","7",,,,,,,,,,,,,,,,,,,,,,,,,,,"2007-05-17"
"72793024233","2020-09-18T19:53:00","FM-15","7",,,,,,,,,,,,,,,,,,,,,,,,,,,,,,,,,,,,,,,"29.95","60","63",,"BR:1 ||",,,"90","29.96","SCT:04 8 BKN:07 28 OVC:08 60","29.48","5.00","61","190",,"7",,,,,,,,,,,,,,,,,,,,,,,,,,,,,,,,,,,,,"MET10909/18/20 19:53:02 METAR KSEA 190353Z 19006KT 5SM BR SCT008 BKN028 OVC060 17/16 A2995 RMK AO2 SLP145 T01720156","FM-15","7",,,,,,,,,,,,,,,,,,,,,,,,,,,"2007-05-17"
"72793024233","2020-09-18T20:25:00","FM-16","7",,,,,,,,,,,,,,,,,,,,,,,,,,,,,,,,,,,,,,,"29.95","60","62",,"BR:1 ||",,,"93",,"BKN:07 5 OVC:08 65","29.48","5.00","61","190",,"5",,,,,,,,,,,,,,,,,,,,,,,,,,,,,,,,,,,,,"MET09509/18/20 20:25:02 SPECI KSEA 190425Z 19004KT 5SM BR BKN005 OVC065 17/16 A2995 RMK AO2 T01670156","FM-16","7",,,,,,,,,,,,,,,,,,,,,,,,,,,"2007-05-17"
"72793024233","2020-09-18T20:53:00","FM-15","7",,,,,,,,,,,,,,,,,,,,,,,,,,,,,,,,,,,,,,,"29.95","60","62",,"BR:1 ||",,,"93","29.96","BKN:07 5 OVC:08 15","29.48","5.00","61","200",,"6",,,,,,,,,,,,,,,,,,,,,,,,,,,,,,,,,,,,,"MET10209/18/20 20:53:02 METAR KSEA 190453Z 20005KT 5SM BR BKN005 OVC015 17/16 A2995 RMK AO2 SLP145 T01670156","FM-15","7",,,,,,,,,,,,,,,,,,,,,,,,,,,"2007-05-17"
"72793024233","2020-09-18T21:53:00","FM-15","7",,,,,,,,,,,,,,,,,,,,,,,,,,,,,,,,,,,,,,,"29.96","59","61",,,"-0.03","1","93","29.98","OVC:08 6","29.49","10.00","60","210",,"7",,,,,,,,,,,,,,,,,,,,,,,,,,,,,,,,,,,,,"MET11709/18/20 21:53:02 METAR KSEA 190553Z 21006KT 10SM OVC006 16/15 A2996 RMK AO2 SLP151 60000 T01610150 10183 20161 51010","FM-15","7",,,,,,,,,,,,,,,,,,,,,,,,,,,"2007-05-17"
"72793024233","2020-09-18T22:00:00","FM-12","4",,,,,,,,,,,,,,,,,,,,,,,,,,,,,,,,,,,,,,,,"59","61",,,"-0.03","1","93","29.98","5","29.48","9.94","60","210",,"7",,,,,,,,,,,,,,,,,,,,,,,,,,,,,,,,,,,,,"SYN08672793 12266 82106 10161 20150 39983 40151 51010 69901 90553 333 10183 20150 555 91906=","FM-12","4",,,,,,,,,,,,,,,,,,,,,,,,,,,"2007-05-17"
"72793024233","2020-09-18T22:53:00","FM-15","7",,,,,,,,,,,,,,,,,,,,,,,,,,,,,,,,,,,,,,,"29.96","59","60",,,,,"96","29.98","OVC:08 6","29.49","10.00","59","210",,"9",,,,,,,,,,,,,,,,,,,,,,,,,,,,,,,,,,,,,"MET10509/18/20 22:53:02 METAR KSEA 190653Z 21008KT 10SM OVC006 16/15 A2996 RMK AO2 SLP151 CIG 004V008 T01560150","FM-15","7",,,,,,,,,,,,,,,,,,,,,,,,,,,"2007-05-17"
"72793024233","2020-09-18T23:53:00","FM-15","7",,,,,,,,,,,,,,,,,,,,,,,,,,,,,,,,,,,,,,,"29.96","58","60",,,,,"93","29.98","FEW:02 4 OVC:08 6","29.49","10.00","59","210",,"10",,,,,,,,,,,,,,,,,,,,,,,,,,,,,,,,,,,,,"MET11009/18/20 23:53:02 METAR KSEA 190753Z 21009KT 10SM FEW004 OVC006 16/14 A2996 RMK AO2 SLP151 T01560144 401890156","FM-15","7",,,,,,,,,,,,,,,,,,,,,,,,,,,"2007-05-17"
"72793024233","2020-09-18T23:59:00","SOD  ","6",,,,,,,,,,,,,,,,,"59","63","88","29.94","29.46","61","6.3","0","2.1","2","66","60",,"2237","0.29","0","0.0","130","10","RA BR HZ FG",,,,,,,,,,,,,,,,,,,,,,,,,,,,,,,,,,,,,,,,,,,,,,,,,,,,,,,"SOD38324 HR PRECIPITATION (IN): 0.29 SNOW DEPTH (IN):0     24 HR SNOWFALL (IN):0.0  WEATHER(CODE):18  24 HR MAX TEMP (F): 6624 HR MIN TEMP (F): 60AVERAGE STATION PRESSURE(D):29.457  FASTEST 2MIN SPEED (MPH): 10FASTEST 2MIN DIR (DEG):130 FASTEST 2MIN TIME (LST):     AVERAGE WIND SPEED (MPH): 6.3 24 HR AVG TEMP (F): 63DEPART FROM NORMAL:  2  HEATING DEGREE DAYS:  2 COOLING DEGREE DAYS:  0","SOD  ","6",,,,,,,,,,,,,,,,,,,,,,,,,"0552","1813","2007-05-17"
"72793024233","2020-09-19T00:53:00","FM-15","7",,,,,,,,,,,,,,,,,,,,,,,,,,,,,,,,,,,,,,,"29.97","58","60","T","-DZ:01 |DZ |DZ","-0.03","1","93","29.99","OVC:08 8","29.50","10.00","59","220",,"9",,,,,,,,,,,,,,,,,,,,,,,,,,,,,,,,,,,,,"MET12109/19/20 00:53:02 METAR KSEA 190853Z 22008KT 10SM -DZ OVC008 16/14 A2997 RMK AO2 DZB51 SLP155 P0000 60000 T01560144 51010","FM-15","7",,,,,,,,,,,,,,,,,,,,,,,,,,,"2007-05-17"
"72793024233","2020-09-19T01:53:00","FM-15","7",,,,,,,,,,,,,,,,,,,,,,,,,,,,,,,,,,,,,,,"29.98","58","60","T","-DZ:01 BR:1 |DZ |DZ",,,"93",,"OVC:08 7","29.51","4.00","59","220",,"7",,,,,,,,,,,,,,,,,,,,,,,,,,,,,,,,,,,,,"MET11009/19/20 01:53:02 METAR KSEA 190953Z 22006KT 4SM -DZ BR OVC007 16/14 A2998 RMK AO2 CIG 005V010 P0000 T01560144","FM-15","7",,,,,,,,,,,,,,,,,,,,,,,,,,,"2007-05-17"
"72793024233","2020-09-19T02:53:00","FM-15","7",,,,,,,,,,,,,,,,,,,,,,,,,,,,,,,,,,,,,,,"29.97","58","60","0.01","-DZ:01 |DZ |DZ",,,"93","29.99","OVC:08 6","29.50","7.00","59","220",,"8",,,,,,,,,,,,,,,,,,,,,,,,,,,,,,,,,,,,,"MET11409/19/20 02:53:02 METAR KSEA 191053Z 22007KT 7SM -DZ OVC006 16/14 A2997 RMK AO2 SLP155 CIG 004V010 P0001 T01560144","FM-15","7",,,,,,,,,,,,,,,,,,,,,,,,,,,"2007-05-17"
"72793024233","2020-09-19T03:53:00","FM-15","7",,,,,,,,,,,,,,,,,,,,,,,,,,,,,,,,,,,,,,,"29.98","58","60","T",,"-0.00","2","93","29.99","OVC:08 7","29.51","10.00","59","210",,"9",,,,,,,,,,,,,,,,,,,,,,,,,,,,,,,,,,,,,"MET14709/19/20 03:53:02 METAR KSEA 191153Z 21008KT 10SM OVC007 16/14 A2998 RMK AO2 DZE49 SLP157 CIG 006V010 P0000 60001 70030 T01560144 10161 20156 52001","FM-15","7",,,,,,,,,,,,,,,,,,,,,,,,,,,"2007-05-17"
"72793024233","2020-09-19T04:00:00","FM-12","4",,,,,,,,,,,,,,,,,,,,,,,,,,,,,,,,,,,,,,,,"58","60",,,"-0.00","2","93","29.99","8","29.50","9.94","59","210",,"9",,,,,,,,,,,,,,,,,,,,,,,,,,,,,,,,,,,,,"SYN09272793 12366 82108 10156 20144 39989 40157 52001 69931 91153 333 10189 20156 70076 555 91912=","FM-12","4",,,,,,,,,,,,,,,,,,,,,,,,,,,"2007-05-17"
"72793024233","2020-09-19T04:53:00","FM-15","7",,,,,,,,,,,,,,,,,,,,,,,,,,,,,,,,,,,,,,,"29.98","58","60",,,,,"93","30.00","OVC:08 7","29.51","10.00","59","210",,"9",,,,,,,,,,,,,,,,,,,,,,,,,,,,,,,,,,,,,"MET10509/19/20 04:53:02 METAR KSEA 191253Z 21008KT 10SM OVC007 16/14 A2998 RMK AO2 SLP159 CIG 005V010 T01560144","FM-15","7",,,,,,,,,,,,,,,,,,,,,,,,,,,"2007-05-17"
"72793024233","2020-09-19T05:53:00","FM-15","7",,,,,,,,,,,,,,,,,,,,,,,,,,,,,,,,,,,,,,,"30.00","58","60",,,,,"93","30.01","OVC:08 7","29.53","10.00","59","210",,"7",,,,,,,,,,,,,,,,,,,,,,,,,,,,,,,,,,,,,"MET09309/19/20 05:53:02 METAR KSEA 191353Z 21006KT 10SM OVC007 16/14 A3000 RMK AO2 SLP162 T01560144","FM-15","7",,,,,,,,,,,,,,,,,,,,,,,,,,,"2007-05-17"
"72793024233","2020-09-19T06:53:00","FM-15","7",,,,,,,,,,,,,,,,,,,,,,,,,,,,,,,,,,,,,,,"30.02","58","60",,,"-0.04","3","93","30.03","OVC:08 7","29.55","9.00","59","210",,"8",,,,,,,,,,,,,,,,,,,,,,,,,,,,,,,,,,,,,"MET09809/19/20 06:53:02 METAR KSEA 191453Z 21007KT 9SM OVC007 16/14 A3002 RMK AO2 SLP171 T01560144 53015","FM-15","7",,,,,,,,,,,,,,,,,,,,,,,,,,,"2007-05-17"
"72793024233","2020-09-19T07:38:00","FM-16","7",,,,,,,,,,,,,,,,,,,,,,,,,,,,,,,,,,,,,,,"30.03","58","60",,"BR:1 ||",,,"93",,"OVC:08 7","29.56","3.00","59","210",,"8",,,,,,,,,,,,,,,,,,,,,,,,,,,,,,,,,,,,,"MET08809/19/20 07:38:02 SPECI KSEA 191538Z 21007KT 3SM BR OVC007 16/14 A3003 RMK AO2 T01560144","FM-16","7",,,,,,,,,,,,,,,,,,,,,,,,,,,"2007-05-17"
"72793024233","2020-09-19T07:53:00","FM-15","7",,,,,,,,,,,,,,,,,,,,,,,,,,,,,,,,,,,,,,,"30.03","58","60",,"BR:1 ||",,,"93","30.04","OVC:08 4","29.56","3.00","59","200",,"8",,,,,,,,,,,,,,,,,,,,,,,,,,,,,,,,,,,,,"MET09509/19/20 07:53:02 METAR KSEA 191553Z 20007KT 3SM BR OVC004 16/14 A3003 RMK AO2 SLP174 T01560144","FM-15","7",,,,,,,,,,,,,,,,,,,,,,,,,,,"2007-05-17"
"72793024233","2020-09-19T08:07:00","FM-16","7",,,,,,,,,,,,,,,,,,,,,,,,,,,,,,,,,,,,,,,"30.03","58","60",,"BR:1 ||",,,"93",,"BKN:07 6 OVC:08 11","29.56","5.00","59","210",,"8",,,,,,,,,,,,,,,,,,,,,,,,,,,,,,,,,,,,,"MET09509/19/20 08:07:02 SPECI KSEA 191607Z 21007KT 5SM BR BKN006 OVC011 16/14 A3003 RMK AO2 T01560144","FM-16","7",,,,,,,,,,,,,,,,,,,,,,,,,,,"2007-05-17"
"72793024233","2020-09-19T08:53:00","FM-15","7",,,,,,,,,,,,,,,,,,,,,,,,,,,,,,,,,,,,,,,"30.04","58","61",,,,,"90","30.06","BKN:07 9 OVC:08 17","29.57","10.00","59","200",,"9",,,,,,,,,,,,,,,,,,,,,,,,,,,,,,,,,,,,,"MET10009/19/20 08:53:02 METAR KSEA 191653Z 20008KT 10SM BKN009 OVC017 16/14 A3004 RMK AO2 SLP178 T01610144","FM-15","7",,,,,,,,,,,,,,,,,,,,,,,,,,,"2007-05-17"
"72793024233","2020-09-19T09:53:00","FM-15","7",,,,,,,,,,,,,,,,,,,,,,,,,,,,,,,,,,,,,,,"30.05","58","63",,,"-0.04","3","84","30.07","FEW:02 9 BKN:07 16 OVC:08 20","29.58","10.00","60","210",,"11",,,,,,,,,,,,,,,,,,,,,,,,,,,,,,,,,,,,,"MET12509/19/20 09:53:02 METAR KSEA 191753Z 21010KT 10SM FEW009 BKN016 OVC020 17/14 A3005 RMK AO2 SLP182 T01720144 10172 20150 53015","FM-15","7",,,,,,,,,,,,,,,,,,,,,,,,,,,"2007-05-17"
"72793024233","2020-09-19T10:00:00","FM-12","4",,,,,,,,,,,,,,,,,,,,,,,,,,,,,,,,,,,,,,,,"58","63",,,"-0.04","3","84","30.07","8","29.57","9.94","60","210",,"11",,,,,,,,,,,,,,,,,,,,,,,,,,,,,,,,,,,,,"SYN08072793 32366 82110 10172 20144 30013 40182 53015 91753 333 10172 20150 555 91918=","FM-12","4",,,,,,,,,,,,,,,,,,,,,,,,,,,"2007-05-17"
"72793024233","2020-09-19T10:53:00","FM-15","7",,,,,,,,,,,,,,,,,,,,,,,,,,,,,,,,,,,,,,,"30.06","58","64",,,,,"81","30.07","BKN:07 16 OVC:08 20","29.59","10.00","60","200",,"10",,,,,,,,,,,,,,,,,,,,,,,,,,,,,,,,,,,,,"MET10009/19/20 10:53:02 METAR KSEA 191853Z 20009KT 10SM BKN016 OVC020 18/14 A3006 RMK AO2 SLP184 T01780144","FM-15","7",,,,,,,,,,,,,,,,,,,,,,,,,,,"2007-05-17"
"72793024233","2020-09-19T11:53:00","FM-15","7",,,,,,,,,,,,,,,,,,,,,,,,,,,,,,,,,,,,,,,"30.06","57","66",,,,,"73","30.08","BKN:07 23 OVC:08 28","29.59","10.00","61","200",,"10",,,,,,,,,,,,,,,,,,,,,,,,,,,,,,,,,,,,,"MET10009/19/20 11:53:02 METAR KSEA 191953Z 20009KT 10SM BKN023 OVC028 19/14 A3006 RMK AO2 SLP185 T01890139","FM-15","7",,,,,,,,,,,,,,,,,,,,,,,,,,,"2007-05-17"
"72793024233","2020-09-19T12:53:00","FM-15","7",,,,,,,,,,,,,,,,,,,,,,,,,,,,,,,,,,,,,,,"30.06","57","70",,,"-0.03","3","64","30.07","FEW:02 23 BKN:07 29 OVC:08 95","29.59","10.00","62","220",,"13",,,,,,,,,,,,,,,,,,,,,,,,,,,,,,,,,,,,,"MET11309/19/20 12:53:02 METAR KSEA 192053Z 22011KT 10SM FEW023 BKN029 OVC095 21/14 A3006 RMK AO2 SLP183 T02110139 53010","FM-15","7",,,,,,,,,,,,,,,,,,,,,,,,,,,"2007-05-17"
"72793024233","2020-09-19T13:06:00","FM-16","7",,,,,,,,,,,,,,,,,,,,,,,,,,,,,,,,,,,,,,,"30.06","56","69",,,,,"63",,"FEW:02 25 OVC:08 30","29.59","10.00","61","220",,"16",,,,,,,,,,,,,,,,,,,,,,,,,,,,,,,,,,,,,"MET09309/19/20 13:06:02 SPECI KSEA 192106Z 22014KT 10SM FEW025 OVC030 21/13 A3006 RMK AO2 T02060133","FM-16","7",,,,,,,,,,,,,,,,,,,,,,,,,,,"2007-05-17"
"72793024233","2020-09-19T13:53:00","FM-15","7",,,,,,,,,,,,,,,,,,,,,,,,,,,,,,,,,,,,,,,"30.05","56","69",,,,,"63","30.07","FEW:02 25 SCT:04 30 BKN:07 100","29.58","10.00","61","200",,"13",,,,,,,,,,,,,,,,,,,,,,,,,,,,,,,,,,,,,"MET10709/19/20 13:53:02 METAR KSEA 192153Z 20011KT 10SM FEW025 SCT030 BKN100 21/13 A3005 RMK AO2 SLP182 T02060133","FM-15","7",,,,,,,,,,,,,,,,,,,,,,,,,,,"2007-05-17"
"72793024233","2020-09-19T14:53:00","FM-15","7",,,,,,,,,,,,,,,,,,,,,,,,,,,,,,,,,,,,,,,"30.05","55","71",,,,,"57","30.06","SCT:04 35 SCT:04 100","29.58","10.00","62","200",,"10",,,,,,,,,,,,,,,,,,,,,,,,,,,,,,,,,,,,,"MET10009/19/20 14:53:02 METAR KSEA 192253Z 20009KT 10SM SCT035 SCT100 22/13 A3005 RMK AO2 SLP180 T02170128","FM-15","7",,,,,,,,,,,,,,,,,,,,,,,,,,,"2007-05-17"
"72793024233","2020-09-19T16:53:00","FM-15","7",,,,,,,,,,,,,,,,,,,,,,,,,,,,,,,,,,,,,,,"30.05","56","66",,,,,"70","30.06","FEW:02 25 BKN:07 44 BKN:07 80","29.58","10.00","60","220",,"13",,,,,,,,,,,,,,,,,,,,,,,,,,,,,,,,,,,,,"MET10709/19/20 16:53:01 METAR KSEA 200053Z 22011KT 10SM FEW025 BKN044 BKN080 19/13 A3005 RMK AO2 SLP181 T01890133","FM-15","7",,,,,,,,,,,,,,,,,,,,,,,,,,,"2007-05-17"
"72793024233","2020-09-19T17:44:00","FM-15","4",,,,,,,,,,,,,,,,,,,,,,,,,,,,,,,,,,,,,,,"30.06","57","63",,,,,"81",,,,"10.00",,"270",,"8",,,,,,,,,,,,,,,,,,,,,,,,,,,,,,,,,,,,,"MET083METAR KSEA 200144Z 27007KT 10SM FEW002 SCT033 BKN080 17/14 A3006 RMK AO2 T01720139=","FM-15","4",,,,,,,,,,,,,,,,,,,,,,,,,,,"2007-05-17"
"72793024233","2020-09-19T17:53:00","FM-15","7",,,,,,,,,,,,,,,,,,,,,,,,,,,,,,,,,,,,,,,"30.06","57","62",,,,,"84","30.08","FEW:02 2 SCT:04 33 OVC:08 80","29.59","10.00","59","260",,"8",,,,,,,,,,,,,,,,,,,,,,,,,,,,,,,,,,,,,"MET10709/19/20 17:53:01 METAR KSEA 200153Z 26007KT 10SM FEW002 SCT033 OVC080 17/14 A3006 RMK AO2 SLP185 T01670139","FM-15","7",,,,,,,,,,,,,,,,,,,,,,,,,,,"2007-05-17"
"72793024233","2020-09-19T18:13:00","FM-16","7",,,,,,,,,,,,,,,,,,,,,,,,,,,,,,,,,,,,,,,"30.07","57","59",,,,,"93",,"FEW:02 4 BKN:07 24 OVC:08 80","29.60","10.00","58","280",,"5",,,,,,,,,,,,,,,,,,,,,,,,,,,,,,,,,,,,,"MET10009/19/20 18:13:01 SPECI KSEA 200213Z 28004KT 10SM FEW004 BKN024 OVC080 15/14 A3007 RMK AO2 T01500139","FM-16","7",,,,,,,,,,,,,,,,,,,,,,,,,,,"2007-05-17"
"72793024233","2020-09-19T18:53:00","FM-15","7",,,,,,,,,,,,,,,,,,,,,,,,,,,,,,,,,,,,,,,"30.08","58","60",,"-RA:02 |RA |RA","-0.04","3","93","30.09","SCT:04 4 BKN:07 8 OVC:08 19","29.61","8.00","59","310",,"10",,,,,,,,,,,,,,,,,,,,,,,,,,,,,,,,,,,,,"MET13209/19/20 18:53:01 METAR KSEA 200253Z 31009KT 8SM -RA SCT004 BKN008 OVC019 16/14 A3008 RMK AO2 RAB47 SLP191 6//// T01560144 53013 PNO","FM-15","7",,,,,,,,,,,,,,,,,,,,,,,,,,,"2007-05-17"
"72793024233","2020-09-19T19:41:00","FM-16","7",,,,,,,,,,,,,,,,,,,,,,,,,,,,,,,,,,,,,,,"30.10","59","60","T","-RA:02 BR:1 |RA |RA",,,"96",,"SCT:04 5 BKN:07 10 OVC:08 19","29.63","5.00","59","000",,"0",,,,,,,,,,,,,,,,,,,,,,,,,,,,,,,,,,,,,"MET11209/19/20 19:41:02 SPECI KSEA 200341Z 00000KT 5SM -RA BR SCT005 BKN010 OVC019 16/15 A3010 RMK AO2 P0000 T01560150","FM-16","7",,,,,,,,,,,,,,,,,,,,,,,,,,,"2007-05-17"
"72793024233","2020-09-19T19:53:00","FM-15","7",,,,,,,,,,,,,,,,,,,,,,,,,,,,,,,,,,,,,,,"30.10","59","60","T",,,,"96","30.11","SCT:04 3 BKN:07 7 OVC:08 19","29.63","7.00","59","000",,"0",,,,,,,,,,,,,,,,,,,,,,,,,,,,,,,,,,,,,"MET11809/19/20 19:53:02 METAR KSEA 200353Z 00000KT 7SM SCT003 BKN007 OVC019 16/15 A3010 RMK AO2 RAE51 SLP198 P0000 T01560150","FM-15","7",,,,,,,,,,,,,,,,,,,,,,,,,,,"2007-05-17"
"72793024233","2020-09-19T20:53:00","FM-15","7",,,,,,,,,,,,,,,,,,,,,,,,,,,,,,,,,,,,,,,"30.10","59","61","T","-RA:02 |RA |RA",,,"93","30.12","FEW:02 6 BKN:07 11 OVC:08 20","29.63","10.00","60","110",,"7",,,,,,,,,,,,,,,,,,,,,,,,,,,,,,,,,,,,,"MET12509/19/20 20:53:02 METAR KSEA 200453Z 11006KT 10SM -RA FEW006 BKN011 OVC020 16/15 A3010 RMK AO2 RAB0355 SLP199 P0000 T01610150","FM-15","7",,,,,,,,,,,,,,,,,,,,,,,,,,,"2007-05-17"
"72793024233","2020-09-19T21:53:00","FM-15","7",,,,,,,,,,,,,,,,,,,,,,,,,,,,,,,,,,,,,,,"30.11","58","61","T",,"-0.04","3","90","30.12","SCT:04 5 BKN:07 11 OVC:08 20","29.64","7.00","59","120",,"3",,,,,,,,,,,,,,,,,,,,,,,,,,,,,,,,,,,,,"MET14209/19/20 21:53:02 METAR KSEA 200553Z 12003KT 7SM SCT005 BKN011 OVC020 16/14 A3011 RMK AO2 RAE08 SLP200 P0000 6//// T01610144 10222 20150 53013","FM-15","7",,,,,,,,,,,,,,,,,,,,,,,,,,,"2007-05-17"
"72793024233","2020-09-19T22:00:00","FM-12","4",,,,,,,,,,,,,,,,,,,,,,,,,,,,,,,,,,,,,,,,"58","61",,,"-0.04","3","90","30.12","5","29.63","6.84","59","120",,"3",,,,,,,,,,,,,,,,,,,,,,,,,,,,,,,,,,,,,"SYN08072793 32261 81203 10161 20144 30033 40200 53013 90553 333 10222 20150 555 92006=","FM-12","4",,,,,,,,,,,,,,,,,,,,,,,,,,,"2007-05-17"
"72793024233","2020-09-19T22:53:00","FM-15","7",,,,,,,,,,,,,,,,,,,,,,,,,,,,,,,,,,,,,,,"30.11","58","61","T","-RA:02 |RA |RA",,,"90","30.12","SCT:04 5 BKN:07 11 OVC:08 17","29.64","7.00","59","100",,"3",,,,,,,,,,,,,,,,,,,,,,,,,,,,,,,,,,,,,"MET12209/19/20 22:53:02 METAR KSEA 200653Z 10003KT 7SM -RA SCT005 BKN011 OVC017 16/14 A3011 RMK AO2 RAB40 SLP201 P0000 T01610144","FM-15","7",,,,,,,,,,,,,,,,,,,,,,,,,,,"2007-05-17"
"72793024233","2020-09-19T23:53:00","FM-15","7",,,,,,,,,,,,,,,,,,,,,,,,,,,,,,,,,,,,,,,"30.11","58","61","0.03","-RA:02 BR:1 |RA |RA",,,"90","30.12","SCT:04 7 BKN:07 11 OVC:08 17","29.64","3.00","59","000",,"0",,,,,,,,,,,,,,,,,,,,,,,,,,,,,,,,,,,,,"MET12909/19/20 23:53:02 METAR KSEA 200753Z 00000KT 3SM -RA BR SCT007 BKN011 OVC017 16/14 A3011 RMK AO2 SLP199 P0003 T01610144 402220150","FM-15","7",,,,,,,,,,,,,,,,,,,,,,,,,,,"2007-05-17"
"72793024233","2020-09-19T23:59:00","SOD  ","6",,,,,,,,,,,,,,,,,"58","66","83","30.05","29.58","60","9.7","1","5.4","0","72","59",,"2237","0.04","0","0.0","220","16","RA DZ BR",,,,,,,,,,,,,,,,,,,,,,,,,,,,,,,,,,,,,,,,,,,,,,,,,,,,,,,"SOD40924 HR PRECIPITATION (IN): 0.04 SNOW DEPTH (IN):0     24 HR SNOWFALL (IN):0.0  WEATHER(CODE):1  24 HR MAX TEMP (F): 7224 HR MIN TEMP (F): 59AVERAGE STATION PRESSURE(D):29.580  FASTEST 2MIN SPEED (MPH): 13FASTEST 2MIN DIR (DEG):220 FASTEST 2MIN TIME (LST):     AVERAGE WIND SPEED (MPH): 9.7 24 HR AVG TEMP (F): 66DEPART FROM NORMAL:  5  SKY COVER SR-SS (TENTHS): 1HEATING DEGREE DAYS:  0 COOLING DEGREE DAYS:  1","SOD  ","6",,,,,,,,,,,,,,,,,,,,,,,,,"0553","1811","2007-05-17"
"72793024233","2020-09-20T00:53:00","FM-15","7",,,,,,,,,,,,,,,,,,,,,,,,,,,,,,,,,,,,,,,"30.10","58","60","0.06","-RA:02 BR:1 |RA |RA","+0.00","7","93","30.12","SCT:04 7 BKN:07 11 OVC:08 16","29.63","5.00","59","150",,"3",,,,,,,,,,,,,,,,,,,,,,,,,,,,,,,,,,,,,"MET13109/20/20 00:53:02 METAR KSEA 200853Z 15003KT 5SM -RA BR SCT007 BKN011 OVC016 16/14 A3010 RMK AO2 SLP199 P0006 60009 T01560144 57001","FM-15","7",,,,,,,,,,,,,,,,,,,,,,,,,,,"2007-05-17"
"72793024233","2020-09-20T01:42:00","FM-16","7",,,,,,,,,,,,,,,,,,,,,,,,,,,,,,,,,,,,,,,"30.10","57","59","T","BR:1 ||",,,"93",,"FEW:02 7 OVC:08 20","29.63","5.00","58","180",,"5",,,,,,,,,,,,,,,,,,,,,,,,,,,,,,,,,,,,,"MET10709/20/20 01:42:02 SPECI KSEA 200942Z 18004KT 5SM BR FEW007 OVC020 15/14 A3010 RMK AO2 RAE41 P0000 T01500139","FM-16","7",,,,,,,,,,,,,,,,,,,,,,,,,,,"2007-05-17"
"72793024233","2020-09-20T01:53:00","FM-15","7",,,,,,,,,,,,,,,,,,,,,,,,,,,,,,,,,,,,,,,"30.10","57","59","T","BR:1 ||",,,"93","30.11","FEW:02 7 OVC:08 20","29.63","5.00","58","220",,"5",,,,,,,,,,,,,,,,,,,,,,,,,,,,,,,,,,,,,"MET11409/20/20 01:53:02 METAR KSEA 200953Z 22004KT 5SM BR FEW007 OVC020 15/14 A3010 RMK AO2 RAE41 SLP198 P0000 T01500139","FM-15","7",,,,,,,,,,,,,,,,,,,,,,,,,,,"2007-05-17"
"72793024233","2020-09-20T02:53:00","FM-15","7",,,,,,,,,,,,,,,,,,,,,,,,,,,,,,,,,,,,,,,"30.10","58","59","0.01","-RA:02 BR:1 |RA |RA",,,"96","30.11","FEW:02 7 OVC:08 23","29.63","3.00","58","220",,"5",,,,,,,,,,,,,,,,,,,,,,,,,,,,,,,,,,,,,"MET12609/20/20 02:53:02 METAR KSEA 201053Z 22004KT 3SM -RA BR FEW007 OVC023 15/14 A3010 RMK AO2 RAB0956E07B26 SLP197 P0001 T01500144","FM-15","7",,,,,,,,,,,,,,,,,,,,,,,,,,,"2007-05-17"
"72793024233","2020-09-20T03:53:00","FM-15","7",,,,,,,,,,,,,,,,,,,,,,,,,,,,,,,,,,,,,,,"30.10","57","58","T","BR:1 ||","+0.00","7","97","30.11","FEW:02 7 OVC:08 20","29.63","6.00","57","000",,"0",,,,,,,,,,,,,,,,,,,,,,,,,,,,,,,,,,,,,"MET14409/20/20 03:53:02 METAR KSEA 201153Z 00000KT 6SM BR FEW007 OVC020 14/14 A3010 RMK AO2 RAE41 SLP196 P0000 60010 7//// T01440139 10167 20144 57001","FM-15","7",,,,,,,,,,,,,,,,,,,,,,,,,,,"2007-05-17"
"72793024233","2020-09-20T04:00:00","FM-12","4",,,,,,,,,,,,,,,,,,,,,,,,,,,,,,,,,,,,,,,,"57","58",,,"+0.00","7","97","30.11","8","29.62","5.59","57","000",,"0",,,,,,,,,,,,,,,,,,,,,,,,,,,,,,,,,,,,,"SYN09272793 11359 80000 10144 20139 30029 40196 57001 60031 710// 91153 333 10222 20144 555 92012=","FM-12","4",,,,,,,,,,,,,,,,,,,,,,,,,,,"2007-05-17"
"72793024233","2020-09-20T04:53:00","FM-15","7",,,,,,,,,,,,,,,,,,,,,,,,,,,,,,,,,,,,,,,"30.10","57","59",,,,,"93","30.11","FEW:02 7 BKN:07 29 BKN:07 42","29.63","10.00","58","160",,"5",,,,,,,,,,,,,,,,,,,,,,,,,,,,,,,,,,,,,"MET10709/20/20 04:53:02 METAR KSEA 201253Z 16004KT 10SM FEW007 BKN029 BKN042 15/14 A3010 RMK AO2 SLP197 T01500139","FM-15","7",,,,,,,,,,,,,,,,,,,,,,,,,,,"2007-05-17"
"72793024233","2020-09-20T05:53:00","FM-15","7",,,,,,,,,,,,,,,,,,,,,,,,,,,,,,,,,,,,,,,"30.09","57","59",,,,,"93","30.11","SCT:04 8 SCT:04 29 OVC:08 42","29.62","10.00","58","170",,"3",,,,,,,,,,,,,,,,,,,,,,,,,,,,,,,,,,,,,"MET10709/20/20 05:53:02 METAR KSEA 201353Z 17003KT 10SM SCT008 SCT029 OVC042 15/14 A3009 RMK AO2 SLP196 T01500139","FM-15","7",,,,,,,,,,,,,,,,,,,,,,,,,,,"2007-05-17"
"72793024233","2020-09-20T06:53:00","FM-15","7",,,,,,,,,,,,,,,,,,,,,,,,,,,,,,,,,,,,,,,"30.10","57","58",,,"+0.01","6","97","30.11","FEW:02 8 BKN:07 16 OVC:08 41","29.63","10.00","57","190",,"3",,,,,,,,,,,,,,,,,,,,,,,,,,,,,,,,,,,,,"MET11309/20/20 06:53:02 METAR KSEA 201453Z 19003KT 10SM FEW008 BKN016 OVC041 14/14 A3010 RMK AO2 SLP198 T01440139 56002","FM-15","7",,,,,,,,,,,,,,,,,,,,,,,,,,,"2007-05-17"
"72793024233","2020-09-20T07:53:00","FM-15","7",,,,,,,,,,,,,,,,,,,,,,,,,,,,,,,,,,,,,,,"30.11","57","58",,,,,"97","30.13","FEW:02 6 BKN:07 13 OVC:08 21","29.64","10.00","57","200",,"5",,,,,,,,,,,,,,,,,,,,,,,,,,,,,,,,,,,,,"MET10709/20/20 07:53:02 METAR KSEA 201553Z 20004KT 10SM FEW006 BKN013 OVC021 14/14 A3011 RMK AO2 SLP202 T01440139","FM-15","7",,,,,,,,,,,,,,,,,,,,,,,,,,,"2007-05-17"
"72793024233","2020-09-20T08:53:00","FM-15","7",,,,,,,,,,,,,,,,,,,,,,,,,,,,,,,,,,,,,,,"30.11","58","59",,,,,"96","30.13","SCT:04 9 BKN:07 19 OVC:08 39","29.64","10.00","58","210",,"5",,,,,,,,,,,,,,,,,,,,,,,,,,,,,,,,,,,,,"MET10709/20/20 08:53:02 METAR KSEA 201653Z 21004KT 10SM SCT009 BKN019 OVC039 15/14 A3011 RMK AO2 SLP202 T01500144","FM-15","7",,,,,,,,,,,,,,,,,,,,,,,,,,,"2007-05-17"
"72793024233","2020-09-20T09:53:00","FM-15","7",,,,,,,,,,,,,,,,,,,,,,,,,,,,,,,,,,,,,,,"30.11","58","62",,,"-0.01","1","86","30.13","FEW:02 9 BKN:07 22 OVC:08 36","29.64","10.00","60","180",,"6",,,,,,,,,,,,,,,,,,,,,,,,,,,,,,,,,,,,,"MET12509/20/20 09:53:02 METAR KSEA 201753Z 18005KT 10SM FEW009 BKN022 OVC036 17/14 A3011 RMK AO2 SLP202 T01670144 10167 20144 51004","FM-15","7",,,,,,,,,,,,,,,,,,,,,,,,,,,"2007-05-17"
"72793024233","2020-09-20T10:00:00","FM-12","4",,,,,,,,,,,,,,,,,,,,,,,,,,,,,,,,,,,,,,,,"58","62",,,"-0.01","1","86","30.13","8","29.63","9.94","60","180",,"6",,,,,,,,,,,,,,,,,,,,,,,,,,,,,,,,,,,,,"SYN08072793 32366 81805 10167 20144 30033 40202 51004 91753 333 10167 20144 555 92018=","FM-12","4",,,,,,,,,,,,,,,,,,,,,,,,,,,"2007-05-17"
"72793024233","2020-09-20T10:53:00","FM-15","7",,,,,,,,,,,,,,,,,,,,,,,,,,,,,,,,,,,,,,,"30.11","56","64",,,,,"75","30.13","SCT:04 11 OVC:08 29","29.64","10.00","59","000",,"0",,,,,,,,,,,,,,,,,,,,,,,,,,,,,,,,,,,,,"MET10009/20/20 10:53:02 METAR KSEA 201853Z 00000KT 10SM SCT011 OVC029 18/13 A3011 RMK AO2 SLP202 T01780133","FM-15","7",,,,,,,,,,,,,,,,,,,,,,,,,,,"2007-05-17"
"72793024233","2020-09-20T11:53:00","FM-15","7",,,,,,,,,,,,,,,,,,,,,,,,,,,,,,,,,,,,,,,"30.10","55","66",,,,,"68","30.11","FEW:02 23 SCT:04 29 OVC:08 40","29.63","10.00","60","160",,"5",,,,,,,,,,,,,,,,,,,,,,,,,,,,,,,,,,,,,"MET10709/20/20 11:53:02 METAR KSEA 201953Z 16004KT 10SM FEW023 SCT029 OVC040 19/13 A3010 RMK AO2 SLP198 T01890128","FM-15","7",,,,,,,,,,,,,,,,,,,,,,,,,,,"2007-05-17"
"72793024233","2020-09-20T12:53:00","FM-15","7",,,,,,,,,,,,,,,,,,,,,,,,,,,,,,,,,,,,,,,"30.08","54","68",,,"+0.03","8","61","30.09","FEW:02 23 BKN:07 26 BKN:07 42","29.61","10.00","60","VRB",,"6",,,,,,,,,,,,,,,,,,,,,,,,,,,,,,,,,,,,,"MET11309/20/20 12:53:02 METAR KSEA 202053Z VRB05KT 10SM FEW023 BKN026 BKN042 20/12 A3008 RMK AO2 SLP191 T02000122 58010","FM-15","7",,,,,,,,,,,,,,,,,,,,,,,,,,,"2007-05-17"
"72793024233","2020-09-20T13:53:00","FM-15","7",,,,,,,,,,,,,,,,,,,,,,,,,,,,,,,,,,,,,,,"30.06","53","70",,,,,"55","30.07","FEW:02 23 SCT:04 45 BKN:07 250","29.59","10.00","60","260",,"8",,,,,,,,,,,,,,,,,,,,,,,,,,,,,,,,,,,,,"MET10709/20/20 13:53:02 METAR KSEA 202153Z 26007KT 10SM FEW023 SCT045 BKN250 21/12 A3006 RMK AO2 SLP183 T02110117","FM-15","7",,,,,,,,,,,,,,,,,,,,,,,,,,,"2007-05-17"
"72793024233","2020-09-20T14:53:00","FM-15","7",,,,,,,,,,,,,,,,,,,,,,,,,,,,,,,,,,,,,,,"30.04","53","69",,,,,"57","30.05","FEW:02 26 SCT:04 45 BKN:07 250","29.57","10.00","60","250",,"7",,,,,,,,,,,,,,,,,,,,,,,,,,,,,,,,,,,,,"MET10709/20/20 14:53:02 METAR KSEA 202253Z 25006KT 10SM FEW026 SCT045 BKN250 21/12 A3004 RMK AO2 SLP177 T02060117","FM-15","7",,,,,,,,,,,,,,,,,,,,,,,,,,,"2007-05-17"
"72793024233","2020-09-20T15:53:00","FM-15","7",,,,,,,,,,,,,,,,,,,,,,,,,,,,,,,,,,,,,,,"30.02","53","70",,,"+0.06","6","55","30.03","FEW:02 23 BKN:07 250","29.55","10.00","60","VRB",,"5",,,,,,,,,,,,,,,,,,,,,,,,,,,,,,,,,,,,,"MET11809/20/20 15:53:02 METAR KSEA 202353Z VRB04KT 10SM FEW023 BKN250 21/12 A3002 RMK AO2 SLP171 T02110117 10217 20161 56019","FM-15","7",,,,,,,,,,,,,,,,,,,,,,,,,,,"2007-05-17"
"72793024233","2020-09-20T16:00:00","FM-12","4",,,,,,,,,,,,,,,,,,,,,,,,,,,,,,,,,,,,,,,,"53","70",,,"+0.06","6","55","30.03","26","29.54","9.94","60",,,"5",,,,,,,,,,,,,,,,,,,,,,,,,,,,,,,,,,,,,"SYN08072793 32566 6//04 10211 20117 30003 40171 56019 92353 333 10217 20144 555 92100=","FM-12","4",,,,,,,,,,,,,,,,,,,,,,,,,,,"2007-05-17"
"72793024233","2020-09-20T16:53:00","FM-15","7",,,,,,,,,,,,,,,,,,,,,,,,,,,,,,,,,,,,,,,"30.01","52","69",,,,,"55","30.03","FEW:02 30 BKN:07 250","29.54","10.00","59","280",,"5",,,,,,,,,,,,,,,,,,,,,,,,,,,,,,,,,,,,,"MET10009/20/20 16:53:01 METAR KSEA 210053Z 28004KT 10SM FEW030 BKN250 21/11 A3001 RMK AO2 SLP168 T02060111","FM-15","7",,,,,,,,,,,,,,,,,,,,,,,,,,,"2007-05-17"
"72793024233","2020-09-20T17:53:00","FM-15","7",,,,,,,,,,,,,,,,,,,,,,,,,,,,,,,,,,,,,,,"30.01","53","67",,,,,"61","30.03","FEW:02 30 SCT:04 250","29.54","10.00","59","260",,"3",,,,,,,,,,,,,,,,,,,,,,,,,,,,,,,,,,,,,"MET10009/20/20 17:53:01 METAR KSEA 210153Z 26003KT 10SM FEW030 SCT250 19/12 A3001 RMK AO2 SLP168 T01940117","FM-15","7",,,,,,,,,,,,,,,,,,,,,,,,,,,"2007-05-17"
"72793024233","2020-09-20T18:53:00","FM-15","7",,,,,,,,,,,,,,,,,,,,,,,,,,,,,,,,,,,,,,,"30.00","54","64",,,"+0.02","6","70","30.02","FEW:02 30 FEW:02 250","29.53","10.00","58","000",,"0",,,,,,,,,,,,,,,,,,,,,,,,,,,,,,,,,,,,,"MET10609/20/20 18:53:01 METAR KSEA 210253Z 00000KT 10SM FEW030 FEW250 18/12 A3000 RMK AO2 SLP165 T01780122 56007","FM-15","7",,,,,,,,,,,,,,,,,,,,,,,,,,,"2007-05-17"
"72793024233","2020-09-20T19:53:00","FM-15","7",,,,,,,,,,,,,,,,,,,,,,,,,,,,,,,,,,,,,,,"30.01","53","62",,,,,"73","30.02","CLR:00","29.54","10.00","57","000",,"0",,,,,,,,,,,,,,,,,,,,,,,,,,,,,,,,,,,,,"MET09009/20/20 19:53:02 METAR KSEA 210353Z 00000KT 10SM CLR 17/12 A3001 RMK AO2 SLP167 T01670117","FM-15","7",,,,,,,,,,,,,,,,,,,,,,,,,,,"2007-05-17"
"72793024233","2020-09-20T20:53:00","FM-15","7",,,,,,,,,,,,,,,,,,,,,,,,,,,,,,,,,,,,,,,"30.00","54","61",,,,,"78","30.01","CLR:00","29.53","10.00","57","000",,"0",,,,,,,,,,,,,,,,,,,,,,,,,,,,,,,,,,,,,"MET09009/20/20 20:53:02 METAR KSEA 210453Z 00000KT 10SM CLR 16/12 A3000 RMK AO2 SLP163 T01610122","FM-15","7",,,,,,,,,,,,,,,,,,,,,,,,,,,"2007-05-17"
"72793024233","2020-09-20T21:53:00","FM-15","7",,,,,,,,,,,,,,,,,,,,,,,,,,,,,,,,,,,,,,,"29.99","54","62",,,"+0.01","8","75","30.01","CLR:00","29.52","10.00","57","080",,"3",,,,,,,,,,,,,,,,,,,,,,,,,,,,,,,,,,,,,"MET10809/20/20 21:53:02 METAR KSEA 210553Z 08003KT 10SM CLR 17/12 A2999 RMK AO2 SLP161 T01670122 10217 20156 58004","FM-15","7",,,,,,,,,,,,,,,,,,,,,,,,,,,"2007-05-17"
"72793024233","2020-09-20T22:00:00","FM-12","4",,,,,,,,,,,,,,,,,,,,,,,,,,,,,,,,,,,,,,,,"54","62",,,"+0.01","8","75","30.01",,"29.51","9.94","57","080",,"3",,,,,,,,,,,,,,,,,,,,,,,,,,,,,,,,,,,,,"SYN08072793 32966 00803 10167 20122 39993 40161 58004 90553 333 10217 20144 555 92106=","FM-12","4",,,,,,,,,,,,,,,,,,,,,,,,,,,"2007-05-17"
"72793024233","2020-09-20T22:53:00","FM-15","7",,,,,,,,,,,,,,,,,,,,,,,,,,,,,,,,,,,,,,,"29.98","55","60",,,,,"84","30.00","CLR:00","29.51","10.00","57","120",,"6",,,,,,,,,,,,,,,,,,,,,,,,,,,,,,,,,,,,,"MET09009/20/20 22:53:02 METAR KSEA 210653Z 12005KT 10SM CLR 16/13 A2998 RMK AO2 SLP159 T01560128","FM-15","7",,,,,,,,,,,,,,,,,,,,,,,,,,,"2007-05-17"
"72793024233","2020-09-20T23:53:00","FM-15","7",,,,,,,,,,,,,,,,,,,,,,,,,,,,,,,,,,,,,,,"29.97","54","59",,,,,"83","29.99","CLR:00","29.50","10.00","56","000",,"0",,,,,,,,,,,,,,,,,,,,,,,,,,,,,,,,,,,,,"MET10009/20/20 23:53:02 METAR KSEA 210753Z 00000KT 10SM CLR 15/12 A2997 RMK AO2 SLP155 T01500122 402170144","FM-15","7",,,,,,,,,,,,,,,,,,,,,,,,,,,"2007-05-17"
"72793024233","2020-09-20T23:59:00","SOD  ","6",,,,,,,,,,,,,,,,,"55","65","78","30.07","29.59","58","3.6","0","4.7","0","71","58",,"2237","0.07","0","0.0","260","8","RA BR",,,,,,,,,,,,,,,,,,,,,,,,,,,,,,,,,,,,,,,,,,,,,,,,,,,,,,,"SOD38224 HR PRECIPITATION (IN): 0.07 SNOW DEPTH (IN):0     24 HR SNOWFALL (IN):0.0  WEATHER(CODE):1  24 HR MAX TEMP (F): 7124 HR MIN TEMP (F): 58AVERAGE STATION PRESSURE(D):29.593  FASTEST 2MIN SPEED (MPH):  8FASTEST 2MIN DIR (DEG):260 FASTEST 2MIN TIME (LST):     AVERAGE WIND SPEED (MPH): 3.6 24 HR AVG TEMP (F): 65DEPART FROM NORMAL:  5  HEATING DEGREE DAYS:  0 COOLING DEGREE DAYS:  0","SOD  ","6",,,,,,,,,,,,,,,,,,,,,,,,,"0554","1809","2007-05-17"
"72793024233","2020-09-21T00:53:00","FM-15","7",,,,,,,,,,,,,,,,,,,,,,,,,,,,,,,,,,,,,,,"29.96","54","57",,,"+0.03","8","90","29.98","CLR:00","29.49","10.00","55","000",,"0",,,,,,,,,,,,,,,,,,,,,,,,,,,,,,,,,,,,,"MET09609/21/20 00:53:02 METAR KSEA 210853Z 00000KT 10SM CLR 14/12 A2996 RMK AO2 SLP152 T01390122 58009","FM-15","7",,,,,,,,,,,,,,,,,,,,,,,,,,,"2007-05-17"
"72793024233","2020-09-21T01:53:00","FM-15","7",,,,,,,,,,,,,,,,,,,,,,,,,,,,,,,,,,,,,,,"29.96","54","56",,,,,"93","29.97","CLR:00","29.49","10.00","55","190",,"3",,,,,,,,,,,,,,,,,,,,,,,,,,,,,,,,,,,,,"MET09009/21/20 01:53:02 METAR KSEA 210953Z 19003KT 10SM CLR 13/12 A2996 RMK AO2 SLP150 T01330122","FM-15","7",,,,,,,,,,,,,,,,,,,,,,,,,,,"2007-05-17"
"72793024233","2020-09-21T02:53:00","FM-15","7",,,,,,,,,,,,,,,,,,,,,,,,,,,,,,,,,,,,,,,"29.95","53","56",,,,,"90","29.97","CLR:00","29.48","10.00","54","140",,"5",,,,,,,,,,,,,,,,,,,,,,,,,,,,,,,,,,,,,"MET09009/21/20 02:53:02 METAR KSEA 211053Z 14004KT 10SM CLR 13/12 A2995 RMK AO2 SLP148 T01330117","FM-15","7",,,,,,,,,,,,,,,,,,,,,,,,,,,"2007-05-17"
"72793024233","2020-09-21T03:53:00","FM-15","7",,,,,,,,,,,,,,,,,,,,,,,,,,,,,,,,,,,,,,,"29.95","53","55",,,"+0.01","5","93","29.97","SCT:04 250","29.48","10.00","54","000",,"0",,,,,,,,,,,,,,,,,,,,,,,,,,,,,,,,,,,,,"MET11109/21/20 03:53:02 METAR KSEA 211153Z 00000KT 10SM SCT250 13/12 A2995 RMK AO2 SLP149 T01280117 10172 20128 55003","FM-15","7",,,,,,,,,,,,,,,,,,,,,,,,,,,"2007-05-17"
"72793024233","2020-09-21T04:00:00","FM-12","4",,,,,,,,,,,,,,,,,,,,,,,,,,,,,,,,,,,,,,,,"53","55",,,"+0.01","5","93","29.97",,"29.47","9.94","54","000",,"0",,,,,,,,,,,,,,,,,,,,,,,,,,,,,,,,,,,,,"SYN08072793 32966 40000 10128 20117 39979 40149 55003 91153 333 10217 20128 555 92112=","FM-12","4",,,,,,,,,,,,,,,,,,,,,,,,,,,"2007-05-17"
"72793024233","2020-09-21T04:53:00","FM-15","7",,,,,,,,,,,,,,,,,,,,,,,,,,,,,,,,,,,,,,,"29.96","53","54",,,,,"97","29.97","SCT:04 250","29.49","7.00","53","200",,"3",,,,,,,,,,,,,,,,,,,,,,,,,,,,,,,,,,,,,"MET09209/21/20 04:53:02 METAR KSEA 211253Z 20003KT 7SM SCT250 12/12 A2996 RMK AO2 SLP149 T01220117","FM-15","7",,,,,,,,,,,,,,,,,,,,,,,,,,,"2007-05-17"
"72793024233","2020-09-21T05:53:00","FM-15","7",,,,,,,,,,,,,,,,,,,,,,,,,,,,,,,,,,,,,,,"29.96","53","55",,"BC:3 FG:2 |FG |",,,"93","29.98","FEW:02 4 BKN:07 200","29.49","10.00","54","160",,"3",,,,,,,,,,,,,,,,,,,,,,,,,,,,,,,,,,,,,"MET10509/21/20 05:53:02 METAR KSEA 211353Z 16003KT 10SM BCFG FEW004 BKN200 13/12 A2996 RMK AO2 SLP151 T01280117","FM-15","7",,,,,,,,,,,,,,,,,,,,,,,,,,,"2007-05-17"
"72793024233","2020-09-21T06:53:00","FM-15","7",,,,,,,,,,,,,,,,,,,,,,,,,,,,,,,,,,,,,,,"29.96","52","56",,,"-0.01","3","87","29.98","FEW:02 4 BKN:07 170","29.49","10.00","54","130",,"7",,,,,,,,,,,,,,,,,,,,,,,,,,,,,,,,,,,,,"MET10609/21/20 06:53:02 METAR KSEA 211453Z 13006KT 10SM FEW004 BKN170 13/11 A2996 RMK AO2 SLP152 T01330111 53003","FM-15","7",,,,,,,,,,,,,,,,,,,,,,,,,,,"2007-05-17"
"72793024233","2020-09-21T07:53:00","FM-15","7",,,,,,,,,,,,,,,,,,,,,,,,,,,,,,,,,,,,,,,"29.98","53","57",,,,,"87","29.99","FEW:02 4 BKN:07 130 BKN:07 180","29.51","10.00","55","170",,"6",,,,,,,,,,,,,,,,,,,,,,,,,,,,,,,,,,,,,"MET10709/21/20 07:53:02 METAR KSEA 211553Z 17005KT 10SM FEW004 BKN130 BKN180 14/12 A2998 RMK AO2 SLP157 T01390117","FM-15","7",,,,,,,,,,,,,,,,,,,,,,,,,,,"2007-05-17"
"72793024233","2020-09-21T08:53:00","FM-15","7",,,,,,,,,,,,,,,,,,,,,,,,,,,,,,,,,,,,,,,"29.99","55","57",,,,,"93","30.01","FEW:02 5 BKN:07 120 BKN:07 180","29.52","10.00","56","270",,"5",,,,,,,,,,,,,,,,,,,,,,,,,,,,,,,,,,,,,"MET10709/21/20 08:53:02 METAR KSEA 211653Z 27004KT 10SM FEW005 BKN120 BKN180 14/13 A2999 RMK AO2 SLP161 T01390128","FM-15","7",,,,,,,,,,,,,,,,,,,,,,,,,,,"2007-05-17"
"72793024233","2020-09-21T09:53:00","FM-15","7",,,,,,,,,,,,,,,,,,,,,,,,,,,,,,,,,,,,,,,"29.98","55","60",,,"-0.02","0","84","30.00","FEW:02 5 BKN:07 120 OVC:08 170","29.51","10.00","57","240",,"5",,,,,,,,,,,,,,,,,,,,,,,,,,,,,,,,,,,,,"MET12509/21/20 09:53:02 METAR KSEA 211753Z 24004KT 10SM FEW005 BKN120 OVC170 16/13 A2998 RMK AO2 SLP159 T01560128 10161 20122 50007","FM-15","7",,,,,,,,,,,,,,,,,,,,,,,,,,,"2007-05-17"
"72793024233","2020-09-21T10:00:00","FM-12","4",,,,,,,,,,,,,,,,,,,,,,,,,,,,,,,,,,,,,,,,"55","60",,,"0.02","9","84","30.00","5","29.50","9.94","57","240",,"5",,,,,,,,,,,,,,,,,,,,,,,,,,,,,,,,,,,,,"SYN08072793 32266 82404 10156 20128 39989 40159 50007 91753 333 10172 20122 555 92118=","FM-12","4",,,,,,,,,,,,,,,,,,,,,,,,,,,"2007-05-17"
"72793024233","2020-09-21T10:53:00","FM-15","7",,,,,,,,,,,,,,,,,,,,,,,,,,,,,,,,,,,,,,,"29.96","55","64",,,,,"73","29.98","FEW:02 7 BKN:07 130 BKN:07 180","29.49","10.00","59","000",,"0",,,,,,,,,,,,,,,,,,,,,,,,,,,,,,,,,,,,,"MET10709/21/20 10:53:02 METAR KSEA 211853Z 00000KT 10SM FEW007 BKN130 BKN180 18/13 A2996 RMK AO2 SLP152 T01780128","FM-15","7",,,,,,,,,,,,,,,,,,,,,,,,,,,"2007-05-17"
"72793024233","2020-09-21T11:53:00","FM-15","7",,,,,,,,,,,,,,,,,,,,,,,,,,,,,,,,,,,,,,,"29.97","54","64",,,,,"70","29.99","FEW:02 12 BKN:07 70 BKN:07 130","29.50","10.00","58","240",,"7",,,,,,,,,,,,,,,,,,,,,,,,,,,,,,,,,,,,,"MET10709/21/20 11:53:02 METAR KSEA 211953Z 24006KT 10SM FEW012 BKN070 BKN130 18/12 A2997 RMK AO2 SLP155 T01780122","FM-15","7",,,,,,,,,,,,,,,,,,,,,,,,,,,"2007-05-17"
"72793024233","2020-09-21T12:53:00","FM-15","7",,,,,,,,,,,,,,,,,,,,,,,,,,,,,,,,,,,,,,,"29.97","55","67",,,"+0.02","6","66","29.98","FEW:02 20 BKN:07 75 BKN:07 130","29.50","10.00","60","000",,"0",,,,,,,,,,,,,,,,,,,,,,,,,,,,,,,,,,,,,"MET11309/21/20 12:53:02 METAR KSEA 212053Z 00000KT 10SM FEW020 BKN075 BKN130 19/13 A2997 RMK AO2 SLP153 T01940128 56006","FM-15","7",,,,,,,,,,,,,,,,,,,,,,,,,,,"2007-05-17"
"72793024233","2020-09-21T13:53:00","FM-15","7",,,,,,,,,,,,,,,,,,,,,,,,,,,,,,,,,,,,,,,"29.96","55","68",,,,,"63","29.98","FEW:02 20 BKN:07 60 BKN:07 150","29.49","10.00","60","180",,"6",,,,,,,,,,,,,,,,,,,,,,,,,,,,,,,,,,,,,"MET10709/21/20 13:53:02 METAR KSEA 212153Z 18005KT 10SM FEW020 BKN060 BKN150 20/13 A2996 RMK AO2 SLP151 T02000128","FM-15","7",,,,,,,,,,,,,,,,,,,,,,,,,,,"2007-05-17"
"72793024233","2020-09-21T14:53:00","FM-15","7",,,,,,,,,,,,,,,,,,,,,,,,,,,,,,,,,,,,,,,"29.96","55","69",,,,,"61","29.98","SCT:04 65 BKN:07 85 OVC:08 180","29.49","10.00","61","180",,"8",,,,,,,,,,,,,,,,,,,,,,,,,,,,,,,,,,,,,"MET10709/21/20 14:53:02 METAR KSEA 212253Z 18007KT 10SM SCT065 BKN085 OVC180 20/13 A2996 RMK AO2 SLP151 T02060128","FM-15","7",,,,,,,,,,,,,,,,,,,,,,,,,,,"2007-05-17"
"72793024233","2020-09-21T15:53:00","FM-15","7",,,,,,,,,,,,,,,,,,,,,,,,,,,,,,,,,,,,,,,"29.95","55","69",,,"+0.02","8","61","29.97","FEW:02 65 BKN:07 80 BKN:07 180","29.48","10.00","61","170",,"8",,,,,,,,,,,,,,,,,,,,,,,,,,,,,,,,,,,,,"MET12509/21/20 15:53:02 METAR KSEA 212353Z 17007KT 10SM FEW065 BKN080 BKN180 21/13 A2995 RMK AO2 SLP148 T02060128 10211 20156 58006","FM-15","7",,,,,,,,,,,,,,,,,,,,,,,,,,,"2007-05-17"
"72793024233","2020-09-21T16:00:00","FM-12","4",,,,,,,,,,,,,,,,,,,,,,,,,,,,,,,,,,,,,,,,"55","69",,,"+0.02","8","61","29.97","57","29.47","9.94","61","170",,"8",,,,,,,,,,,,,,,,,,,,,,,,,,,,,,,,,,,,,"SYN08072793 32766 61707 10206 20128 39979 40148 58006 92353 333 10211 20128 555 92200=","FM-12","4",,,,,,,,,,,,,,,,,,,,,,,,,,,"2007-05-17"
"72793024233","2020-09-21T16:53:00","FM-15","7",,,,,,,,,,,,,,,,,,,,,,,,,,,,,,,,,,,,,,,"29.96","55","69",,,,,"61","29.97","SCT:04 55 BKN:07 85 BKN:07 180","29.49","10.00","61","180",,"7",,,,,,,,,,,,,,,,,,,,,,,,,,,,,,,,,,,,,"MET10709/21/20 16:53:01 METAR KSEA 220053Z 18006KT 10SM SCT055 BKN085 BKN180 21/13 A2996 RMK AO2 SLP149 T02060128","FM-15","7",,,,,,,,,,,,,,,,,,,,,,,,,,,"2007-05-17"
"72793024233","2020-09-21T17:53:00","FM-15","7",,,,,,,,,,,,,,,,,,,,,,,,,,,,,,,,,,,,,,,"29.95","56","68",,,,,"65","29.97","FEW:02 50 BKN:07 90 BKN:07 180","29.48","10.00","61","170",,"6",,,,,,,,,,,,,,,,,,,,,,,,,,,,,,,,,,,,,"MET10709/21/20 17:53:01 METAR KSEA 220153Z 17005KT 10SM FEW050 BKN090 BKN180 20/13 A2995 RMK AO2 SLP148 T02000133","FM-15","7",,,,,,,,,,,,,,,,,,,,,,,,,,,"2007-05-17"
"72793024233","2020-09-21T18:53:00","FM-15","7",,,,,,,,,,,,,,,,,,,,,,,,,,,,,,,,,,,,,,,"29.96","56","67",,,,,"68","29.98","BKN:07 80 BKN:07 200","29.49","10.00","61","190",,"6",,,,,,,,,,,,,,,,,,,,,,,,,,,,,,,,,,,,,"MET10009/21/20 18:53:01 METAR KSEA 220253Z 19005KT 10SM BKN080 BKN200 19/13 A2996 RMK AO2 SLP151 T01940133","FM-15","7",,,,,,,,,,,,,,,,,,,,,,,,,,,"2007-05-17"
"72793024233","2020-09-21T19:53:00","FM-15","7",,,,,,,,,,,,,,,,,,,,,,,,,,,,,,,,,,,,,,,"29.97","56","67",,,,,"68","29.98","FEW:02 30 BKN:07 80 OVC:08 200","29.50","10.00","61","220",,"6",,,,,,,,,,,,,,,,,,,,,,,,,,,,,,,,,,,,,"MET10709/21/20 19:53:02 METAR KSEA 220353Z 22005KT 10SM FEW030 BKN080 OVC200 19/13 A2997 RMK AO2 SLP153 T01940133","FM-15","7",,,,,,,,,,,,,,,,,,,,,,,,,,,"2007-05-17"
"72793024233","2020-09-21T20:53:00","FM-15","7",,,,,,,,,,,,,,,,,,,,,,,,,,,,,,,,,,,,,,,"29.97","55","65",,,,,"70","29.99","FEW:02 29 BKN:07 90 OVC:08 160","29.50","10.00","59","250",,"6",,,,,,,,,,,,,,,,,,,,,,,,,,,,,,,,,,,,,"MET10709/21/20 20:53:02 METAR KSEA 220453Z 25005KT 10SM FEW029 BKN090 OVC160 18/13 A2997 RMK AO2 SLP155 T01830128","FM-15","7",,,,,,,,,,,,,,,,,,,,,,,,,,,"2007-05-17"
"72793024233","2020-09-21T21:53:00","FM-15","7",,,,,,,,,,,,,,,,,,,,,,,,,,,,,,,,,,,,,,,"29.97","56","65",,,"-0.01","0","73","29.98","BKN:07 39 OVC:08 90","29.50","10.00","60","000",,"0",,,,,,,,,,,,,,,,,,,,,,,,,,,,,,,,,,,,,"MET11809/21/20 21:53:02 METAR KSEA 220553Z 00000KT 10SM BKN039 OVC090 18/13 A2997 RMK AO2 SLP154 T01830133 10206 20183 50003","FM-15","7",,,,,,,,,,,,,,,,,,,,,,,,,,,"2007-05-17"
"72793024233","2020-09-21T22:00:00","FM-12","4",,,,,,,,,,,,,,,,,,,,,,,,,,,,,,,,,,,,,,,,"56","65",,,"0.01","9","73","29.98","41","29.49","9.94","60","000",,"0",,,,,,,,,,,,,,,,,,,,,,,,,,,,,,,,,,,,,"SYN08072793 32666 80000 10183 20133 39986 40154 50003 90553 333 10206 20128 555 92206=","FM-12","4",,,,,,,,,,,,,,,,,,,,,,,,,,,"2007-05-17"
"72793024233","2020-09-21T22:53:00","FM-15","7",,,,,,,,,,,,,,,,,,,,,,,,,,,,,,,,,,,,,,,"29.98","56","64",,,,,"75","29.99","BKN:07 34 OVC:08 45","29.51","10.00","59","220",,"5",,,,,,,,,,,,,,,,,,,,,,,,,,,,,,,,,,,,,"MET10009/21/20 22:53:02 METAR KSEA 220653Z 22004KT 10SM BKN034 OVC045 18/13 A2998 RMK AO2 SLP156 T01780133","FM-15","7",,,,,,,,,,,,,,,,,,,,,,,,,,,"2007-05-17"
"72793024233","2020-09-21T23:53:00","FM-15","7",,,,,,,,,,,,,,,,,,,,,,,,,,,,,,,,,,,,,,,"29.98","58","62",,,,,"86","30.00","BKN:07 33 OVC:08 41","29.51","10.00","60","200",,"7",,,,,,,,,,,,,,,,,,,,,,,,,,,,,,,,,,,,,"MET11009/21/20 23:53:02 METAR KSEA 220753Z 20006KT 10SM BKN033 OVC041 17/14 A2998 RMK AO2 SLP158 T01670144 402110122","FM-15","7",,,,,,,,,,,,,,,,,,,,,,,,,,,"2007-05-17"
"72793024233","2020-09-21T23:59:00","SOD  ","6",,,,,,,,,,,,,,,,,"55","62","77","29.98","29.50","58","4.5","0","1.9","3","70","54","230","14","0.00","0","0.0","180","10","FG",,,,,,,,,,,,,,,,,,,,,,,,,,,,,,,,,,,,,,,,,,,,,,,,,,,,,,,"SOD45824 HR PRECIPITATION (IN): 0.00 SNOW DEPTH (IN):0     24 HR SNOWFALL (IN):0.0  WEATHER(CODE):1  24 HR MAX TEMP (F): 7024 HR MIN TEMP (F): 54AVERAGE STATION PRESSURE(D):29.499 PEAK WIND SPEED (MPH): 14 PEAK WIND DIR (DEG):230 PEAK WIND TIME (LST):      FASTEST 2MIN SPEED (MPH): 10FASTEST 2MIN DIR (DEG):180 FASTEST 2MIN TIME (LST):     AVERAGE WIND SPEED (MPH): 4.5 24 HR AVG TEMP (F): 62DEPART FROM NORMAL:  2  HEATING DEGREE DAYS:  3 COOLING DEGREE DAYS:  0","SOD  ","6",,,,,,,,,,,,,,,,,,,,,,,,,"0556","1807","2007-05-17"
"72793024233","2020-09-22T00:53:00","FM-15","7",,,,,,,,,,,,,,,,,,,,,,,,,,,,,,,,,,,,,,,"29.99","57","62","0.00",,"-0.02","1","84","30.00","BKN:07 30 OVC:08 37","29.52","10.00","59","190",,"5",,,,,,,,,,,,,,,,,,,,,,,,,,,,,,,,,,,,,"MET11809/22/20 00:53:02 METAR KSEA 220853Z 19004KT 10SM BKN030 OVC037 17/14 A2999 RMK AO2 SLP159 T01670139 51006 $ FIBI (LC)","FM-15","7",,,,,,,,,,,,,,,,,,,,,,,,,,,"2007-05-17"
"72793024233","2020-09-22T01:53:00","FM-15","7",,,,,,,,,,,,,,,,,,,,,,,,,,,,,,,,,,,,,,,"29.99","58","61","0.02",,,,"90","30.00","SCT:04 20 BKN:07 30 OVC:08 48","29.52","9.00","59","200",,"5",,,,,,,,,,,,,,,,,,,,,,,,,,,,,,,,,,,,,"MET11809/22/20 01:53:02 METAR KSEA 220953Z 20004KT 9SM SCT020 BKN030 OVC048 16/14 A2999 RMK AO2 SLP158 T01610144 $ FIBI (LC)","FM-15","7",,,,,,,,,,,,,,,,,,,,,,,,,,,"2007-05-17"
"72793024233","2020-09-22T02:10:00","FM-16","7",,,,,,,,,,,,,,,,,,,,,,,,,,,,,,,,,,,,,,,"29.99","58","61",,"-RA:02 |RA |RA",,,"90",,"BKN:07 20 OVC:08 30","29.52","7.00","59","200",,"5",,,,,,,,,,,,,,,,,,,,,,,,,,,,,,,,,,,,,"MET12209/22/20 02:10:02 SPECI KSEA 221010Z 20004KT 7SM -RA BKN020 OVC030 16/14 A2999 RMK AO2 RAB0957 P0002 T01610144 $ FIBI (LC)","FM-16","7",,,,,,,,,,,,,,,,,,,,,,,,,,,"2007-05-17"
"72793024233","2020-09-22T02:53:00","FM-15","7",,,,,,,,,,,,,,,,,,,,,,,,,,,,,,,,,,,,,,,"29.99","58","60","0.09",,,,"93","30.00","SCT:04 14 BKN:07 24 OVC:08 33","29.52","10.00","59","200",,"3",,,,,,,,,,,,,,,,,,,,,,,,,,,,,,,,,,,,,"MET13609/22/20 02:53:02 METAR KSEA 221053Z 20003KT 10SM SCT014 BKN024 OVC033 16/14 A2999 RMK AO2 RAB0957E46 SLP159 P0011 T01560144 $ FIBI (LC)","FM-15","7",,,,,,,,,,,,,,,,,,,,,,,,,,,"2007-05-17"
"72793024233","2020-09-22T03:51:00","FM-16","6",,,,,,,,,,,,,,,,,,,,,,,,,,,,,,,,,,,,,,,"30.00","57","59",,"-RA:02 BR:1 |RA |RA",,,"94",,"OVC:08 10","29.53","6.00","58","000",,"0",,,,,,,,,,,,,,,,,,,,,,,,,,,,,,,,,,,,,"MET10609/22/20 03:51:02 SPECI KSEA 221151Z 00000KT 6SM -RA BR OVC010 15/14 A3000 RMK AO2 RAB51 P0000 $ FIBI (LC)","FM-16","6",,,,,,,,,,,,,,,,,,,,,,,,,,,"2007-05-17"
"72793024233","2020-09-22T03:53:00","FM-15","7",,,,,,,,,,,,,,,,,,,,,,,,,,,,,,,,,,,,,,,"30.00","58","59","T","-RA:02 BR:1 |RA |RA","-0.01","3","96","30.01","OVC:08 10","29.53","6.00","58","000",,"0",,,,,,,,,,,,,,,,,,,,,,,,,,,,,,,,,,,,,"MET15309/22/20 03:53:02 METAR KSEA 221153Z 00000KT 6SM -RA BR OVC010 15/14 A3000 RMK AO2 RAB51 SLP163 P0000 60011 70011 T01500144 10183 20150 53004 $ FIBI (LC)","FM-15","7",,,,,,,,,,,,,,,,,,,,,,,,,,,"2007-05-17"
"72793024233","2020-09-22T04:00:00","FM-12","4",,,,,,,,,,,,,,,,,,,,,,,,,,,,,,,,,,,,,,,,"58","59",,"||RA","-0.01","3","96","30.01","15","29.52","5.59","58","000",,"0",,,,,,,,,,,,,,,,,,,,,,,,,,,,,,,,,,,,,"SYN10472793 11459 80000 10150 20144 39996 40163 53004 60031 761// 91153 333 10211 20150 70028 96010 555 92212=","FM-12","4",,,,,,,,,,,,,,,,,,,,,,,,,,,"2007-05-17"
"72793024233","2020-09-22T04:21:00","FM-16","7",,,,,,,,,,,,,,,,,,,,,,,,,,,,,,,,,,,,,,,"30.00","58","59","T",,,,"96",,"BKN:07 7 OVC:08 11","29.53","7.00","58","000",,"0",,,,,,,,,,,,,,,,,,,,,,,,,,,,,,,,,,,,,"MET11609/22/20 04:21:02 SPECI KSEA 221221Z 00000KT 7SM BKN007 OVC011 15/14 A3000 RMK AO2 RAE19 P0000 T01500144 $ FIBI (LC)","FM-16","7",,,,,,,,,,,,,,,,,,,,,,,,,,,"2007-05-17"
"72793024233","2020-09-22T04:51:00","FM-16","6",,,,,,,,,,,,,,,,,,,,,,,,,,,,,,,,,,,,,,,"30.00","57","61",,,,,"88",,"SCT:04 6 OVC:08 11","29.53","7.00","59","190",,"3",,,,,,,,,,,,,,,,,,,,,,,,,,,,,,,,,,,,,"MET10609/22/20 04:51:02 SPECI KSEA 221251Z 19003KT 7SM SCT006 OVC011 16/14 A3000 RMK AO2 RAE19 P0000 $ FIBI (LC)","FM-16","6",,,,,,,,,,,,,,,,,,,,,,,,,,,"2007-05-17"
"72793024233","2020-09-22T04:53:00","FM-15","7",,,,,,,,,,,,,,,,,,,,,,,,,,,,,,,,,,,,,,,"30.01","58","60","T",,,,"93","30.02","SCT:04 6 OVC:08 11","29.54","7.00","59","200",,"3",,,,,,,,,,,,,,,,,,,,,,,,,,,,,,,,,,,,,"MET12309/22/20 04:53:02 METAR KSEA 221253Z 20003KT 7SM SCT006 OVC011 16/14 A3001 RMK AO2 RAE19 SLP165 P0000 T01560144 $ FIBI (LC)","FM-15","7",,,,,,,,,,,,,,,,,,,,,,,,,,,"2007-05-17"
"72793024233","2020-09-22T05:34:00","FM-16","7",,,,,,,,,,,,,,,,,,,,,,,,,,,,,,,,,,,,,,,"30.01","58","60",,"BR:1 ||",,,"93",,"BKN:07 8 OVC:08 13","29.54","6.00","59","200",,"5",,,,,,,,,,,,,,,,,,,,,,,,,,,,,,,,,,,,,"MET10709/22/20 05:34:02 SPECI KSEA 221334Z 20004KT 6SM BR BKN008 OVC013 16/14 A3001 RMK AO2 T01560144 $ FIBI (JC)","FM-16","7",,,,,,,,,,,,,,,,,,,,,,,,,,,"2007-05-17"
"72793024233","2020-09-22T05:53:00","FM-15","7",,,,,,,,,,,,,,,,,,,,,,,,,,,,,,,,,,,,,,,"30.01","58","60","0.00",,,,"93","30.02","SCT:04 5 BKN:07 9 OVC:08 15","29.54","8.00","59","200",,"6",,,,,,,,,,,,,,,,,,,,,,,,,,,,,,,,,,,,,"MET11809/22/20 05:53:02 METAR KSEA 221353Z 20005KT 8SM SCT005 BKN009 OVC015 16/14 A3001 RMK AO2 SLP167 T01560144 $ FIBI (JC)","FM-15","7",,,,,,,,,,,,,,,,,,,,,,,,,,,"2007-05-17"
"72793024233","2020-09-22T06:53:00","FM-15","7",,,,,,,,,,,,,,,,,,,,,,,,,,,,,,,,,,,,,,,"30.03","57","59","0.00",,"-0.03","3","93","30.04","SCT:04 4 BKN:07 9","29.56","10.00","58","240",,"6",,,,,,,,,,,,,,,,,,,,,,,,,,,,,,,,,,,,,"MET12409/22/20 06:53:02 METAR KSEA 221453Z 24005KT 10SM SCT004 BKN009 15/14 A3003 RMK AO2 SLP174 60000 T01500139 53010 $ FIBI (JC)","FM-15","7",,,,,,,,,,,,,,,,,,,,,,,,,,,"2007-05-17"
"72793024233","2020-09-22T07:11:00","FM-16","7",,,,,,,,,,,,,,,,,,,,,,,,,,,,,,,,,,,,,,,"30.03","57","59",,,,,"93",,"SCT:04 4 BKN:07 10 BKN:07 32","29.56","10.00","58","220",,"6",,,,,,,,,,,,,,,,,,,,,,,,,,,,,,,,,,,,,"MET11009/22/20 07:11:02 SPECI KSEA 221511Z 22005KT 10SM SCT004 BKN010 BKN032 15/14 A3003 RMK AO2 T01500139 FIBI (JC)","FM-16","7",,,,,,,,,,,,,,,,,,,,,,,,,,,"2007-05-17"
"72793024233","2020-09-22T07:34:00","FM-16","7",,,,,,,,,,,,,,,,,,,,,,,,,,,,,,,,,,,,,,,"30.03","57","59",,,,,"93",,"SCT:04 5 BKN:07 18 BKN:07 34","29.56","10.00","58","220",,"7",,,,,,,,,,,,,,,,,,,,,,,,,,,,,,,,,,,,,"MET11009/22/20 07:34:02 SPECI KSEA 221534Z 22006KT 10SM SCT005 BKN018 BKN034 15/14 A3003 RMK AO2 T01500139 FIBI (JC)","FM-16","7",,,,,,,,,,,,,,,,,,,,,,,,,,,"2007-05-17"
"72793024233","2020-09-22T07:45:00","FM-16","7",,,,,,,,,,,,,,,,,,,,,,,,,,,,,,,,,,,,,,,"30.03","57","60",,,,,"90",,"FEW:02 5 SCT:04 18 SCT:04 34","29.56","10.00","58","210",,"6",,,,,,,,,,,,,,,,,,,,,,,,,,,,,,,,,,,,,"MET11009/22/20 07:45:02 SPECI KSEA 221545Z 21005KT 10SM FEW005 SCT018 SCT034 16/14 A3003 RMK AO2 T01560139 FIBI (JC)","FM-16","7",,,,,,,,,,,,,,,,,,,,,,,,,,,"2007-05-17"
"72793024233","2020-09-22T07:53:00","FM-15","7",,,,,,,,,,,,,,,,,,,,,,,,,,,,,,,,,,,,,,,"30.03","56","60","0.00",,,,"86","30.04","FEW:02 5 SCT:04 18 SCT:04 34","29.56","10.00","58","230",,"8",,,,,,,,,,,,,,,,,,,,,,,,,,,,,,,,,,,,,"MET11709/22/20 07:53:02 METAR KSEA 221553Z 23007KT 10SM FEW005 SCT018 SCT034 16/13 A3003 RMK AO2 SLP173 T01560133 FIBI (JC)","FM-15","7",,,,,,,,,,,,,,,,,,,,,,,,,,,"2007-05-17"
"72793024233","2020-09-22T08:53:00","FM-15","7",,,,,,,,,,,,,,,,,,,,,,,,,,,,,,,,,,,,,,,"30.04","54","61","0.00",,,,"78","30.05","FEW:02 7 FEW:02 18 FEW:02 35","29.57","10.00","57","220",,"11",,,,,,,,,,,,,,,,,,,,,,,,,,,,,,,,,,,,,"MET11709/22/20 08:53:02 METAR KSEA 221653Z 22010KT 10SM FEW007 FEW018 FEW035 16/12 A3004 RMK AO2 SLP175 T01610122 FIBI (JC)","FM-15","7",,,,,,,,,,,,,,,,,,,,,,,,,,,"2007-05-17"
"72793024233","2020-09-22T09:53:00","FM-15","7",,,,,,,,,,,,,,,,,,,,,,,,,,,,,,,,,,,,,,,"30.04","53","64","0.00",,,,"68","30.06","FEW:02 9 FEW:02 20 FEW:02 250","29.57","10.00","58","230",,"9",,,,,,,,,,,,,,,,,,,,,,,,,,,,,,,,,,,,,"MET13509/22/20 09:53:02 METAR KSEA 221753Z 23008KT 10SM FEW009 FEW020 FEW250 18/12 A3004 RMK AO2 SLP178 60000 T01780117 10178 20150 FIBI (JC)","FM-15","7",,,,,,,,,,,,,,,,,,,,,,,,,,,"2007-05-17"
"72793024233","2020-09-22T10:00:00","FM-12","4",,,,,,,,,,,,,,,,,,,,,,,,,,,,,,,,,,,,,,,,"53","64",,,,,"68","30.06","8","29.56","9.94","58","230",,"9",,,,,,,,,,,,,,,,,,,,,,,,,,,,,,,,,,,,,"SYN08072793 12366 22308 10178 20117 30009 40178 69901 91753 333 10183 20150 555 92218=","FM-12","4",,,,,,,,,,,,,,,,,,,,,,,,,,,"2007-05-17"
"72793024233","2020-09-22T10:53:00","FM-15","7",,,,,,,,,,,,,,,,,,,,,,,,,,,,,,,,,,,,,,,"30.04","50","66","0.00",,,,"56","30.05","FEW:02 9 FEW:02 20 FEW:02 250","29.57","10.00","57","200",,"9",,,,,,,,,,,,,,,,,,,,,,,,,,,,,,,,,,,,,"MET11709/22/20 10:53:02 METAR KSEA 221853Z 20008KT 10SM FEW009 FEW020 FEW250 19/10 A3004 RMK AO2 SLP177 T01890100 FIBI (JC)","FM-15","7",,,,,,,,,,,,,,,,,,,,,,,,,,,"2007-05-17"
"72793024233","2020-09-22T11:53:00","FM-15","7",,,,,,,,,,,,,,,,,,,,,,,,,,,,,,,,,,,,,,,"30.02","47","68","0.00",,,,"47","30.03","FEW:02 15 FEW:02 25 SCT:04 250","29.55","10.00","57","220",,"10",,,,,,,,,,,,,,,,,,,,,,,,,,,,,,,,,,,,,"MET11709/22/20 11:53:02 METAR KSEA 221953Z 22009KT 10SM FEW015 FEW025 SCT250 20/08 A3002 RMK AO2 SLP171 T02000083 FIBI (JC)","FM-15","7",,,,,,,,,,,,,,,,,,,,,,,,,,,"2007-05-17"
"72793024233","2020-09-22T12:53:00","FM-15","7",,,,,,,,,,,,,,,,,,,,,,,,,,,,,,,,,,,,,,,"30.01","49","70","0.00",,"+0.03","8","47","30.02","FEW:02 30 BKN:07 250","29.54","10.00","58","240",,"9",,,,,,,,,,,,,,,,,,,,,,,,,,,,,,,,,,,,,"MET11609/22/20 12:53:02 METAR KSEA 222053Z 24008KT 10SM FEW030 BKN250 21/09 A3001 RMK AO2 SLP167 T02110094 58011 FIBI (JC)","FM-15","7",,,,,,,,,,,,,,,,,,,,,,,,,,,"2007-05-17"
"72793024233","2020-09-22T13:53:00","FM-15","7",,,,,,,,,,,,,,,,,,,,,,,,,,,,,,,,,,,,,,,"30.00","48","71","0.00",,,,"44","30.01","FEW:02 30 SCT:04 250","29.53","10.00","58","260",,"9",,,,,,,,,,,,,,,,,,,,,,,,,,,,,,,,,,,,,"MET11009/22/20 13:53:02 METAR KSEA 222153Z 26008KT 10SM FEW030 SCT250 22/09 A3000 RMK AO2 SLP163 T02170089 FIBI (RS)","FM-15","7",,,,,,,,,,,,,,,,,,,,,,,,,,,"2007-05-17"
"72793024233","2020-09-22T14:53:00","FM-15","7",,,,,,,,,,,,,,,,,,,,,,,,,,,,,,,,,,,,,,,"29.99","49","71","0.00",,,,"46","30.00","FEW:02 30 SCT:04 250","29.52","10.00","59","240",,"8",,,,,,,,,,,,,,,,,,,,,,,,,,,,,,,,,,,,,"MET11009/22/20 14:53:02 METAR KSEA 222253Z 24007KT 10SM FEW030 SCT250 22/09 A2999 RMK AO2 SLP160 T02170094 FIBI (RS)","FM-15","7",,,,,,,,,,,,,,,,,,,,,,,,,,,"2007-05-17"
"72793024233","2020-09-22T15:53:00","FM-15","7",,,,,,,,,,,,,,,,,,,,,,,,,,,,,,,,,,,,,,,"29.99","50","71","0.00",,"+0.02","6","47","30.00","FEW:02 35 BKN:07 220","29.52","10.00","59","240",,"6",,,,,,,,,,,,,,,,,,,,,,,,,,,,,,,,,,,,,"MET12809/22/20 15:53:02 METAR KSEA 222353Z 24005KT 10SM FEW035 BKN220 22/10 A2999 RMK AO2 SLP160 T02170100 10228 20172 56006 FIBI (RS)","FM-15","7",,,,,,,,,,,,,,,,,,,,,,,,,,,"2007-05-17"
"72793024233","2020-09-22T16:00:00","FM-12","4",,,,,,,,,,,,,,,,,,,,,,,,,,,,,,,,,,,,,,,,,"71",,,"+0.02","6",,"30.00","41","29.51","9.94",,"240",,"6",,,,,,,,,,,,,,,,,,,,,,,,,,,,,,,,,,,,,"SYN08072793 32666 62405 10217 20010 39993 40160 56006 92353 333 10228 20150 555 92300=","FM-12","4",,,,,,,,,,,,,,,,,,,,,,,,,,,"2007-05-17"
"72793024233","2020-09-22T16:53:00","FM-15","7",,,,,,,,,,,,,,,,,,,,,,,,,,,,,,,,,,,,,,,"29.98","50","69","0.00",,,,"51","29.99","FEW:02 35 BKN:07 200","29.51","10.00","58","000",,"0",,,,,,,,,,,,,,,,,,,,,,,,,,,,,,,,,,,,,"MET10009/22/20 16:53:01 METAR KSEA 230053Z 00000KT 10SM FEW035 BKN200 21/10 A2998 RMK AO2 SLP156 T02060100","FM-15","7",,,,,,,,,,,,,,,,,,,,,,,,,,,"2007-05-17"
"72793024233","2020-09-22T17:53:00","FM-15","7",,,,,,,,,,,,,,,,,,,,,,,,,,,,,,,,,,,,,,,"29.99","52","68","0.00",,,,"57","30.00","SCT:04 55 BKN:07 140 OVC:08 200","29.52","10.00","59","210",,"3",,,,,,,,,,,,,,,,,,,,,,,,,,,,,,,,,,,,,"MET10709/22/20 17:53:01 METAR KSEA 230153Z 21003KT 10SM SCT055 BKN140 OVC200 20/11 A2999 RMK AO2 SLP158 T02000111","FM-15","7",,,,,,,,,,,,,,,,,,,,,,,,,,,"2007-05-17"
"72793024233","2020-09-22T18:53:00","FM-15","7",,,,,,,,,,,,,,,,,,,,,,,,,,,,,,,,,,,,,,,"29.97","51","68","0.00",,"+0.01","6","55","29.98","FEW:02 55 SCT:04 140 OVC:08 180","29.50","10.00","58","160",,"6",,,,,,,,,,,,,,,,,,,,,,,,,,,,,,,,,,,,,"MET11309/22/20 18:53:01 METAR KSEA 230253Z 16005KT 10SM FEW055 SCT140 OVC180 20/11 A2997 RMK AO2 SLP154 T02000106 56005","FM-15","7",,,,,,,,,,,,,,,,,,,,,,,,,,,"2007-05-17"
"72793024233","2020-09-22T19:53:00","FM-15","7",,,,,,,,,,,,,,,,,,,,,,,,,,,,,,,,,,,,,,,"29.95","51","68","0.00",,,,"55","29.96","FEW:02 55 BKN:07 140","29.48","10.00","58","000",,"0",,,,,,,,,,,,,,,,,,,,,,,,,,,,,,,,,,,,,"MET10009/22/20 19:53:02 METAR KSEA 230353Z 00000KT 10SM FEW055 BKN140 20/11 A2995 RMK AO2 SLP147 T02000106","FM-15","7",,,,,,,,,,,,,,,,,,,,,,,,,,,"2007-05-17"
"72793024233","2020-09-22T20:53:00","FM-15","7",,,,,,,,,,,,,,,,,,,,,,,,,,,,,,,,,,,,,,,"29.94","53","63","0.00",,,,"70","29.96","SCT:04 150 BKN:07 240","29.47","10.00","57","200",,"6",,,,,,,,,,,,,,,,,,,,,,,,,,,,,,,,,,,,,"MET10009/22/20 20:53:02 METAR KSEA 230453Z 20005KT 10SM SCT150 BKN240 17/12 A2994 RMK AO2 SLP145 T01720117","FM-15","7",,,,,,,,,,,,,,,,,,,,,,,,,,,"2007-05-17"
"72793024233","2020-09-22T21:53:00","FM-15","7",,,,,,,,,,,,,,,,,,,,,,,,,,,,,,,,,,,,,,,"29.94","53","62","0.00",,"+0.04","6","73","29.95","BKN:07 160","29.47","10.00","57","160",,"6",,,,,,,,,,,,,,,,,,,,,,,,,,,,,,,,,,,,,"MET11109/22/20 21:53:02 METAR KSEA 230553Z 16005KT 10SM BKN160 17/12 A2994 RMK AO2 SLP142 T01670117 10222 20167 56013","FM-15","7",,,,,,,,,,,,,,,,,,,,,,,,,,,"2007-05-17"
"72793024233","2020-09-22T22:00:00","FM-12","4",,,,,,,,,,,,,,,,,,,,,,,,,,,,,,,,,,,,,,,,"53","62",,,"+0.04","6","73","29.95",,"29.46","9.94","57","160",,"6",,,,,,,,,,,,,,,,,,,,,,,,,,,,,,,,,,,,,"SYN08072793 32966 61605 10167 20117 39976 40142 56013 90553 333 10222 20150 555 92306=","FM-12","4",,,,,,,,,,,,,,,,,,,,,,,,,,,"2007-05-17"
"72793024233","2020-09-22T22:53:00","FM-15","7",,,,,,,,,,,,,,,,,,,,,,,,,,,,,,,,,,,,,,,"29.92","52","63","0.00",,,,"68","29.93","BKN:07 200","29.45","10.00","57","140",,"7",,,,,,,,,,,,,,,,,,,,,,,,,,,,,,,,,,,,,"MET09309/22/20 22:53:02 METAR KSEA 230653Z 14006KT 10SM BKN200 17/11 A2992 RMK AO2 SLP137 T01720111","FM-15","7",,,,,,,,,,,,,,,,,,,,,,,,,,,"2007-05-17"
"72793024233","2020-09-22T23:53:00","FM-15","7",,,,,,,,,,,,,,,,,,,,,,,,,,,,,,,,,,,,,,,"29.92","53","62","0.00",,,,"73","29.93","BKN:07 170","29.45","10.00","57","190",,"5",,,,,,,,,,,,,,,,,,,,,,,,,,,,,,,,,,,,,"MET10309/22/20 23:53:02 METAR KSEA 230753Z 19004KT 10SM BKN170 17/12 A2992 RMK AO2 SLP136 T01670117 402280150","FM-15","7",,,,,,,,,,,,,,,,,,,,,,,,,,,"2007-05-17"
"72793024233","2020-09-22T23:59:00","SOD  ","6",,,,,,,,,,,,,,,,,"53","66","69","30.00","29.52","58","6.2","1","6.2","0","73","59","200","13","0.11","0","0.0","220","15","RA BR",,,,,,,,,,,,,,,,,,,,,,,,,,,,,,,,,,,,,,,,,,,,,,,,,,,,,,,"SOD75624 HR PRECIPITATION (IN): 0.11 SNOW DEPTH (IN):0     24 HR SNOWFALL (IN):0.0  WEATHER(CODE):1  24 HR MAX TEMP (F): 7324 HR MIN TEMP (F): 59AVERAGE STATION PRESSURE:29.520 MINIMUM SEA LEVEL PRESSURE:29.92 TIME OF OCCURRENCE:2350 PEAK WIND SPEED (MPH): 13 PEAK WIND DIR (DEG):200 PEAK WIND TIME (LST):      FASTEST 2MIN SPEED (MPH): 15FASTEST 2MIN DIR (DEG):220 FASTEST 2MIN TIME (LST):     AVERAGE WIND SPEED (MPH): 6.2 24 HR AVG TEMP (F): 66DEPART FROM NORMAL:  6  HEATING DEGREE DAYS:  0 COOLING DEGREE DAYS:  1 LATEST DAY MAX TEMP (0700-1900 LST):73  LATEST NIGHT MIN TEMP(1900-0800 LST):59 HOURLY INCREMENTAL PRECIPITATION VALUES (IN):.00 0.02 0.09 T    T    0.00 0.00 0.00 0.00 0.00 0.00 0.00 0.00 0.00 0.00 0.00 0.00 0.00 0.00 0.00 0.00 0.00 0.00 0.00","SOD  ","6",,,,,,,,,,,,,,,,,,,,,,,,,"0557","1805","2007-05-17"
"72793024233","2020-09-23T00:53:00","FM-15","7",,,,,,,,,,,,,,,,,,,,,,,,,,,,,,,,,,,,,,,"29.91","54","61","0.00",,"+0.03","8","78","29.92","BKN:07 150","29.44","10.00","57","160",,"6",,,,,,,,,,,,,,,,,,,,,,,,,,,,,,,,,,,,,"MET10909/23/20 00:53:02 METAR KSEA 230853Z 16005KT 10SM BKN150 16/12 A2991 RMK AO2 SLP131 T01610122 58010 FIBI (TL)","FM-15","7",,,,,,,,,,,,,,,,,,,,,,,,,,,"2007-05-17"
"72793024233","2020-09-23T01:53:00","FM-15","7",,,,,,,,,,,,,,,,,,,,,,,,,,,,,,,,,,,,,,,"29.88","54","61","0.00",,,,"78","29.89","BKN:07 140","29.41","10.00","57","120",,"9",,,,,,,,,,,,,,,,,,,,,,,,,,,,,,,,,,,,,"MET10309/23/20 01:53:02 METAR KSEA 230953Z 12008KT 10SM BKN140 16/12 A2988 RMK AO2 SLP122 T01610122 FIBI (TL)","FM-15","7",,,,,,,,,,,,,,,,,,,,,,,,,,,"2007-05-17"
"72793024233","2020-09-23T02:53:00","FM-15","7",,,,,,,,,,,,,,,,,,,,,,,,,,,,,,,,,,,,,,,"29.90","56","60","0.02","-RA:02 |RA |RA",,,"86","29.91","OVC:08 50","29.44","8.00","58","260",,"7",,,,,,,,,,,,,,,,,,,,,,,,,,,,,,,,,,,,,"MET11809/23/20 02:53:02 METAR KSEA 231053Z 26006KT 8SM -RA OVC050 16/13 A2990 RMK AO2 RAB41 SLP128 P0001 T01560133 FIBI (TL)","FM-15","7",,,,,,,,,,,,,,,,,,,,,,,,,,,"2007-05-17"
"72793024233","2020-09-23T03:53:00","FM-15","7",,,,,,,,,,,,,,,,,,,,,,,,,,,,,,,,,,,,,,,"29.87","56","58","0.10","-RA:02 |RA |RA","+0.03","6","93","29.89","BKN:07 50 OVC:08 70","29.41","7.00","57","160",,"7",,,,,,,,,,,,,,,,,,,,,,,,,,,,,,,,,,,,,"MET14909/23/20 03:53:02 METAR KSEA 231153Z 16006KT 7SM -RA BKN050 OVC070 14/13 A2987 RMK AO2 SLP121 P0011 60012 70012 T01440133 10178 20144 56010 FIBI (TL)","FM-15","7",,,,,,,,,,,,,,,,,,,,,,,,,,,"2007-05-17"
"72793024233","2020-09-23T04:00:00","FM-12","4",,,,,,,,,,,,,,,,,,,,,,,,,,,,,,,,,,,,,,,,"56","58",,"||RA","+0.03","6","93","29.89","57","29.39","6.84","57","160",,"7",,,,,,,,,,,,,,,,,,,,,,,,,,,,,,,,,,,,,"SYN09872793 11761 81606 10144 20133 39953 40121 56010 60031 761// 91153 333 10228 20144 70030 555 92312=","FM-12","4",,,,,,,,,,,,,,,,,,,,,,,,,,,"2007-05-17"
"72793024233","2020-09-23T04:53:00","FM-15","7",,,,,,,,,,,,,,,,,,,,,,,,,,,,,,,,,,,,,,,"29.87","56","59","0.07","-RA:02 |RA |RA",,,"90","29.88","SCT:04 38 BKN:07 48 OVC:08 70","29.41","7.00","57","140",,"13",,,,,,,,,,,,,,,,,,,,,,,,,,,,,,,,,,,,,"MET12609/23/20 04:53:02 METAR KSEA 231253Z 14011KT 7SM -RA SCT038 BKN048 OVC070 15/13 A2987 RMK AO2 SLP120 P0007 T01500133 FIBI (TL)","FM-15","7",,,,,,,,,,,,,,,,,,,,,,,,,,,"2007-05-17"
"72793024233","2020-09-23T05:53:00","FM-15","7",,,,,,,,,,,,,,,,,,,,,,,,,,,,,,,,,,,,,,,"29.84","56","59","0.02",,,,"90","29.85","BKN:07 33 OVC:08 60","29.38","10.00","57","130",,"16",,,,,,,,,,,,,,,,,,,,,,,,,,,,,,,,,,,,,"MET12209/23/20 05:53:02 METAR KSEA 231353Z 13014KT 10SM BKN033 OVC060 15/13 A2984 RMK AO2 RAE45 SLP109 P0002 T01500133 FIBI (JC)","FM-15","7",,,,,,,,,,,,,,,,,,,,,,,,,,,"2007-05-17"
"72793024233","2020-09-23T06:53:00","FM-15","7",,,,,,,,,,,,,,,,,,,,,,,,,,,,,,,,,,,,,,,"29.83","56","60","T","-RA:02 |RA |RA","+0.05","8","86","29.84","BKN:07 33 OVC:08 50","29.36","10.00","58","170",,"7",,,,,,,,,,,,,,,,,,,,,,,,,,,,,,,,,,,,,"MET13809/23/20 06:53:02 METAR KSEA 231453Z 17006KT 10SM -RA BKN033 OVC050 16/13 A2983 RMK AO2 RAB53 SLP105 P0000 60009 T01560133 58016 FIBI (JC)","FM-15","7",,,,,,,,,,,,,,,,,,,,,,,,,,,"2007-05-17"
"72793024233","2020-09-23T07:53:00","FM-15","7",,,,,,,,,,,,,,,,,,,,,,,,,,,,,,,,,,,,,,,"29.83","57","60","0.03",,,,"90","29.84","FEW:02 33 BKN:07 45 OVC:08 90","29.36","10.00","58","150",,"11",,,,,,,,,,,,,,,,,,,,,,,,,,,,,,,,,,,,,"MET12909/23/20 07:53:02 METAR KSEA 231553Z 15010KT 10SM FEW033 BKN045 OVC090 16/14 A2983 RMK AO2 RAE52 SLP104 P0003 T01560139 FIBI (JC)","FM-15","7",,,,,,,,,,,,,,,,,,,,,,,,,,,"2007-05-17"
"72793024233","2020-09-23T08:53:00","FM-15","7",,,,,,,,,,,,,,,,,,,,,,,,,,,,,,,,,,,,,,,"29.80","57","62","0.03","-RA:02 |RA |RA",,,"84","29.81","FEW:02 33 BKN:07 50 OVC:08 95","29.34","8.00","59","170",,"11",,,,,,,,,,,,,,,,,,,,,,,,,,,,,,,,,,,,,"MET13209/23/20 08:53:02 METAR KSEA 231653Z 17010KT 8SM -RA FEW033 BKN050 OVC095 17/14 A2980 RMK AO2 RAB52 SLP095 P0003 T01670139 FIBI (JC)","FM-15","7",,,,,,,,,,,,,,,,,,,,,,,,,,,"2007-05-17"
"72793024233","2020-09-23T09:53:00","FM-15","7",,,,,,,,,,,,,,,,,,,,,,,,,,,,,,,,,,,,,,,"29.82","58","63","0.01","-RA:02 |RA |RA","+0.01","5","84","29.83","FEW:02 35 BKN:07 70 OVC:08 100","29.36","10.00","60","170",,"11",,,,,,,,,,,,,,,,,,,,,,,,,,,,,,,,,,,,,"MET15109/23/20 09:53:02 METAR KSEA 231753Z 17010KT 10SM -RA FEW035 BKN070 OVC100 17/14 A2982 RMK AO2 SLP102 P0001 60016 T01720144 10172 20144 55003 FIBI (JC)","FM-15","7",,,,,,,,,,,,,,,,,,,,,,,,,,,"2007-05-17"
"72793024233","2020-09-23T10:00:00","FM-12","4",,,,,,,,,,,,,,,,,,,,,,,,,,,,,,,,,,,,,,,,"58","63",,"||RA","+0.01","5","84","29.83","41","29.34","9.94","60","170",,"11",,,,,,,,,,,,,,,,,,,,,,,,,,,,,,,,,,,,,"SYN09272793 11666 81710 10172 20144 39936 40102 55003 60041 761// 91753 333 10178 20144 555 92318=","FM-12","4",,,,,,,,,,,,,,,,,,,,,,,,,,,"2007-05-17"
"72793024233","2020-09-23T10:53:00","FM-15","7",,,,,,,,,,,,,,,,,,,,,,,,,,,,,,,,,,,,,,,"29.79","59","62","0.10","-RA:02 BR:1 |RA |RA",,,"90","29.80","FEW:02 35 BKN:07 70 OVC:08 95","29.33","5.00","60","140",,"11",,,,,,,,,,,,,,,,,,,,,,,,,,,,,,,,,,,,,"MET12909/23/20 10:53:02 METAR KSEA 231853Z 14010KT 5SM -RA BR FEW035 BKN070 OVC095 17/15 A2979 RMK AO2 SLP093 P0009 T01670150 FIBI (JC)","FM-15","7",,,,,,,,,,,,,,,,,,,,,,,,,,,"2007-05-17"
"72793024233","2020-09-23T11:53:00","FM-15","7",,,,,,,,,,,,,,,,,,,,,,,,,,,,,,,,,,,,,,,"29.75","59","63","0.10","-RA:02 |RA |RA",,,"87","29.77","SCT:04 30 BKN:07 65 OVC:08 95","29.29","7.00","61","130",,"14",,,,,,,,,,,,,,,,,,,,,,,,,,,,,,,,,,,,,"MET12609/23/20 11:53:02 METAR KSEA 231953Z 13012KT 7SM -RA SCT030 BKN065 OVC095 17/15 A2975 RMK AO2 SLP080 P0010 T01720150 FIBI (JC)","FM-15","7",,,,,,,,,,,,,,,,,,,,,,,,,,,"2007-05-17"
"72793024233","2020-09-23T12:53:00","FM-15","7",,,,,,,,,,,,,,,,,,,,,,,,,,,,,,,,,,,,,,,"29.77","60","62","0.10","-RA:02 BR:1 |RA |RA","+0.04","5","93","29.79","FEW:02 23 OVC:08 30","29.31","3.00","61","190",,"7",,,,,,,,,,,,,,,,,,,,,,,,,,,,,,,,,,,,,"MET13409/23/20 12:53:02 METAR KSEA 232053Z 19006KT 3SM -RA BR FEW023 OVC030 17/16 A2977 RMK AO2 SLP087 P0011 60030 T01670156 55015 FIBI (JC)","FM-15","7",,,,,,,,,,,,,,,,,,,,,,,,,,,"2007-05-17"
"72793024233","2020-09-23T13:22:00","FM-16","7",,,,,,,,,,,,,,,,,,,,,,,,,,,,,,,,,,,,,,,"29.75","59","63","0.01","-RA:02 |RA |RA",,,"87",,"SCT:04 28 OVC:08 95","29.29","7.00","61","160",,"16",,,,,,,,,,,,,,,,,,,,,,,,,,,,,,,,,,,,,"MET11209/23/20 13:22:02 SPECI KSEA 232122Z 16014KT 7SM -RA SCT028 OVC095 17/15 A2975 RMK AO2 P0001 T01720150 FIBI (RS)","FM-16","7",,,,,,,,,,,,,,,,,,,,,,,,,,,"2007-05-17"
"72793024233","2020-09-23T13:53:00","FM-15","7",,,,,,,,,,,,,,,,,,,,,,,,,,,,,,,,,,,,,,,"29.75","59","63","0.03","-RA:02 |RA |RA",,,"87","29.76","FEW:02 30 OVC:08 95","29.29","7.00","61","160","25","13",,,,,,,,,,,,,,,,,,,,,,,,,,,,,,,,,,,,,"MET12209/23/20 13:53:02 METAR KSEA 232153Z 16011G22KT 7SM -RA FEW030 OVC095 17/15 A2975 RMK AO2 SLP078 P0003 T01720150 FIBI (RS)","FM-15","7",,,,,,,,,,,,,,,,,,,,,,,,,,,"2007-05-17"
"72793024233","2020-09-23T14:53:00","FM-15","7",,,,,,,,,,,,,,,,,,,,,,,,,,,,,,,,,,,,,,,"29.75","59","63","0.10","-RA:02 BR:1 |RA |RA",,,"87","29.76","FEW:02 44 OVC:08 90","29.29","6.00","61","170","24","17",,,,,,,,,,,,,,,,,,,,,,,,,,,,,,,,,,,,,"MET12509/23/20 14:53:02 METAR KSEA 232253Z 17015G21KT 6SM -RA BR FEW044 OVC090 17/15 A2975 RMK AO2 SLP079 P0009 T01720150 FIBI (RS)","FM-15","7",,,,,,,,,,,,,,,,,,,,,,,,,,,"2007-05-17"
"72793024233","2020-09-23T15:53:00","FM-15","7",,,,,,,,,,,,,,,,,,,,,,,,,,,,,,,,,,,,,,,"29.73","59","62","0.10","RA:02 BR:1 |RA |RA","+0.04","6","90","29.75","OVC:08 85","29.27","4.00","60","150",,"14",,,,,,,,,,,,,,,,,,,,,,,,,,,,,,,,,,,,,"MET13809/23/20 15:53:02 METAR KSEA 232353Z 15012KT 4SM RA BR OVC085 17/15 A2973 RMK AO2 SLP073 P0011 60053 T01670150 10172 20167 56014 FIBI (RS)","FM-15","7",,,,,,,,,,,,,,,,,,,,,,,,,,,"2007-05-17"
"72793024233","2020-09-23T16:00:00","FM-12","4",,,,,,,,,,,,,,,,,,,,,,,,,,,,,,,,,,,,,,,,"59","62",,"||RA","+0.04","6","90","29.75",,"29.25","3.73","60","150",,"14",,,,,,,,,,,,,,,,,,,,,,,,,,,,,,,,,,,,,"SYN09872793 11956 81512 10167 20150 39906 40073 56014 60131 763// 92353 333 10172 20144 96010 555 92400=","FM-12","4",,,,,,,,,,,,,,,,,,,,,,,,,,,"2007-05-17"
"72793024233","2020-09-23T16:53:00","FM-15","7",,,,,,,,,,,,,,,,,,,,,,,,,,,,,,,,,,,,,,,"29.72","59","61","0.12","-RA:02 BR:1 |RA |RA",,,"93","29.73","FEW:02 55 BKN:07 80 OVC:08 90","29.26","4.00","60","150","26","15",,,,,,,,,,,,,,,,,,,,,,,,,,,,,,,,,,,,,"MET12209/23/20 16:53:01 METAR KSEA 240053Z 15013G23KT 4SM -RA BR FEW055 BKN080 OVC090 16/15 A2972 RMK AO2 SLP069 P0011 T01610150","FM-15","7",,,,,,,,,,,,,,,,,,,,,,,,,,,"2007-05-17"
"72793024233","2020-09-23T17:34:00","FM-16","7",,,,,,,,,,,,,,,,,,,,,,,,,,,,,,,,,,,,,,,"29.70","58","61","0.04","-RA:02 |RA |RA",,,"90",,"BKN:07 22 OVC:08 100","29.24","7.00","59","150",,"14",,,,,,,,,,,,,,,,,,,,,,,,,,,,,,,,,,,,,"MET10209/23/20 17:34:02 SPECI KSEA 240134Z 15012KT 7SM -RA BKN022 OVC100 16/14 A2970 RMK AO2 P0004 T01610144","FM-16","7",,,,,,,,,,,,,,,,,,,,,,,,,,,"2007-05-17"
"72793024233","2020-09-23T17:51:00","FM-16","6",,,,,,,,,,,,,,,,,,,,,,,,,,,,,,,,,,,,,,,"29.70","57","61",,"-RA:02 |RA |RA",,,"88",,"SCT:04 25 BKN:07 33 OVC:08 70","29.24","7.00","59","150",,"13",,,,,,,,,,,,,,,,,,,,,,,,,,,,,,,,,,,,,"MET10909/23/20 17:51:03 SPECI KSEA 240151Z 15011KT 7SM -RA SCT025 BKN033 OVC070 16/14 A2970 RMK AO2 P0005 FIBI (RS)","FM-16","6",,,,,,,,,,,,,,,,,,,,,,,,,,,"2007-05-17"
"72793024233","2020-09-23T17:53:00","FM-15","7",,,,,,,,,,,,,,,,,,,,,,,,,,,,,,,,,,,,,,,"29.70","58","60","0.04","-RA:02 |RA |RA",,,"93","29.72","BKN:07 25 OVC:08 70","29.24","7.00","59","160",,"10",,,,,,,,,,,,,,,,,,,,,,,,,,,,,,,,,,,,,"MET10909/23/20 17:53:02 METAR KSEA 240153Z 16009KT 7SM -RA BKN025 OVC070 16/14 A2970 RMK AO2 SLP063 P0005 T01560144","FM-15","7",,,,,,,,,,,,,,,,,,,,,,,,,,,"2007-05-17"
"72793024233","2020-09-23T18:22:00","FM-16","7",,,,,,,,,,,,,,,,,,,,,,,,,,,,,,,,,,,,,,,"29.71","58","60","0.06","-RA:02 |RA |RA",,,"93",,"FEW:02 9 BKN:07 26 OVC:08 60","29.25","7.00","59","200",,"11",,,,,,,,,,,,,,,,,,,,,,,,,,,,,,,,,,,,,"MET12009/23/20 18:22:02 SPECI KSEA 240222Z 20010KT 7SM -RA FEW009 BKN026 OVC060 16/14 A2971 RMK AO2 WSHFT 0206 P0006 T01560144","FM-16","7",,,,,,,,,,,,,,,,,,,,,,,,,,,"2007-05-17"
"72793024233","2020-09-23T18:51:00","FM-16","6",,,,,,,,,,,,,,,,,,,,,,,,,,,,,,,,,,,,,,,"29.72","57","61",,"-RA:02 BR:1 |RA |RA",,,"88",,"FEW:02 21 BKN:07 30 OVC:08 49","29.26","6.00","59","200","20","14",,,,,,,,,,,,,,,,,,,,,,,,,,,,,,,,,,,,,"MET12809/23/20 18:51:03 SPECI KSEA 240251Z 20012G17KT 6SM -RA BR FEW021 BKN030 OVC049 16/14 A2972 RMK AO2 WSHFT 0206 P0006 $ FIBI (RS)","FM-16","6",,,,,,,,,,,,,,,,,,,,,,,,,,,"2007-05-17"
"72793024233","2020-09-23T18:53:00","FM-15","7",,,,,,,,,,,,,,,,,,,,,,,,,,,,,,,,,,,,,,,"29.72","58","60","0.07","-RA:02 BR:1 |RA |RA","+0.01","5","93","29.74","FEW:02 22 BKN:07 31 OVC:08 49","29.26","5.00","59","200",,"14",,,,,,,,,,,,,,,,,,,,,,,,,,,,,,,,,,,,,"MET15409/23/20 18:53:03 METAR KSEA 240253Z 20012KT 5SM -RA BR FEW022 BKN031 OVC049 16/14 A2972 RMK AO2 WSHFT 0206 SLP070 P0006 60022 T01560144 55003 $ FIBI (RS)","FM-15","7",,,,,,,,,,,,,,,,,,,,,,,,,,,"2007-05-17"
"72793024233","2020-09-23T19:26:00","FM-16","7",,,,,,,,,,,,,,,,,,,,,,,,,,,,,,,,,,,,,,,"29.74","57","60","0.03",,,,"90",,"FEW:02 9 BKN:07 31 OVC:08 45","29.28","10.00","58","190",,"14",,,,,,,,,,,,,,,,,,,,,,,,,,,,,,,,,,,,,"MET11209/23/20 19:26:02 SPECI KSEA 240326Z 19012KT 10SM FEW009 BKN031 OVC045 16/14 A2974 RMK AO2 RAE12 P0003 T01560139","FM-16","7",,,,,,,,,,,,,,,,,,,,,,,,,,,"2007-05-17"
"72793024233","2020-09-23T19:51:00","FM-16","6",,,,,,,,,,,,,,,,,,,,,,,,,,,,,,,,,,,,,,,"29.75","57","61",,,,,"88",,"FEW:02 9 BKN:07 28 OVC:08 46","29.29","10.00","59","190","23","15",,,,,,,,,,,,,,,,,,,,,,,,,,,,,,,,,,,,,"MET11709/23/20 19:51:03 SPECI KSEA 240351Z 19013G20KT 10SM FEW009 BKN028 OVC046 16/14 A2975 RMK AO2 RAE12 P0003 $ FIBI (RS)","FM-16","6",,,,,,,,,,,,,,,,,,,,,,,,,,,"2007-05-17"
"72793024233","2020-09-23T19:53:00","FM-15","7",,,,,,,,,,,,,,,,,,,,,,,,,,,,,,,,,,,,,,,"29.75","57","60","0.02",,,,"90","29.76","FEW:02 9 BKN:07 28 OVC:08 46","29.29","10.00","58","190","23","15",,,,,,,,,,,,,,,,,,,,,,,,,,,,,,,,,,,,,"MET12209/23/20 19:53:02 METAR KSEA 240353Z 19013G20KT 10SM FEW009 BKN028 OVC046 16/14 A2975 RMK AO2 RAE12 SLP078 P0003 T01560139","FM-15","7",,,,,,,,,,,,,,,,,,,,,,,,,,,"2007-05-17"
"72793024233","2020-09-23T20:53:00","FM-15","7",,,,,,,,,,,,,,,,,,,,,,,,,,,,,,,,,,,,,,,"29.78","58","60","0.02",,,,"93","29.79","FEW:02 15 BKN:07 23 OVC:08 55","29.32","9.00","59","200","18","13",,,,,,,,,,,,,,,,,,,,,,,,,,,,,,,,,,,,,"MET12109/23/20 20:53:02 METAR KSEA 240453Z 20011G16KT 9SM FEW015 BKN023 OVC055 16/14 A2978 RMK AO2 RAB00 SLP088 P0002 T01560144","FM-15","7",,,,,,,,,,,,,,,,,,,,,,,,,,,"2007-05-17"
"72793024233","2020-09-23T20:55:00","FM-16","7",,,,,,,,,,,,,,,,,,,,,,,,,,,,,,,,,,,,,,,"29.78","58","60","0.02","-RA:02 |RA |RA",,,"93","29.79","FEW:02 15 BKN:07 23 OVC:08 55","29.32","9.00","59","200","18","13",,,,,,,,,,,,,,,,,,,,,,,,,,,,,,,,,,,,,"MET12509/23/20 20:55:02 SPECI KSEA 240455Z 20011G16KT 9SM -RA FEW015 BKN023 OVC055 16/14 A2978 RMK AO2 RAB00 SLP088 P0002 T01560144","FM-16","7",,,,,,,,,,,,,,,,,,,,,,,,,,,"2007-05-17"
"72793024233","2020-09-23T21:33:00","FM-16","7",,,,,,,,,,,,,,,,,,,,,,,,,,,,,,,,,,,,,,,"29.79","57","59","T",,,,"93",,"FEW:02 10 FEW:02 16 SCT:04 21","29.33","10.00","58","200",,"15",,,,,,,,,,,,,,,,,,,,,,,,,,,,,,,,,,,,,"MET11209/23/20 21:33:02 SPECI KSEA 240533Z 20013KT 10SM FEW010 FEW016 SCT021 15/14 A2979 RMK AO2 RAE33 P0000 T01500139","FM-16","7",,,,,,,,,,,,,,,,,,,,,,,,,,,"2007-05-17"
"72793024233","2020-09-23T21:53:00","FM-15","7",,,,,,,,,,,,,,,,,,,,,,,,,,,,,,,,,,,,,,,"29.79","56","59","T",,"-0.06","1","90","29.80","FEW:02 18 SCT:04 220","29.33","10.00","57","200","22","14",,,,,,,,,,,,,,,,,,,,,,,,,,,,,,,,,,,,,"MET13909/23/20 21:53:02 METAR KSEA 240553Z 20012G19KT 10SM FEW018 SCT220 15/13 A2979 RMK AO2 RAE33 SLP091 P0000 60027 T01500133 10167 20150 51021","FM-15","7",,,,,,,,,,,,,,,,,,,,,,,,,,,"2007-05-17"
"72793024233","2020-09-23T22:00:00","FM-12","4",,,,,,,,,,,,,,,,,,,,,,,,,,,,,,,,,,,,,,,,"56","59",,,"-0.06","1","90","29.80","15","29.31","9.94","57","200",,"14",,,,,,,,,,,,,,,,,,,,,,,,,,,,,,,,,,,,,"SYN09272793 12466 42012 10150 20133 39926 40091 51021 60071 90553 333 10178 20144 91019 555 92406=","FM-12","4",,,,,,,,,,,,,,,,,,,,,,,,,,,"2007-05-17"
"72793024233","2020-09-23T22:53:00","FM-15","7",,,,,,,,,,,,,,,,,,,,,,,,,,,,,,,,,,,,,,,"29.81","55","59","0.00",,,,"87","29.82","FEW:02 25 BKN:07 65","29.35","10.00","57","190","24","15",,,,,,,,,,,,,,,,,,,,,,,,,,,,,,,,,,,,,"MET10309/23/20 22:53:02 METAR KSEA 240653Z 19013G21KT 10SM FEW025 BKN065 15/13 A2981 RMK AO2 SLP099 T01500128","FM-15","7",,,,,,,,,,,,,,,,,,,,,,,,,,,"2007-05-17"
"72793024233","2020-09-23T23:53:00","FM-15","7",,,,,,,,,,,,,,,,,,,,,,,,,,,,,,,,,,,,,,,"29.82","54","59","0.00",,,,"83","29.84","SCT:04 33 BKN:07 47 BKN:07 60","29.36","10.00","56","180",,"15",,,,,,,,,,,,,,,,,,,,,,,,,,,,,,,,,,,,,"MET11709/23/20 23:53:02 METAR KSEA 240753Z 18013KT 10SM SCT033 BKN047 BKN060 15/12 A2982 RMK AO2 SLP105 T01500122 401720144","FM-15","7",,,,,,,,,,,,,,,,,,,,,,,,,,,"2007-05-17"
"72793024233","2020-09-23T23:59:00","SOD  ","6",,,,,,,,,,,,,,,,,"57","61","89","29.81","29.34","59","11.1","0","1.5","4","63","58","140","27","1.08","0","0.0","170","21","RA BR",,,,,,,,,,,,,,,,,,,,,,,,,,,,,,,,,,,,,,,,,,,,,,,,,,,,,,,"SOD78324 HR PRECIPITATION (IN): 1.08 SNOW DEPTH (IN):0     24 HR SNOWFALL (IN):0.0  WEATHER(CODE):1  24 HR MAX TEMP (F): 6324 HR MIN TEMP (F): 58AVERAGE STATION PRESSURE:29.335 MINIMUM SEA LEVEL PRESSURE:29.71 TIME OF OCCURRENCE:1810 PEAK WIND SPEED (MPH): 27 PEAK WIND DIR (DEG):140 PEAK WIND TIME (LST):      FASTEST 2MIN SPEED (MPH): 21FASTEST 2MIN DIR (DEG):170 FASTEST 2MIN TIME (LST):     AVERAGE WIND SPEED (MPH):11.1 24 HR AVG TEMP (F): 61DEPART FROM NORMAL:  1  SKY COVER SR-SS (TENTHS): 1HEATING DEGREE DAYS:  4 COOLING DEGREE DAYS:  0 LATEST DAY MAX TEMP (0700-1900 LST):63  LATEST NIGHT MIN TEMP(1900-0800 LST):58 HOURLY INCREMENTAL PRECIPITATION VALUES (IN):.00 0.00 0.02 0.10 0.07 0.02 T    0.03 0.03 0.01 0.10 0.10 0.10 0.03 0.10 0.10 0.12 0.04 0.07 0.02 0.02 T    0.00 0.00","SOD  ","6",,,,,,,,,,,,,,,,,,,,,,,,,"0558","1803","2007-05-17"
"72793024233","2020-09-24T00:53:00","FM-15","7",,,,,,,,,,,,,,,,,,,,,,,,,,,,,,,,,,,,,,,"29.83","53","58","0.00",,"-0.05","1","84","29.85","FEW:02 33 BKN:07 45 BKN:07 50","29.36","10.00","55","180","22","15",,,,,,,,,,,,,,,,,,,,,,,,,,,,,,,,,,,,,"MET12809/24/20 00:53:02 METAR KSEA 240853Z 18013G19KT 10SM FEW033 BKN045 BKN050 14/12 A2983 RMK AO2 SLP107 T01440117 51016 $ FIBI (TL)","FM-15","7",,,,,,,,,,,,,,,,,,,,,,,,,,,"2007-05-17"
"72793024233","2020-09-24T01:53:00","FM-15","7",,,,,,,,,,,,,,,,,,,,,,,,,,,,,,,,,,,,,,,"29.85","53","59","0.00",,,,"81","29.87","FEW:02 23 BKN:07 34 BKN:07 43","29.39","10.00","56","170",,"15",,,,,,,,,,,,,,,,,,,,,,,,,,,,,,,,,,,,,"MET11909/24/20 01:53:02 METAR KSEA 240953Z 17013KT 10SM FEW023 BKN034 BKN043 15/12 A2985 RMK AO2 SLP114 T01500117 $ FIBI (TL)","FM-15","7",,,,,,,,,,,,,,,,,,,,,,,,,,,"2007-05-17"
"72793024233","2020-09-24T02:53:00","FM-15","7",,,,,,,,,,,,,,,,,,,,,,,,,,,,,,,,,,,,,,,"29.87","54","60","0.00",,,,"80","29.88","FEW:02 20 BKN:07 32 BKN:07 45","29.41","10.00","57","170","21","14",,,,,,,,,,,,,,,,,,,,,,,,,,,,,,,,,,,,,"MET12209/24/20 02:53:02 METAR KSEA 241053Z 17012G18KT 10SM FEW020 BKN032 BKN045 16/12 A2987 RMK AO2 SLP120 T01560122 $ FIBI (TL)","FM-15","7",,,,,,,,,,,,,,,,,,,,,,,,,,,"2007-05-17"
"72793024233","2020-09-24T03:53:00","FM-15","7",,,,,,,,,,,,,,,,,,,,,,,,,,,,,,,,,,,,,,,"29.87","53","59","0.00",,"-0.04","1","81","29.88","BKN:07 35 BKN:07 43 OVC:08 50","29.41","10.00","56","170",,"14",,,,,,,,,,,,,,,,,,,,,,,,,,,,,,,,,,,,,"MET14309/24/20 03:53:02 METAR KSEA 241153Z 17012KT 10SM BKN035 BKN043 OVC050 15/12 A2987 RMK AO2 SLP120 70096 T01500117 10156 20144 51013 $ FIBI (TL)","FM-15","7",,,,,,,,,,,,,,,,,,,,,,,,,,,"2007-05-17"
"72793024233","2020-09-24T04:00:00","FM-12","4",,,,,,,,,,,,,,,,,,,,,,,,,,,,,,,,,,,,,,,,"53","59",,,"-0.04","1","81","29.88","41","29.39","9.94","56","170",,"14",,,,,,,,,,,,,,,,,,,,,,,,,,,,,,,,,,,,,"SYN08672793 32666 81712 10150 20117 39953 40120 51013 91153 333 10172 20144 70244 555 92412=","FM-12","4",,,,,,,,,,,,,,,,,,,,,,,,,,,"2007-05-17"
"72793024233","2020-09-24T04:53:00","FM-15","7",,,,,,,,,,,,,,,,,,,,,,,,,,,,,,,,,,,,,,,"29.87","54","58","0.02","-RA:02 |RA |RA",,,"87","29.88","SCT:04 24 BKN:07 43 BKN:07 70","29.41","10.00","56","180",,"14",,,,,,,,,,,,,,,,,,,,,,,,,,,,,,,,,,,,,"MET13509/24/20 04:53:02 METAR KSEA 241253Z 18012KT 10SM -RA SCT024 BKN043 BKN070 14/12 A2987 RMK AO2 RAB25 SLP119 P0002 T01440122 $ FIBI (TL)","FM-15","7",,,,,,,,,,,,,,,,,,,,,,,,,,,"2007-05-17"
"72793024233","2020-09-24T05:53:00","FM-15","7",,,,,,,,,,,,,,,,,,,,,,,,,,,,,,,,,,,,,,,"29.89","53","59","T","|RA |",,,"81","29.90","SCT:04 25 BKN:07 36 BKN:07 80","29.42","10.00","56","180",,"13",,,,,,,,,,,,,,,,,,,,,,,,,,,,,,,,,,,,,"MET13109/24/20 05:53:02 METAR KSEA 241353Z 18011KT 10SM SCT025 BKN036 BKN080 15/12 A2989 RMK AO2 RAE01 SLP126 P0000 T01500117 $ FIBI (JC)","FM-15","7",,,,,,,,,,,,,,,,,,,,,,,,,,,"2007-05-17"
"72793024233","2020-09-24T06:53:00","FM-15","7",,,,,,,,,,,,,,,,,,,,,,,,,,,,,,,,,,,,,,,"29.90","53","59","T",,"-0.03","3","81","29.91","FEW:02 18 SCT:04 34 BKN:07 42","29.44","10.00","56","180",,"16",,,,,,,,,,,,,,,,,,,,,,,,,,,,,,,,,,,,,"MET15109/24/20 06:53:02 METAR KSEA 241453Z 18014KT 10SM FEW018 SCT034 BKN042 15/12 A2990 RMK AO2 RAB05E28 SLP130 VCSH P0000 60002 T01500117 53009 $ FIBI (JC)","FM-15","7",,,,,,,,,,,,,,,,,,,,,,,,,,,"2007-05-17"
"72793024233","2020-09-24T07:53:00","FM-15","7",,,,,,,,,,,,,,,,,,,,,,,,,,,,,,,,,,,,,,,"29.92","54","60","0.00",,,,"80","29.93","FEW:02 25 BKN:07 40 BKN:07 65","29.45","10.00","57","190","24","18",,,,,,,,,,,,,,,,,,,,,,,,,,,,,,,,,,,,,"MET12709/24/20 07:53:02 METAR KSEA 241553Z 19016G21KT 10SM FEW025 BKN040 BKN065 16/12 A2992 RMK AO2 SLP137 VCSH T01560122 $ FIBI (JC)","FM-15","7",,,,,,,,,,,,,,,,,,,,,,,,,,,"2007-05-17"
"72793024233","2020-09-24T08:53:00","FM-15","7",,,,,,,,,,,,,,,,,,,,,,,,,,,,,,,,,,,,,,,"29.94","54","61","T","-RA:02 |RA |RA",,,"78","29.96","FEW:02 25 BKN:07 41 BKN:07 80","29.47","8.00","57","190",,"15",,,,,,,,,,,,,,,,,,,,,,,,,,,,,,,,,,,,,"MET13409/24/20 08:53:02 METAR KSEA 241653Z 19013KT 8SM -RA FEW025 BKN041 BKN080 16/12 A2994 RMK AO2 RAB51 SLP144 P0000 T01610122 $ FIBI (JC)","FM-15","7",,,,,,,,,,,,,,,,,,,,,,,,,,,"2007-05-17"
"72793024233","2020-09-24T09:53:00","FM-15","7",,,,,,,,,,,,,,,,,,,,,,,,,,,,,,,,,,,,,,,"29.96","57","61","0.06",,"-0.06","3","87","29.98","SCT:04 22 BKN:07 31 BKN:07 65","29.49","9.00","59","210",,"11",,,,,,,,,,,,,,,,,,,,,,,,,,,,,,,,,,,,,"MET15909/24/20 09:53:02 METAR KSEA 241753Z 21010KT 9SM SCT022 BKN031 BKN065 16/14 A2996 RMK AO2 RAE52 SLP152 VCSH P0006 60008 T01610139 10172 20144 53021 $ FIBI (JC)","FM-15","7",,,,,,,,,,,,,,,,,,,,,,,,,,,"2007-05-17"
"72793024233","2020-09-24T10:00:00","FM-12","4",,,,,,,,,,,,,,,,,,,,,,,,,,,,,,,,,,,,,,,,"57","61",,,"-0.06","3","87","29.98","26","29.48","8.70","59","210",,"11",,,,,,,,,,,,,,,,,,,,,,,,,,,,,,,,,,,,,"SYN08672793 12564 62110 10161 20139 39983 40152 53021 60021 91753 333 10172 20144 555 92418=","FM-12","4",,,,,,,,,,,,,,,,,,,,,,,,,,,"2007-05-17"
"72793024233","2020-09-24T10:53:00","FM-15","7",,,,,,,,,,,,,,,,,,,,,,,,,,,,,,,,,,,,,,,"29.97","57","64","0.00",,,,"78","29.98","FEW:02 24 BKN:07 42 BKN:07 250","29.50","10.00","60","190",,"11",,,,,,,,,,,,,,,,,,,,,,,,,,,,,,,,,,,,,"MET12409/24/20 10:53:02 METAR KSEA 241853Z 19010KT 10SM FEW024 BKN042 BKN250 18/14 A2997 RMK AO2 SLP153 VCSH T01780139 $ FIBI (JC)","FM-15","7",,,,,,,,,,,,,,,,,,,,,,,,,,,"2007-05-17"
"72793024233","2020-09-24T11:53:00","FM-15","7",,,,,,,,,,,,,,,,,,,,,,,,,,,,,,,,,,,,,,,"29.98","55","63","T","-RA:02 |RA |RA",,,"75","29.99","SCT:04 24 BKN:07 80 BKN:07 110","29.51","10.00","58","210",,"14",,,,,,,,,,,,,,,,,,,,,,,,,,,,,,,,,,,,,"MET13309/24/20 11:53:02 METAR KSEA 241953Z 21012KT 10SM -RA SCT024 BKN080 BKN110 17/13 A2998 RMK AO2 RAB38 SLP156 P0000 T01720128 FIBI (JC)","FM-15","7",,,,,,,,,,,,,,,,,,,,,,,,,,,"2007-05-17"
"72793024233","2020-09-24T12:53:00","FM-15","7",,,,,,,,,,,,,,,,,,,,,,,,,,,,,,,,,,,,,,,"29.99","52","63","T",,"-0.02","3","68","30.00","SCT:04 27 BKN:07 85 BKN:07 120","29.52","10.00","57","190",,"13",,,,,,,,,,,,,,,,,,,,,,,,,,,,,,,,,,,,,"MET15009/24/20 12:53:02 METAR KSEA 242053Z 19011KT 10SM SCT027 BKN085 BKN120 17/11 A2999 RMK AO2 RAE01 SLP160 SHRA E-S P0000 60000 T01720111 53008 FIBI (JC)","FM-15","7",,,,,,,,,,,,,,,,,,,,,,,,,,,"2007-05-17"
"72793024233","2020-09-24T13:53:00","FM-15","7",,,,,,,,,,,,,,,,,,,,,,,,,,,,,,,,,,,,,,,"29.99","53","63","0.00",,,,"70","30.00","FEW:02 29 SCT:04 90 BKN:07 200","29.52","10.00","57","180",,"11",,,,,,,,,,,,,,,,,,,,,,,,,,,,,,,,,,,,,"MET11709/24/20 13:53:02 METAR KSEA 242153Z 18010KT 10SM FEW029 SCT090 BKN200 17/12 A2999 RMK AO2 SLP160 T01720117 FIBI (RS)","FM-15","7",,,,,,,,,,,,,,,,,,,,,,,,,,,"2007-05-17"
"72793024233","2020-09-24T14:53:00","FM-15","7",,,,,,,,,,,,,,,,,,,,,,,,,,,,,,,,,,,,,,,"29.99","54","62","0.00",,,,"75","30.00","FEW:02 29 BKN:07 90 BKN:07 200","29.52","10.00","57","180",,"13",,,,,,,,,,,,,,,,,,,,,,,,,,,,,,,,,,,,,"MET11709/24/20 14:53:02 METAR KSEA 242253Z 18011KT 10SM FEW029 BKN090 BKN200 17/12 A2999 RMK AO2 SLP160 T01670122 FIBI (RS)","FM-15","7",,,,,,,,,,,,,,,,,,,,,,,,,,,"2007-05-17"
"72793024233","2020-09-24T15:53:00","FM-15","7",,,,,,,,,,,,,,,,,,,,,,,,,,,,,,,,,,,,,,,"29.98","53","62","0.00",,"+0.00","8","73","30.00","FEW:02 29 SCT:04 90 BKN:07 200","29.51","10.00","57","190",,"11",,,,,,,,,,,,,,,,,,,,,,,,,,,,,,,,,,,,,"MET14109/24/20 15:53:02 METAR KSEA 242353Z 19010KT 10SM FEW029 SCT090 BKN200 17/12 A2998 RMK AO2 SLP159 60000 T01670117 10189 20161 58001 FIBI (RS)","FM-15","7",,,,,,,,,,,,,,,,,,,,,,,,,,,"2007-05-17"
"72793024233","2020-09-24T16:00:00","FM-12","4",,,,,,,,,,,,,,,,,,,,,,,,,,,,,,,,,,,,,,,,"53","62",,,"+0.00","8","73","30.00","26","29.50","9.94","57","190",,"11",,,,,,,,,,,,,,,,,,,,,,,,,,,,,,,,,,,,,"SYN08672793 12566 61910 10167 20117 39989 40159 58001 69901 92353 333 10189 20144 555 92500=","FM-12","4",,,,,,,,,,,,,,,,,,,,,,,,,,,"2007-05-17"
"72793024233","2020-09-24T16:53:00","FM-15","7",,,,,,,,,,,,,,,,,,,,,,,,,,,,,,,,,,,,,,,"29.98","54","62","0.00",,,,"75","29.99","FEW:02 28 SCT:04 90 BKN:07 180","29.51","10.00","57","170",,"10",,,,,,,,,,,,,,,,,,,,,,,,,,,,,,,,,,,,,"MET10709/24/20 16:53:01 METAR KSEA 250053Z 17009KT 10SM FEW028 SCT090 BKN180 17/12 A2998 RMK AO2 SLP156 T01670122","FM-15","7",,,,,,,,,,,,,,,,,,,,,,,,,,,"2007-05-17"
"72793024233","2020-09-24T17:53:00","FM-15","7",,,,,,,,,,,,,,,,,,,,,,,,,,,,,,,,,,,,,,,"29.97","55","61","0.00",,,,"81","29.98","SCT:04 36 BKN:07 90 BKN:07 160","29.50","10.00","58","140",,"11",,,,,,,,,,,,,,,,,,,,,,,,,,,,,,,,,,,,,"MET10709/24/20 17:53:01 METAR KSEA 250153Z 14010KT 10SM SCT036 BKN090 BKN160 16/13 A2997 RMK AO2 SLP154 T01610128","FM-15","7",,,,,,,,,,,,,,,,,,,,,,,,,,,"2007-05-17"
"72793024233","2020-09-24T18:53:00","FM-15","7",,,,,,,,,,,,,,,,,,,,,,,,,,,,,,,,,,,,,,,"29.97","55","60","0.00",,"+0.02","6","84","29.98","FEW:02 38 SCT:04 100 BKN:07 250","29.50","10.00","57","150",,"10",,,,,,,,,,,,,,,,,,,,,,,,,,,,,,,,,,,,,"MET11309/24/20 18:53:01 METAR KSEA 250253Z 15009KT 10SM FEW038 SCT100 BKN250 16/13 A2997 RMK AO2 SLP153 T01560128 56006","FM-15","7",,,,,,,,,,,,,,,,,,,,,,,,,,,"2007-05-17"
"72793024233","2020-09-24T19:53:00","FM-15","7",,,,,,,,,,,,,,,,,,,,,,,,,,,,,,,,,,,,,,,"29.95","55","60","0.00",,,,"84","29.97","FEW:02 38 SCT:04 150 BKN:07 250","29.48","10.00","57","150",,"9",,,,,,,,,,,,,,,,,,,,,,,,,,,,,,,,,,,,,"MET10709/24/20 19:53:02 METAR KSEA 250353Z 15008KT 10SM FEW038 SCT150 BKN250 16/13 A2995 RMK AO2 SLP149 T01560128","FM-15","7",,,,,,,,,,,,,,,,,,,,,,,,,,,"2007-05-17"
"72793024233","2020-09-24T20:53:00","FM-15","7",,,,,,,,,,,,,,,,,,,,,,,,,,,,,,,,,,,,,,,"29.94","55","59","0.00",,,,"87","29.96","FEW:02 150 SCT:04 250","29.47","10.00","57","130",,"10",,,,,,,,,,,,,,,,,,,,,,,,,,,,,,,,,,,,,"MET10009/24/20 20:53:02 METAR KSEA 250453Z 13009KT 10SM FEW150 SCT250 15/13 A2994 RMK AO2 SLP144 T01500128","FM-15","7",,,,,,,,,,,,,,,,,,,,,,,,,,,"2007-05-17"
"72793024233","2020-09-24T21:53:00","FM-15","7",,,,,,,,,,,,,,,,,,,,,,,,,,,,,,,,,,,,,,,"29.92","54","58","0.00",,"+0.04","8","87","29.94","FEW:02 37 BKN:07 200","29.45","10.00","56","140",,"9",,,,,,,,,,,,,,,,,,,,,,,,,,,,,,,,,,,,,"MET11809/24/20 21:53:02 METAR KSEA 250553Z 14008KT 10SM FEW037 BKN200 14/12 A2992 RMK AO2 SLP138 T01440122 10167 20139 58014","FM-15","7",,,,,,,,,,,,,,,,,,,,,,,,,,,"2007-05-17"
"72793024233","2020-09-24T22:00:00","FM-12","4",,,,,,,,,,,,,,,,,,,,,,,,,,,,,,,,,,,,,,,,"54","58",,,"+0.04","8","87","29.94","41","29.44","9.94","56","140",,"9",,,,,,,,,,,,,,,,,,,,,,,,,,,,,,,,,,,,,"SYN08072793 32666 61408 10144 20122 39969 40138 58014 90553 333 10167 20139 555 92506=","FM-12","4",,,,,,,,,,,,,,,,,,,,,,,,,,,"2007-05-17"
"72793024233","2020-09-24T22:53:00","FM-15","7",,,,,,,,,,,,,,,,,,,,,,,,,,,,,,,,,,,,,,,"29.89","53","58","0.00",,,,"84","29.91","FEW:02 38 BKN:07 120","29.42","10.00","55","150",,"10",,,,,,,,,,,,,,,,,,,,,,,,,,,,,,,,,,,,,"MET10009/24/20 22:53:02 METAR KSEA 250653Z 15009KT 10SM FEW038 BKN120 14/12 A2989 RMK AO2 SLP128 T01440117","FM-15","7",,,,,,,,,,,,,,,,,,,,,,,,,,,"2007-05-17"
"72793024233","2020-09-24T23:53:00","FM-15","7",,,,,,,,,,,,,,,,,,,,,,,,,,,,,,,,,,,,,,,"29.88","52","59","0.00",,,,"78","29.90","FEW:02 44 SCT:04 50 BKN:07 100","29.41","10.00","55","130",,"9",,,,,,,,,,,,,,,,,,,,,,,,,,,,,,,,,,,,,"MET11709/24/20 23:53:02 METAR KSEA 250753Z 13008KT 10SM FEW044 SCT050 BKN100 15/11 A2988 RMK AO2 SLP124 T01500111 401890139","FM-15","7",,,,,,,,,,,,,,,,,,,,,,,,,,,"2007-05-17"
"72793024233","2020-09-24T23:59:00","SOD  ","6",,,,,,,,,,,,,,,,,"54","62","80","29.94","29.47","57","12.5","0","2.8","3","66","57","190","24","0.08","0","0.0","190","18","RA",,,,,,,,,,,,,,,,,,,,,,,,,,,,,,,,,,,,,,,,,,,,,,,,,,,,,,,"SOD73924 HR PRECIPITATION (IN): 0.08 SNOW DEPTH (IN):0     24 HR SNOWFALL (IN):0.0  24 HR MAX TEMP (F): 6624 HR MIN TEMP (F): 57AVERAGE STATION PRESSURE:29.465 MINIMUM SEA LEVEL PRESSURE:29.84 TIME OF OCCURRENCE:0055 PEAK WIND SPEED (MPH): 24 PEAK WIND DIR (DEG):190 PEAK WIND TIME (LST):      FASTEST 2MIN SPEED (MPH): 18FASTEST 2MIN DIR (DEG):190 FASTEST 2MIN TIME (LST):     AVERAGE WIND SPEED (MPH):12.5 24 HR AVG TEMP (F): 62DEPART FROM NORMAL:  3  HEATING DEGREE DAYS:  3 COOLING DEGREE DAYS:  0 LATEST DAY MAX TEMP (0700-1900 LST):66  LATEST NIGHT MIN TEMP(1900-0800 LST):58 HOURLY INCREMENTAL PRECIPITATION VALUES (IN):.00 0.00 0.00 0.00 0.02 T    T    0.00 T    0.06 0.00 T    T    0.00 0.00 0.00 0.00 0.00 0.00 0.00 0.00 0.00 0.00 0.00","SOD  ","6",,,,,,,,,,,,,,,,,,,,,,,,,"0600","1801","2007-05-17"
"72793024233","2020-09-25T00:53:00","FM-15","7",,,,,,,,,,,,,,,,,,,,,,,,,,,,,,,,,,,,,,,"29.85","51","58",,,"+0.07","7","78","29.87","FEW:02 50 SCT:04 90 BKN:07 140","29.39","10.00","54","150",,"9",,,,,,,,,,,,,,,,,,,,,,,,,,,,,,,,,,,,,"MET11309/25/20 00:53:02 METAR KSEA 250853Z 15008KT 10SM FEW050 SCT090 BKN140 14/11 A2985 RMK AO2 SLP114 T01440106 57024","FM-15","7",,,,,,,,,,,,,,,,,,,,,,,,,,,"2007-05-17"
"72793024233","2020-09-25T01:53:00","FM-15","7",,,,,,,,,,,,,,,,,,,,,,,,,,,,,,,,,,,,,,,"29.82","50","60",,,,,"70","29.84","FEW:02 60 BKN:07 85 BKN:07 110","29.36","10.00","55","170",,"11",,,,,,,,,,,,,,,,,,,,,,,,,,,,,,,,,,,,,"MET10709/25/20 01:53:02 METAR KSEA 250953Z 17010KT 10SM FEW060 BKN085 BKN110 16/10 A2982 RMK AO2 SLP104 T01560100","FM-15","7",,,,,,,,,,,,,,,,,,,,,,,,,,,"2007-05-17"
"72793024233","2020-09-25T02:53:00","FM-15","7",,,,,,,,,,,,,,,,,,,,,,,,,,,,,,,,,,,,,,,"29.79","51","60","T","-RA:02 |RA |RA",,,"72","29.80","FEW:02 45 SCT:04 55 OVC:08 75","29.33","10.00","55","170",,"13",,,,,,,,,,,,,,,,,,,,,,,,,,,,,,,,,,,,,"MET12309/25/20 02:53:02 METAR KSEA 251053Z 17011KT 10SM -RA FEW045 SCT055 OVC075 16/11 A2979 RMK AO2 RAB43 SLP092 P0000 T01560106","FM-15","7",,,,,,,,,,,,,,,,,,,,,,,,,,,"2007-05-17"
"72793024233","2020-09-25T03:53:00","FM-15","7",,,,,,,,,,,,,,,,,,,,,,,,,,,,,,,,,,,,,,,"29.76","51","58","0.03","-RA:02 |RA |RA","+0.09","6","78","29.77","OVC:08 70","29.30","9.00","54","160",,"11",,,,,,,,,,,,,,,,,,,,,,,,,,,,,,,,,,,,,"MET13209/25/20 03:53:02 METAR KSEA 251153Z 16010KT 9SM -RA OVC070 14/11 A2976 RMK AO2 SLP082 P0003 60003 70011 T01440106 10161 20144 56031","FM-15","7",,,,,,,,,,,,,,,,,,,,,,,,,,,"2007-05-17"
"72793024233","2020-09-25T04:00:00","FM-12","4",,,,,,,,,,,,,,,,,,,,,,,,,,,,,,,,,,,,,,,,"51","58",,"||RA","+0.09","6","78","29.77","74","29.28","8.70","54","160",,"11",,,,,,,,,,,,,,,,,,,,,,,,,,,,,,,,,,,,,"SYN09872793 11864 81610 10144 20106 39916 40082 56031 69981 761// 91153 333 10189 20139 70028 555 92512=","FM-12","4",,,,,,,,,,,,,,,,,,,,,,,,,,,"2007-05-17"
"72793024233","2020-09-25T04:53:00","FM-15","7",,,,,,,,,,,,,,,,,,,,,,,,,,,,,,,,,,,,,,,"29.74","52","57","0.06","-RA:02 |RA |RA",,,"83","29.75","SCT:04 48 OVC:08 65","29.28","8.00","54","170",,"11",,,,,,,,,,,,,,,,,,,,,,,,,,,,,,,,,,,,,"MET10909/25/20 04:53:02 METAR KSEA 251253Z 17010KT 8SM -RA SCT048 OVC065 14/11 A2974 RMK AO2 SLP075 P0006 T01390111","FM-15","7",,,,,,,,,,,,,,,,,,,,,,,,,,,"2007-05-17"
"72793024233","2020-09-25T05:53:00","FM-15","7",,,,,,,,,,,,,,,,,,,,,,,,,,,,,,,,,,,,,,,"29.72","52","57","0.09","RA:02 |RA |RA",,,"83","29.73","BKN:07 44 OVC:08 60","29.26","5.00","54","160",,"17",,,,,,,,,,,,,,,,,,,,,,,,,,,,,,,,,,,,,"MET10809/25/20 05:53:02 METAR KSEA 251353Z 16015KT 5SM RA BKN044 OVC060 14/11 A2972 RMK AO2 SLP069 P0009 T01390111","FM-15","7",,,,,,,,,,,,,,,,,,,,,,,,,,,"2007-05-17"
"72793024233","2020-09-25T06:53:00","FM-15","7",,,,,,,,,,,,,,,,,,,,,,,,,,,,,,,,,,,,,,,"29.70","52","57","0.08","-RA:02 |RA |RA","+0.06","6","83","29.71","BKN:07 45 OVC:08 70","29.24","9.00","54","150","24","18",,,,,,,,,,,,,,,,,,,,,,,,,,,,,,,,,,,,,"MET12409/25/20 06:53:02 METAR KSEA 251453Z 15016G21KT 9SM -RA BKN045 OVC070 14/11 A2970 RMK AO2 SLP062 P0008 60023 T01390111 56020","FM-15","7",,,,,,,,,,,,,,,,,,,,,,,,,,,"2007-05-17"
"72793024233","2020-09-25T07:53:00","FM-15","7",,,,,,,,,,,,,,,,,,,,,,,,,,,,,,,,,,,,,,,"29.68","52","56","0.07","RA:02 BR:1 |RA |RA",,,"87","29.69","BKN:07 37 OVC:08 55","29.22","4.00","54","120",,"7",,,,,,,,,,,,,,,,,,,,,,,,,,,,,,,,,,,,,"MET11109/25/20 07:53:02 METAR KSEA 251553Z 12006KT 4SM RA BR BKN037 OVC055 13/11 A2968 RMK AO2 SLP055 P0007 T01330111","FM-15","7",,,,,,,,,,,,,,,,,,,,,,,,,,,"2007-05-17"
"72793024233","2020-09-25T08:53:00","FM-15","7",,,,,,,,,,,,,,,,,,,,,,,,,,,,,,,,,,,,,,,"29.69","53","56","0.15","-RA:02 BR:1 |RA |RA",,,"90","29.70","FEW:02 16 BKN:07 37 OVC:08 50","29.23","4.00","54","240","18","8",,,,,,,,,,,,,,,,,,,,,,,,,,,,,,,,,,,,,"MET12209/25/20 08:53:02 METAR KSEA 251653Z 24007G16KT 4SM -RA BR FEW016 BKN037 OVC050 13/12 A2969 RMK AO2 SLP057 P0015 T01330117","FM-15","7",,,,,,,,,,,,,,,,,,,,,,,,,,,"2007-05-17"
"72793024233","2020-09-25T09:53:00","FM-15","7",,,,,,,,,,,,,,,,,,,,,,,,,,,,,,,,,,,,,,,"29.68","54","57",,,,,"90",,"SCT:04 20 BKN:07 32 OVC:08 50","29.22","10.00","55","160","25","20",,,,,,,,,,,,,,,,,,,,,,,,,,,,,,,,,,,,,"MET11509/25/20 09:53:02 METAR KSEA 251753Z 16017G22KT 10SM SCT020 BKN032 OVC050 14/12 A2968 RMK AO2 RAE38 SLPNO T01390122","FM-15","7",,,,,,,,,,,,,,,,,,,,,,,,,,,"2007-05-17"
"72793024233","2020-09-25T10:00:00","FM-12","4",,,,,,,,,,,,,,,,,,,,,,,,,,,,,,,,,,,,,,,,"54","57",,,,,"90",,"26","29.20","9.94","55","160",,"20",,,,,,,,,,,,,,,,,,,,,,,,,,,,,,,,,,,,,"SYN06272793 32566 81617 10139 20122 39889 91753 333 91022 555 92518=","FM-12","4",,,,,,,,,,,,,,,,,,,,,,,,,,,"2007-05-17"
"72793024233","2020-09-25T10:10:00","FM-16","7",,,,,,,,,,,,,,,,,,,,,,,,,,,,,,,,,,,,,,,"29.69","54","57",,,,,"90",,"BKN:07 20 OVC:08 32","29.23","10.00","55","150",,"7",,,,,,,,,,,,,,,,,,,,,,,,,,,,,,,,,,,,,"MET09909/25/20 10:10:02 SPECI KSEA 251810Z 15006KT 10SM BKN020 OVC032 14/12 A2969 RMK AO2 SLPNO T01390122","FM-16","7",,,,,,,,,,,,,,,,,,,,,,,,,,,"2007-05-17"
"72793024233","2020-09-25T10:53:00","FM-15","7",,,,,,,,,,,,,,,,,,,,,,,,,,,,,,,,,,,,,,,"29.70","56","59","T","-RA:02 |RA |RA",,,"90",,"SCT:04 12 OVC:08 23","29.24","8.00","57","180",,"15",,,,,,,,,,,,,,,,,,,,,,,,,,,,,,,,,,,,,"MET12409/25/20 10:53:02 METAR KSEA 251853Z 18013KT 8SM -RA SCT012 OVC023 15/13 A2970 RMK AO2 RAB33 SLPNO P0000 T01500133 FIBI (JC)","FM-15","7",,,,,,,,,,,,,,,,,,,,,,,,,,,"2007-05-17"
"72793024233","2020-09-25T11:09:00","FM-16","7",,,,,,,,,,,,,,,,,,,,,,,,,,,,,,,,,,,,,,,"29.70","56","59","0.02","-RA:02 BR:1 |RA |RA",,,"90",,"FEW:02 7 BKN:07 18 OVC:08 22","29.24","3.00","57","190",,"15",,,,,,,,,,,,,,,,,,,,,,,,,,,,,,,,,,,,,"MET15209/25/20 11:09:02 SPECI KSEA 251909Z 19013KT 3SM R16L/3000VP6000FT -RA BR FEW007 BKN018 OVC022 15/13 A2970 RMK AO2 VIS W 1 1/2 P0002 T01500133 FIBI (JC)","FM-16","7",,,,,,,,,,,,,,,,,,,,,,,,,,,"2007-05-17"
"72793024233","2020-09-25T11:53:00","FM-15","6",,,,,,,,,,,,,,,,,,,,,,,,,,,,,,,,,,,,,,,"29.72","57","60","0.09","RA:02 BR:1 |RA |RA",,,"90",,"FEW:02 8 BKN:07 20 OVC:08 31","29.26","3.00","58","200","25","15",,,,,,,,,,,,,,,,,,,,,,,,,,,,,,,,,,,,,"MET15609/25/20 11:53:02 METAR KSEA 251953Z 20013G22KT 3SM R16L/3500VP6000FT RA BR FEW008 BKN020 OVC031 16/14 A2972 RMK AO2 SLPNO VIS W 2 P0006 T01560139 FIBI (JC)","FM-15","6",,,,,,,,,,,,,,,,,,,,,,,,,,,"2007-05-17"
"72793024233","2020-09-25T12:43:00","FM-16","7",,,,,,,,,,,,,,,,,,,,,,,,,,,,,,,,,,,,,,,"29.73","59","60","0.21",,,,"96",,"SCT:04 6 BKN:07 75","29.27","7.00","59","190",,"14",,,,,,,,,,,,,,,,,,,,,,,,,,,,,,,,,,,,,"MET11409/25/20 12:43:02 SPECI KSEA 252043Z 19012KT 7SM SCT006 BKN075 16/15 A2973 RMK AO2 RAE31 P0021 T01560150 FIBI (JC)","FM-16","7",,,,,,,,,,,,,,,,,,,,,,,,,,,"2007-05-17"
"72793024233","2020-09-25T12:53:00","FM-15","7",,,,,,,,,,,,,,,,,,,,,,,,,,,,,,,,,,,,,,,"29.73","59","60","0.18",,,,"96",,"FEW:02 6 BKN:07 16 OVC:08 65","29.27","8.00","59","200",,"16",,,,,,,,,,,,,,,,,,,,,,,,,,,,,,,,,,,,,"MET13309/25/20 12:53:02 METAR KSEA 252053Z 20014KT 8SM FEW006 BKN016 OVC065 16/15 A2973 RMK AO2 RAE31 SLPNO P0021 60027 T01560150 FIBI (JC)","FM-15","7",,,,,,,,,,,,,,,,,,,,,,,,,,,"2007-05-17"
"72793024233","2020-09-25T13:22:00","FM-16","7",,,,,,,,,,,,,,,,,,,,,,,,,,,,,,,,,,,,,,,"29.74","56","61",,,,,"84",,"FEW:02 6 SCT:04 15 BKN:07 65","29.28","10.00","58","230","31","21",,,,,,,,,,,,,,,,,,,,,,,,,,,,,,,,,,,,,"MET13109/25/20 13:22:02 SPECI KSEA 252122Z 23018G27KT 10SM FEW006 SCT015 BKN065 16/13 A2974 RMK AO2 PK WND 22027/2117 T01610133 FIBI (RS)","FM-16","7",,,,,,,,,,,,,,,,,,,,,,,,,,,"2007-05-17"
"72793024233","2020-09-25T13:53:00","FM-15","7",,,,,,,,,,,,,,,,,,,,,,,,,,,,,,,,,,,,,,,"29.76","55","63","0.00",,,,"75",,"FEW:02 9 SCT:04 17 BKN:07 85","29.30","10.00","58","220","32","18",,,,,,,,,,,,,,,,,,,,,,,,,,,,,,,,,,,,,"MET13709/25/20 13:53:02 METAR KSEA 252153Z 22016G28KT 10SM FEW009 SCT017 BKN085 17/13 A2976 RMK AO2 PK WND 24028/2144 SLPNO T01720128 FIBI (RS)","FM-15","7",,,,,,,,,,,,,,,,,,,,,,,,,,,"2007-05-17"
"72793024233","2020-09-25T14:53:00","FM-15","7",,,,,,,,,,,,,,,,,,,,,,,,,,,,,,,,,,,,,,,"29.80","52","61","0.00",,,,"72",,"FEW:02 18 SCT:04 90 BKN:07 250","29.34","10.00","56","210","28","17",,,,,,,,,,,,,,,,,,,,,,,,,,,,,,,,,,,,,"MET13709/25/20 14:53:02 METAR KSEA 252253Z 21015G24KT 10SM FEW018 SCT090 BKN250 16/11 A2980 RMK AO2 PK WND 22027/2154 SLPNO T01610111 FIBI (RS)","FM-15","7",,,,,,,,,,,,,,,,,,,,,,,,,,,"2007-05-17"
"72793024233","2020-09-25T15:53:00","FM-15","7",,,,,,,,,,,,,,,,,,,,,,,,,,,,,,,,,,,,,,,"29.83","52","61","0.00",,"-0.10","1","72",,"FEW:02 21 SCT:04 100 BKN:07 220","29.36","10.00","56","200","25","15",,,,,,,,,,,,,,,,,,,,,,,,,,,,,,,,,,,,,"MET14309/25/20 15:53:02 METAR KSEA 252353Z 20013G22KT 10SM FEW021 SCT100 BKN220 16/11 A2983 RMK AO2 SLPNO 60027 T01610111 10172 20144 51033 FIBI (RS)","FM-15","7",,,,,,,,,,,,,,,,,,,,,,,,,,,"2007-05-17"
"72793024233","2020-09-25T16:00:00","FM-12","4",,,,,,,,,,,,,,,,,,,,,,,,,,,,,,,,,,,,,,,,"52","61",,,"-0.10","1","72",,"26","29.35","9.94","56","200",,"15",,,,,,,,,,,,,,,,,,,,,,,,,,,,,,,,,,,,,"SYN07472793 12566 62013 10161 20111 39939 51033 60071 92353 333 91022 555 92600=","FM-12","4",,,,,,,,,,,,,,,,,,,,,,,,,,,"2007-05-17"
"72793024233","2020-09-25T16:53:00","FM-15","7",,,,,,,,,,,,,,,,,,,,,,,,,,,,,,,,,,,,,,,"29.85","50","61","0.00",,,,"67",,"FEW:02 25 SCT:04 100 BKN:07 220","29.39","10.00","55","210",,"16",,,,,,,,,,,,,,,,,,,,,,,,,,,,,,,,,,,,,"MET10609/25/20 16:53:01 METAR KSEA 260053Z 21014KT 10SM FEW025 SCT100 BKN220 16/10 A2985 RMK AO2 SLPNO T01610100","FM-15","7",,,,,,,,,,,,,,,,,,,,,,,,,,,"2007-05-17"
"72793024233","2020-09-25T17:53:00","FM-15","7",,,,,,,,,,,,,,,,,,,,,,,,,,,,,,,,,,,,,,,"29.88","50","59","0.00",,,,"72",,"FEW:02 25 SCT:04 140 BKN:07 220","29.41","10.00","54","210",,"14",,,,,,,,,,,,,,,,,,,,,,,,,,,,,,,,,,,,,"MET10609/25/20 17:53:01 METAR KSEA 260153Z 21012KT 10SM FEW025 SCT140 BKN220 15/10 A2988 RMK AO2 SLPNO T01500100","FM-15","7",,,,,,,,,,,,,,,,,,,,,,,,,,,"2007-05-17"
"72793024233","2020-09-25T18:53:00","FM-15","7",,,,,,,,,,,,,,,,,,,,,,,,,,,,,,,,,,,,,,,"29.89","50","58","0.00",,"-0.06","1","75",,"FEW:02 75 SCT:04 130 SCT:04 250","29.42","10.00","54","210","21","13",,,,,,,,,,,,,,,,,,,,,,,,,,,,,,,,,,,,,"MET11509/25/20 18:53:01 METAR KSEA 260253Z 21011G18KT 10SM FEW075 SCT130 SCT250 14/10 A2989 RMK AO2 SLPNO T01440100 51021","FM-15","7",,,,,,,,,,,,,,,,,,,,,,,,,,,"2007-05-17"
"72793024233","2020-09-25T19:53:00","FM-15","7",,,,,,,,,,,,,,,,,,,,,,,,,,,,,,,,,,,,,,,"29.93","48","56","0.00",,,,"75",,"FEW:02 75 SCT:04 140 BKN:07 250","29.47","10.00","52","210","20","14",,,,,,,,,,,,,,,,,,,,,,,,,,,,,,,,,,,,,"MET10909/25/20 19:53:02 METAR KSEA 260353Z 21012G17KT 10SM FEW075 SCT140 BKN250 13/09 A2993 RMK AO2 SLPNO T01330089","FM-15","7",,,,,,,,,,,,,,,,,,,,,,,,,,,"2007-05-17"
"72793024233","2020-09-25T20:53:00","FM-15","7",,,,,,,,,,,,,,,,,,,,,,,,,,,,,,,,,,,,,,,"29.95","49","55","0.00",,,,"80",,"FEW:02 75 BKN:07 150","29.48","10.00","52","200",,"8",,,,,,,,,,,,,,,,,,,,,,,,,,,,,,,,,,,,,"MET09909/25/20 20:53:02 METAR KSEA 260453Z 20007KT 10SM FEW075 BKN150 13/09 A2995 RMK AO2 SLPNO T01280094","FM-15","7",,,,,,,,,,,,,,,,,,,,,,,,,,,"2007-05-17"
"72793024233","2020-09-25T21:38:00","FM-16","7",,,,,,,,,,,,,,,,,,,,,,,,,,,,,,,,,,,,,,,"29.96","49","56",,,,,"77",,"BKN:07 20 OVC:08 140","29.49","10.00","52","170",,"8",,,,,,,,,,,,,,,,,,,,,,,,,,,,,,,,,,,,,"MET09309/25/20 21:38:02 SPECI KSEA 260538Z 17007KT 10SM BKN020 OVC140 13/09 A2996 RMK AO2 T01330094","FM-16","7",,,,,,,,,,,,,,,,,,,,,,,,,,,"2007-05-17"
"72793024233","2020-09-25T21:53:00","FM-15","7",,,,,,,,,,,,,,,,,,,,,,,,,,,,,,,,,,,,,,,"29.96","50","56","0.00",,"-0.07","1","81",,"OVC:08 19","29.49","10.00","53","170",,"9",,,,,,,,,,,,,,,,,,,,,,,,,,,,,,,,,,,,,"MET11009/25/20 21:53:02 METAR KSEA 260553Z 17008KT 10SM OVC019 13/10 A2996 RMK AO2 SLPNO T01330100 10167 20128 51024","FM-15","7",,,,,,,,,,,,,,,,,,,,,,,,,,,"2007-05-17"
"72793024233","2020-09-25T22:00:00","FM-12","4",,,,,,,,,,,,,,,,,,,,,,,,,,,,,,,,,,,,,,,,"50","56",,,"-0.07","1","81",,"15","29.48","9.94","53","170",,"9",,,,,,,,,,,,,,,,,,,,,,,,,,,,,,,,,,,,,"SYN05872793 32466 81708 10133 20100 39983 51024 90553 555 92606=","FM-12","4",,,,,,,,,,,,,,,,,,,,,,,,,,,"2007-05-17"
"72793024233","2020-09-25T22:53:00","FM-15","7",,,,,,,,,,,,,,,,,,,,,,,,,,,,,,,,,,,,,,,"29.98","51","56","0.00",,,,"84","30.00","OVC:08 16","29.51","10.00","53","140",,"5",,,,,,,,,,,,,,,,,,,,,,,,,,,,,,,,,,,,,"MET09309/25/20 22:53:02 METAR KSEA 260653Z 14004KT 10SM OVC016 13/11 A2998 RMK AO2 SLP159 T01330106","FM-15","7",,,,,,,,,,,,,,,,,,,,,,,,,,,"2007-05-17"
"72793024233","2020-09-25T23:53:00","FM-15","7",,,,,,,,,,,,,,,,,,,,,,,,,,,,,,,,,,,,,,,"29.99","51","56","0.00",,,,"84","30.01","BKN:07 19","29.52","10.00","53","160",,"10",,,,,,,,,,,,,,,,,,,,,,,,,,,,,,,,,,,,,"MET10309/25/20 23:53:02 METAR KSEA 260753Z 16009KT 10SM BKN019 13/11 A2999 RMK AO2 SLP162 T01330106 401720128","FM-15","7",,,,,,,,,,,,,,,,,,,,,,,,,,,"2007-05-17"
"72793024233","2020-09-25T23:59:00","SOD  ","6",,,,,,,,,,,,,,,,,"52","59","80","29.91","29.35","55","12.2","0","0.1","6","63","55","220","32","0.75","0","0.0","230","21","RA BR",,,,,,,,,,,,,,,,,,,,,,,,,,,,,,,,,,,,,,,,,,,,,,,,,,,,,,,"SOD68424 HR PRECIPITATION (IN): 0.75 SNOW DEPTH (IN):0     24 HR SNOWFALL (IN):0.0  WEATHER(CODE):1  24 HR MAX TEMP (F): 6324 HR MIN TEMP (F): 55MINIMUM SEA LEVEL PRESSURE:29.98 TIME OF OCCURRENCE:2225 PEAK WIND SPEED (MPH): 32 PEAK WIND DIR (DEG):220 PEAK WIND TIME (LST):      FASTEST 2MIN SPEED (MPH): 21FASTEST 2MIN DIR (DEG):230 FASTEST 2MIN TIME (LST):     AVERAGE WIND SPEED (MPH):12.2 24 HR AVG TEMP (F): 59DEPART FROM NORMAL:  0  HEATING DEGREE DAYS:  6 COOLING DEGREE DAYS:  0 LATEST DAY MAX TEMP (0700-1900 LST):63( HOURLY INCREMENTAL PRECIPITATION VALUES (IN):    M    M    M    M    M    M    M    M    M    T    0.09 0.18 0.00 0.00 0.00 0.00 0.00 0.00 0.00 0.00 0.00 0.00 0.00","SOD  ","6",,,,,,,,,,,,,,,,,,,,,,,,,"0601","1759","2007-05-17"
"72793024233","2020-09-26T00:53:00","FM-15","7",,,,,,,,,,,,,,,,,,,,,,,,,,,,,,,,,,,,,,,"30.02","51","55","0.00",,"-0.05","3","87","30.03","BKN:07 17 BKN:07 80","29.55","10.00","53","190",,"11",,,,,,,,,,,,,,,,,,,,,,,,,,,,,,,,,,,,,"MET11609/26/20 00:53:02 METAR KSEA 260853Z 19010KT 10SM BKN017 BKN080 13/11 A3002 RMK AO2 SLP170 T01280106 53018 FIBI (MR)","FM-15","7",,,,,,,,,,,,,,,,,,,,,,,,,,,"2007-05-17"
"72793024233","2020-09-26T01:33:00","FM-16","7",,,,,,,,,,,,,,,,,,,,,,,,,,,,,,,,,,,,,,,"30.03","51","54",,,,,"90",,"SCT:04 13 BKN:07 75","29.56","10.00","52","190",,"9",,,,,,,,,,,,,,,,,,,,,,,,,,,,,,,,,,,,,"MET10309/26/20 01:33:02 SPECI KSEA 260933Z 19008KT 10SM SCT013 BKN075 12/11 A3003 RMK AO2 T01220106 FIBI (MR)","FM-16","7",,,,,,,,,,,,,,,,,,,,,,,,,,,"2007-05-17"
"72793024233","2020-09-26T01:53:00","FM-15","7",,,,,,,,,,,,,,,,,,,,,,,,,,,,,,,,,,,,,,,"30.04","51","54","0.00",,,,"90","30.05","SCT:04 13 SCT:04 70","29.57","10.00","52","200",,"9",,,,,,,,,,,,,,,,,,,,,,,,,,,,,,,,,,,,,"MET11009/26/20 01:53:02 METAR KSEA 260953Z 20008KT 10SM SCT013 SCT070 12/11 A3004 RMK AO2 SLP176 T01220106 FIBI (MR)","FM-15","7",,,,,,,,,,,,,,,,,,,,,,,,,,,"2007-05-17"
"72793024233","2020-09-26T02:53:00","FM-15","7",,,,,,,,,,,,,,,,,,,,,,,,,,,,,,,,,,,,,,,"30.04","50","54","0.00",,,,"87","30.06","SCT:04 16","29.57","10.00","52","160",,"7",,,,,,,,,,,,,,,,,,,,,,,,,,,,,,,,,,,,,"MET11309/26/20 02:53:02 METAR KSEA 261053Z 16006KT 10SM SCT016 12/10 A3004 RMK AO2 SLP178 SCT V BKN T01220100 FIBI (MR)","FM-15","7",,,,,,,,,,,,,,,,,,,,,,,,,,,"2007-05-17"
"72793024233","2020-09-26T03:53:00","FM-15","7",,,,,,,,,,,,,,,,,,,,,,,,,,,,,,,,,,,,,,,"30.06","51","54","0.00",,"-0.04","1","90","30.07","SCT:04 12 BKN:07 70","29.59","10.00","52","170",,"7",,,,,,,,,,,,,,,,,,,,,,,,,,,,,,,,,,,,,"MET13409/26/20 03:53:02 METAR KSEA 261153Z 17006KT 10SM SCT012 BKN070 12/11 A3006 RMK AO2 SLP184 7//// T01220106 10133 20117 51014 FIBI (MR)","FM-15","7",,,,,,,,,,,,,,,,,,,,,,,,,,,"2007-05-17"
"72793024233","2020-09-26T04:00:00","FM-12","4",,,,,,,,,,,,,,,,,,,,,,,,,,,,,,,,,,,,,,,,"51","54",,,"-0.04","1","90","30.07","15","29.58","9.94","52","170",,"7",,,,,,,,,,,,,,,,,,,,,,,,,,,,,,,,,,,,,"SYN08072793 32466 61706 10122 20106 30016 40184 51014 91153 333 10172 20117 555 92612=","FM-12","4",,,,,,,,,,,,,,,,,,,,,,,,,,,"2007-05-17"
"72793024233","2020-09-26T04:53:00","FM-15","7",,,,,,,,,,,,,,,,,,,,,,,,,,,,,,,,,,,,,,,"30.06","50","53","0.00",,,,"89","30.08","SCT:04 13","29.59","10.00","51","180",,"9",,,,,,,,,,,,,,,,,,,,,,,,,,,,,,,,,,,,,"MET10309/26/20 04:53:02 METAR KSEA 261253Z 18008KT 10SM SCT013 12/10 A3006 RMK AO2 SLP185 T01170100 FIBI (MR)","FM-15","7",,,,,,,,,,,,,,,,,,,,,,,,,,,"2007-05-17"
"72793024233","2020-09-26T05:53:00","FM-15","7",,,,,,,,,,,,,,,,,,,,,,,,,,,,,,,,,,,,,,,"30.06","50","53","0.00",,,,"89","30.08","SCT:04 11","29.59","10.00","51","190",,"8",,,,,,,,,,,,,,,,,,,,,,,,,,,,,,,,,,,,,"MET10309/26/20 05:53:02 METAR KSEA 261353Z 19007KT 10SM SCT011 12/10 A3006 RMK AO2 SLP187 T01170100 FIBI (LZ)","FM-15","7",,,,,,,,,,,,,,,,,,,,,,,,,,,"2007-05-17"
"72793024233","2020-09-26T06:29:00","FM-16","7",,,,,,,,,,,,,,,,,,,,,,,,,,,,,,,,,,,,,,,"30.08","50","53",,,,,"89",,"SCT:04 13 BKN:07 20 BKN:07 100","29.61","10.00","51","160",,"6",,,,,,,,,,,,,,,,,,,,,,,,,,,,,,,,,,,,,"MET11209/26/20 06:29:02 SPECI KSEA 261429Z 16005KT 10SM SCT013 BKN020 BKN100 12/10 A3008 RMK AO2 T01170100 $ FIBI (LZ)","FM-16","7",,,,,,,,,,,,,,,,,,,,,,,,,,,"2007-05-17"
"72793024233","2020-09-26T06:53:00","FM-15","7",,,,,,,,,,,,,,,,,,,,,,,,,,,,,,,,,,,,,,,"30.08","50","54","0.00",,"-0.02","3","87","30.10","SCT:04 11 BKN:07 20 BKN:07 100","29.61","10.00","52","140",,"5",,,,,,,,,,,,,,,,,,,,,,,,,,,,,,,,,,,,,"MET12509/26/20 06:53:02 METAR KSEA 261453Z 14004KT 10SM SCT011 BKN020 BKN100 12/10 A3008 RMK AO2 SLP193 T01220100 53008 $ FIBI (LZ)","FM-15","7",,,,,,,,,,,,,,,,,,,,,,,,,,,"2007-05-17"
"72793024233","2020-09-26T07:53:00","FM-15","7",,,,,,,,,,,,,,,,,,,,,,,,,,,,,,,,,,,,,,,"30.10","52","56","0.00",,,,"87","30.11","FEW:02 14 SCT:04 21 BKN:07 110","29.63","10.00","54","200",,"13",,,,,,,,,,,,,,,,,,,,,,,,,,,,,,,,,,,,,"MET11909/26/20 07:53:02 METAR KSEA 261553Z 20011KT 10SM FEW014 SCT021 BKN110 13/11 A3010 RMK AO2 SLP197 T01330111 $ FIBI (LZ)","FM-15","7",,,,,,,,,,,,,,,,,,,,,,,,,,,"2007-05-17"
"72793024233","2020-09-26T08:53:00","FM-15","7",,,,,,,,,,,,,,,,,,,,,,,,,,,,,,,,,,,,,,,"30.11","52","59","0.00",,,,"78","30.12","SCT:04 13 BKN:07 95","29.64","10.00","55","180",,"11",,,,,,,,,,,,,,,,,,,,,,,,,,,,,,,,,,,,,"MET11209/26/20 08:53:02 METAR KSEA 261653Z 18010KT 10SM SCT013 BKN095 15/11 A3011 RMK AO2 SLP201 T01500111 $ FIBI (LZ)","FM-15","7",,,,,,,,,,,,,,,,,,,,,,,,,,,"2007-05-17"
"72793024233","2020-09-26T09:51:00","FM-16","6",,,,,,,,,,,,,,,,,,,,,,,,,,,,,,,,,,,,,,,"30.11","54","63",,,,,"73",,"FEW:02 14 BKN:07 28 BKN:07 70","29.64","10.00","58","200",,"14",,,,,,,,,,,,,,,,,,,,,,,,,,,,,,,,,,,,,"MET10209/26/20 09:51:02 SPECI KSEA 261751Z 20012KT 10SM FEW014 BKN028 BKN070 17/12 A3011 RMK AO2 $ FIBI (LZ)","FM-16","6",,,,,,,,,,,,,,,,,,,,,,,,,,,"2007-05-17"
"72793024233","2020-09-26T09:53:00","FM-15","7",,,,,,,,,,,,,,,,,,,,,,,,,,,,,,,,,,,,,,,"30.11","52","62","0.00",,"-0.03","1","70","30.13","SCT:04 26 BKN:07 70 BKN:07 85","29.64","10.00","56","210",,"10",,,,,,,,,,,,,,,,,,,,,,,,,,,,,,,,,,,,,"MET13709/26/20 09:53:02 METAR KSEA 261753Z 21009KT 10SM SCT026 BKN070 BKN085 17/11 A3011 RMK AO2 SLP202 T01670111 10172 20117 51010 $ FIBI (LZ)","FM-15","7",,,,,,,,,,,,,,,,,,,,,,,,,,,"2007-05-17"
"72793024233","2020-09-26T10:00:00","FM-12","4",,,,,,,,,,,,,,,,,,,,,,,,,,,,,,,,,,,,,,,,"52","62",,,"-0.03","1","70","30.13","26","29.63","9.94","56","210",,"10",,,,,,,,,,,,,,,,,,,,,,,,,,,,,,,,,,,,,"SYN08072793 32566 62109 10167 20111 30033 40202 51010 91753 333 10172 20117 555 92618=","FM-12","4",,,,,,,,,,,,,,,,,,,,,,,,,,,"2007-05-17"
"72793024233","2020-09-26T10:53:00","FM-15","7",,,,,,,,,,,,,,,,,,,,,,,,,,,,,,,,,,,,,,,"30.12","52","64","0.00",,,,"65","30.13","FEW:02 26 BKN:07 70 BKN:07 85","29.65","10.00","57","210",,"13",,,,,,,,,,,,,,,,,,,,,,,,,,,,,,,,,,,,,"MET11909/26/20 10:53:02 METAR KSEA 261853Z 21011KT 10SM FEW026 BKN070 BKN085 18/11 A3012 RMK AO2 SLP204 T01780111 $ FIBI (LZ)","FM-15","7",,,,,,,,,,,,,,,,,,,,,,,,,,,"2007-05-17"
"72793024233","2020-09-26T11:53:00","FM-15","7",,,,,,,,,,,,,,,,,,,,,,,,,,,,,,,,,,,,,,,"30.11","51","63","0.00",,,,"65","30.13","SCT:04 32 BKN:07 100 BKN:07 120","29.64","10.00","56","230","22","14",,,,,,,,,,,,,,,,,,,,,,,,,,,,,,,,,,,,,"MET12209/26/20 11:53:02 METAR KSEA 261953Z 23012G19KT 10SM SCT032 BKN100 BKN120 17/11 A3011 RMK AO2 SLP203 T01720106 $ FIBI (LZ)","FM-15","7",,,,,,,,,,,,,,,,,,,,,,,,,,,"2007-05-17"
"72793024233","2020-09-26T12:53:00","FM-15","7",,,,,,,,,,,,,,,,,,,,,,,,,,,,,,,,,,,,,,,"30.12","53","62","T",,"-0.01","3","73","30.14","SCT:04 23 BKN:07 40 OVC:08 80","29.65","10.00","57","240",,"11",,,,,,,,,,,,,,,,,,,,,,,,,,,,,,,,,,,,,"MET14609/26/20 12:53:02 METAR KSEA 262053Z 24010KT 10SM SCT023 BKN040 OVC080 17/12 A3012 RMK AO2 RAB26E52 SLP206 P0000 60000 T01670117 53004 $ FIBI (LZ)","FM-15","7",,,,,,,,,,,,,,,,,,,,,,,,,,,"2007-05-17"
"72793024233","2020-09-26T12:54:00","FM-15","4",,,,,,,,,,,,,,,,,,,,,,,,,,,,,,,,,,,,,,,"30.12","53","62","T",,"-0.01","3","73","30.14",,,"10.00",,"240",,"11",,,,,,,,,,,,,,,,,,,,,,,,,,,,,,,,,,,,,"MET117METAR KSEA 262054Z 24010KT 10SM SCT023 BKN040 OVC080 17/12 A3012 RMK AO2 RAB26E52 SLP206 P0000 60000 T01670117 53004=","FM-15","4",,,,,,,,,,,,,,,,,,,,,,,,,,,"2007-05-17"
"72793024233","2020-09-26T13:53:00","FM-15","7",,,,,,,,,,,,,,,,,,,,,,,,,,,,,,,,,,,,,,,"30.12","54","59","T",,,,"83","30.14","FEW:02 22 OVC:08 70","29.65","10.00","56","200",,"11",,,,,,,,,,,,,,,,,,,,,,,,,,,,,,,,,,,,,"MET12709/26/20 13:53:02 METAR KSEA 262153Z 20010KT 10SM FEW022 OVC070 15/12 A3012 RMK AO2 RAB12E37 SLP207 P0000 T01500122 $ FIBI (LZ)","FM-15","7",,,,,,,,,,,,,,,,,,,,,,,,,,,"2007-05-17"
"72793024233","2020-09-26T14:53:00","FM-15","7",,,,,,,,,,,,,,,,,,,,,,,,,,,,,,,,,,,,,,,"30.13","54","60","T",,,,"80","30.14","FEW:02 22 BKN:07 70","29.66","10.00","57","190",,"16",,,,,,,,,,,,,,,,,,,,,,,,,,,,,,,,,,,,,"MET12709/26/20 14:53:02 METAR KSEA 262253Z 19014KT 10SM FEW022 BKN070 16/12 A3013 RMK AO2 RAB34E44 SLP208 P0000 T01560122 $ FIBI (LZ)","FM-15","7",,,,,,,,,,,,,,,,,,,,,,,,,,,"2007-05-17"
"72793024233","2020-09-26T15:53:00","FM-15","7",,,,,,,,,,,,,,,,,,,,,,,,,,,,,,,,,,,,,,,"30.15","53","62","0.00",,"-0.02","3","73","30.16","FEW:02 20 SCT:04 80 BKN:07 120","29.68","10.00","57","220",,"15",,,,,,,,,,,,,,,,,,,,,,,,,,,,,,,,,,,,,"MET14309/26/20 15:53:02 METAR KSEA 262353Z 22013KT 10SM FEW020 SCT080 BKN120 17/12 A3015 RMK AO2 SLP214 60000 T01670117 10183 20144 53007 $ FIBI (TL)","FM-15","7",,,,,,,,,,,,,,,,,,,,,,,,,,,"2007-05-17"
"72793024233","2020-09-26T16:00:00","FM-12","4",,,,,,,,,,,,,,,,,,,,,,,,,,,,,,,,,,,,,,,,"53","62",,,"-0.02","3","73","30.16","26","29.67","9.94","57","220",,"15",,,,,,,,,,,,,,,,,,,,,,,,,,,,,,,,,,,,,"SYN08672793 12566 62213 10167 20117 30046 40214 53007 69901 92353 333 10183 20117 555 92700=","FM-12","4",,,,,,,,,,,,,,,,,,,,,,,,,,,"2007-05-17"
"72793024233","2020-09-26T16:53:00","FM-15","7",,,,,,,,,,,,,,,,,,,,,,,,,,,,,,,,,,,,,,,"30.15","53","61","0.00",,,,"75","30.17","FEW:02 22 SCT:04 44 SCT:04 100","29.68","10.00","57","220",,"9",,,,,,,,,,,,,,,,,,,,,,,,,,,,,,,,,,,,,"MET10709/26/20 16:53:01 METAR KSEA 270053Z 22008KT 10SM FEW022 SCT044 SCT100 16/12 A3015 RMK AO2 SLP217 T01610117","FM-15","7",,,,,,,,,,,,,,,,,,,,,,,,,,,"2007-05-17"
"72793024233","2020-09-26T17:53:00","FM-15","7",,,,,,,,,,,,,,,,,,,,,,,,,,,,,,,,,,,,,,,"30.18","53","59","0.00",,,,"81","30.19","FEW:02 22 SCT:04 44 BKN:07 120","29.71","10.00","56","200",,"10",,,,,,,,,,,,,,,,,,,,,,,,,,,,,,,,,,,,,"MET10709/26/20 17:53:01 METAR KSEA 270153Z 20009KT 10SM FEW022 SCT044 BKN120 15/12 A3018 RMK AO2 SLP225 T01500117","FM-15","7",,,,,,,,,,,,,,,,,,,,,,,,,,,"2007-05-17"
"72793024233","2020-09-26T18:53:00","FM-15","7",,,,,,,,,,,,,,,,,,,,,,,,,,,,,,,,,,,,,,,"30.19","53","58","0.00",,"-0.05","3","84","30.21","FEW:02 44 BKN:07 100","29.72","10.00","55","190",,"8",,,,,,,,,,,,,,,,,,,,,,,,,,,,,,,,,,,,,"MET10609/26/20 18:53:01 METAR KSEA 270253Z 19007KT 10SM FEW044 BKN100 14/12 A3019 RMK AO2 SLP231 T01440117 53016","FM-15","7",,,,,,,,,,,,,,,,,,,,,,,,,,,"2007-05-17"
"72793024233","2020-09-26T19:53:00","FM-15","7",,,,,,,,,,,,,,,,,,,,,,,,,,,,,,,,,,,,,,,"30.22","53","57","0.00",,,,"87","30.24","FEW:02 44 SCT:04 140","29.75","10.00","55","180",,"6",,,,,,,,,,,,,,,,,,,,,,,,,,,,,,,,,,,,,"MET10009/26/20 19:53:02 METAR KSEA 270353Z 18005KT 10SM FEW044 SCT140 14/12 A3022 RMK AO2 SLP239 T01390117","FM-15","7",,,,,,,,,,,,,,,,,,,,,,,,,,,"2007-05-17"
"72793024233","2020-09-26T20:26:00","FM-16","7",,,,,,,,,,,,,,,,,,,,,,,,,,,,,,,,,,,,,,,"30.22","52","57",,,,,"83",,"BKN:07 18 BKN:07 120","29.75","10.00","54","190",,"7",,,,,,,,,,,,,,,,,,,,,,,,,,,,,,,,,,,,,"MET09309/26/20 20:26:02 SPECI KSEA 270426Z 19006KT 10SM BKN018 BKN120 14/11 A3022 RMK AO2 T01390111","FM-16","7",,,,,,,,,,,,,,,,,,,,,,,,,,,"2007-05-17"
"72793024233","2020-09-26T20:40:00","FM-16","7",,,,,,,,,,,,,,,,,,,,,,,,,,,,,,,,,,,,,,,"30.22","53","57",,,,,"87",,"SCT:04 18","29.75","10.00","55","180",,"8",,,,,,,,,,,,,,,,,,,,,,,,,,,,,,,,,,,,,"MET08609/26/20 20:40:02 SPECI KSEA 270440Z 18007KT 10SM SCT018 14/12 A3022 RMK AO2 T01390117","FM-16","7",,,,,,,,,,,,,,,,,,,,,,,,,,,"2007-05-17"
"72793024233","2020-09-26T20:53:00","FM-15","7",,,,,,,,,,,,,,,,,,,,,,,,,,,,,,,,,,,,,,,"30.23","53","57","0.00",,,,"87","30.25","FEW:02 18 SCT:04 70","29.76","10.00","55","170",,"7",,,,,,,,,,,,,,,,,,,,,,,,,,,,,,,,,,,,,"MET10009/26/20 20:53:02 METAR KSEA 270453Z 17006KT 10SM FEW018 SCT070 14/12 A3023 RMK AO2 SLP243 T01390117","FM-15","7",,,,,,,,,,,,,,,,,,,,,,,,,,,"2007-05-17"
"72793024233","2020-09-26T21:53:00","FM-15","7",,,,,,,,,,,,,,,,,,,,,,,,,,,,,,,,,,,,,,,"30.24","52","56","0.00",,"-0.04","1","87","30.25","FEW:02 18","29.77","10.00","54","180",,"10",,,,,,,,,,,,,,,,,,,,,,,,,,,,,,,,,,,,,"MET11109/26/20 21:53:02 METAR KSEA 270553Z 18009KT 10SM FEW018 13/11 A3024 RMK AO2 SLP244 T01330111 10167 20133 51014","FM-15","7",,,,,,,,,,,,,,,,,,,,,,,,,,,"2007-05-17"
"72793024233","2020-09-26T22:00:00","FM-12","4",,,,,,,,,,,,,,,,,,,,,,,,,,,,,,,,,,,,,,,,"52","56",,,"-0.04","1","87","30.25","15","29.75","9.94","54","180",,"10",,,,,,,,,,,,,,,,,,,,,,,,,,,,,,,,,,,,,"SYN08072793 32466 21809 10133 20111 30076 40244 51014 90553 333 10167 20117 555 92706=","FM-12","4",,,,,,,,,,,,,,,,,,,,,,,,,,,"2007-05-17"
"72793024233","2020-09-26T22:53:00","FM-15","7",,,,,,,,,,,,,,,,,,,,,,,,,,,,,,,,,,,,,,,"30.26","52","54","0.00",,,,"93","30.28","FEW:02 18","29.79","10.00","53","200",,"9",,,,,,,,,,,,,,,,,,,,,,,,,,,,,,,,,,,,,"MET09309/26/20 22:53:02 METAR KSEA 270653Z 20008KT 10SM FEW018 12/11 A3026 RMK AO2 SLP253 T01220111","FM-15","7",,,,,,,,,,,,,,,,,,,,,,,,,,,"2007-05-17"
"72793024233","2020-09-26T23:53:00","FM-15","7",,,,,,,,,,,,,,,,,,,,,,,,,,,,,,,,,,,,,,,"30.29","52","55","0.00",,,,"90","30.30","BKN:07 15","29.82","10.00","53","200",,"6",,,,,,,,,,,,,,,,,,,,,,,,,,,,,,,,,,,,,"MET10309/26/20 23:53:02 METAR KSEA 270753Z 20005KT 10SM BKN015 13/11 A3029 RMK AO2 SLP262 T01280111 401830117","FM-15","7",,,,,,,,,,,,,,,,,,,,,,,,,,,"2007-05-17"
"72793024233","2020-09-26T23:59:00","SOD  ","6",,,,,,,,,,,,,,,,,"52","59","82","30.15","29.67","54","9.9","0","0.4","6","65","53","210","27","T","0","0.0","210","20",,,,,,,,,,,,,,,,,,,,,,,,,,,,,,,,,,,,,,,,,,,,,,,,,,,,,,,,"SOD73924 HR PRECIPITATION (IN):    T SNOW DEPTH (IN):0     24 HR SNOWFALL (IN):0.0  24 HR MAX TEMP (F): 6524 HR MIN TEMP (F): 53AVERAGE STATION PRESSURE:29.665 MINIMUM SEA LEVEL PRESSURE:30.01 TIME OF OCCURRENCE:0013 PEAK WIND SPEED (MPH): 27 PEAK WIND DIR (DEG):210 PEAK WIND TIME (LST):      FASTEST 2MIN SPEED (MPH): 20FASTEST 2MIN DIR (DEG):210 FASTEST 2MIN TIME (LST):     AVERAGE WIND SPEED (MPH): 9.9 24 HR AVG TEMP (F): 59DEPART FROM NORMAL:  0  HEATING DEGREE DAYS:  6 COOLING DEGREE DAYS:  0 LATEST DAY MAX TEMP (0700-1900 LST):65  LATEST NIGHT MIN TEMP(1900-0800 LST):53 HOURLY INCREMENTAL PRECIPITATION VALUES (IN):.00 0.00 0.00 0.00 0.00 0.00 0.00 0.00 0.00 0.00 0.00 0.00 T    T    T    0.00 0.00 0.00 0.00 0.00 0.00 0.00 0.00 0.00","SOD  ","6",,,,,,,,,,,,,,,,,,,,,,,,,"0603","1757","2007-05-17"
"72793024233","2020-09-27T00:51:00","FM-16","6",,,,,,,,,,,,,,,,,,,,,,,,,,,,,,,,,,,,,,,"30.31","52","54",,,,,"94",,"SCT:04 12","29.84","10.00","53","170",,"5",,,,,,,,,,,,,,,,,,,,,,,,,,,,,,,,,,,,,"MET08809/27/20 00:51:02 SPECI KSEA 270851Z 17004KT 10SM SCT012 12/11 A3031 RMK AO2 $ FIBI (RS)","FM-16","6",,,,,,,,,,,,,,,,,,,,,,,,,,,"2007-05-17"
"72793024233","2020-09-27T00:53:00","FM-15","7",,,,,,,,,,,,,,,,,,,,,,,,,,,,,,,,,,,,,,,"30.31","52","54","0.00",,"-0.07","1","93","30.33","SCT:04 12","29.84","10.00","53","180",,"5",,,,,,,,,,,,,,,,,,,,,,,,,,,,,,,,,,,,,"MET11109/27/20 00:53:02 METAR KSEA 270853Z 18004KT 10SM SCT012 12/11 A3031 RMK AO2 SLP270 T01220111 51025 $ FIBI (RS)","FM-15","7",,,,,,,,,,,,,,,,,,,,,,,,,,,"2007-05-17"
"72793024233","2020-09-27T01:32:00","FM-16","7",,,,,,,,,,,,,,,,,,,,,,,,,,,,,,,,,,,,,,,"30.33","53","54",,,,,"97",,"BKN:07 14 BKN:07 39","29.86","10.00","53","170",,"5",,,,,,,,,,,,,,,,,,,,,,,,,,,,,,,,,,,,,"MET10509/27/20 01:32:02 SPECI KSEA 270932Z 17004KT 10SM BKN014 BKN039 12/12 A3033 RMK AO2 T01220117 $ FIBI (RS)","FM-16","7",,,,,,,,,,,,,,,,,,,,,,,,,,,"2007-05-17"
"72793024233","2020-09-27T01:53:00","FM-15","7",,,,,,,,,,,,,,,,,,,,,,,,,,,,,,,,,,,,,,,"30.35","53","55","0.00",,,,"93","30.37","BKN:07 14 OVC:08 40","29.88","10.00","54","170",,"3",,,,,,,,,,,,,,,,,,,,,,,,,,,,,,,,,,,,,"MET11209/27/20 01:53:02 METAR KSEA 270953Z 17003KT 10SM BKN014 OVC040 13/12 A3035 RMK AO2 SLP283 T01280117 $ FIBI (RS)","FM-15","7",,,,,,,,,,,,,,,,,,,,,,,,,,,"2007-05-17"
"72793024233","2020-09-27T02:51:00","FM-16","6",,,,,,,,,,,,,,,,,,,,,,,,,,,,,,,,,,,,,,,"30.36","52","55",,,,,"88",,"BKN:07 15 BKN:07 30 OVC:08 55","29.89","10.00","53","190",,"5",,,,,,,,,,,,,,,,,,,,,,,,,,,,,,,,,,,,,"MET10209/27/20 02:51:02 SPECI KSEA 271051Z 19004KT 10SM BKN015 BKN030 OVC055 13/11 A3036 RMK AO2 $ FIBI (RS)","FM-16","6",,,,,,,,,,,,,,,,,,,,,,,,,,,"2007-05-17"
"72793024233","2020-09-27T02:53:00","FM-15","7",,,,,,,,,,,,,,,,,,,,,,,,,,,,,,,,,,,,,,,"30.36","52","55","0.00",,,,"90","30.37","SCT:04 15 BKN:07 30 OVC:08 55","29.89","10.00","53","190",,"3",,,,,,,,,,,,,,,,,,,,,,,,,,,,,,,,,,,,,"MET11909/27/20 02:53:02 METAR KSEA 271053Z 19003KT 10SM SCT015 BKN030 OVC055 13/11 A3036 RMK AO2 SLP286 T01280111 $ FIBI (RS)","FM-15","7",,,,,,,,,,,,,,,,,,,,,,,,,,,"2007-05-17"
"72793024233","2020-09-27T03:51:00","FM-16","6",,,,,,,,,,,,,,,,,,,,,,,,,,,,,,,,,,,,,,,"30.37","52","54",,,,,"94",,"SCT:04 7 SCT:04 30 BKN:07 50","29.90","7.00","53","000",,"0",,,,,,,,,,,,,,,,,,,,,,,,,,,,,,,,,,,,,"MET10109/27/20 03:51:02 SPECI KSEA 271151Z 00000KT 7SM SCT007 SCT030 BKN050 12/11 A3037 RMK AO2 $ FIBI (RS)","FM-16","6",,,,,,,,,,,,,,,,,,,,,,,,,,,"2007-05-17"
"72793024233","2020-09-27T03:53:00","FM-15","7",,,,,,,,,,,,,,,,,,,,,,,,,,,,,,,,,,,,,,,"30.37","51","54","0.00",,"-0.06","1","90","30.39","SCT:04 7 SCT:04 30 BKN:07 50","29.90","9.00","52","000",,"0",,,,,,,,,,,,,,,,,,,,,,,,,,,,,,,,,,,,,"MET13609/27/20 03:53:02 METAR KSEA 271153Z 00000KT 9SM SCT007 SCT030 BKN050 12/11 A3037 RMK AO2 SLP290 T01220106 10133 20117 51020 $ FIBI (RS)","FM-15","7",,,,,,,,,,,,,,,,,,,,,,,,,,,"2007-05-17"
"72793024233","2020-09-27T04:00:00","FM-12","4",,,,,,,,,,,,,,,,,,,,,,,,,,,,,,,,,,,,,,,,"51","54",,,"-0.06","1","90","30.39","8","29.88","8.70","52","000",,"0",,,,,,,,,,,,,,,,,,,,,,,,,,,,,,,,,,,,,"SYN08072793 32364 60000 10122 20106 30120 40290 51020 91153 333 10183 20117 555 92712=","FM-12","4",,,,,,,,,,,,,,,,,,,,,,,,,,,"2007-05-17"
"72793024233","2020-09-27T04:53:00","FM-15","7",,,,,,,,,,,,,,,,,,,,,,,,,,,,,,,,,,,,,,,"30.38","51","53","0.00",,,,"93","30.40","SCT:04 6","29.91","8.00","52","120",,"6",,,,,,,,,,,,,,,,,,,,,,,,,,,,,,,,,,,,,"MET10409/27/20 04:53:02 METAR KSEA 271253Z 12005KT 8SM SCT006 12/11 A3038 RMK AO2 SLP294 T01170106 $ FIBI (RS)","FM-15","7",,,,,,,,,,,,,,,,,,,,,,,,,,,"2007-05-17"
"72793024233","2020-09-27T05:20:00","FM-16","7",,,,,,,,,,,,,,,,,,,,,,,,,,,,,,,,,,,,,,,"30.40","53","54",,,,,"97",,"SCT:04 6 BKN:07 26","29.93","7.00","53","100",,"5",,,,,,,,,,,,,,,,,,,,,,,,,,,,,,,,,,,,,"MET10409/27/20 05:20:02 SPECI KSEA 271320Z 10004KT 7SM SCT006 BKN026 12/12 A3040 RMK AO2 T01220117 $ FIBI (LZ)","FM-16","7",,,,,,,,,,,,,,,,,,,,,,,,,,,"2007-05-17"
"72793024233","2020-09-27T05:53:00","FM-15","7",,,,,,,,,,,,,,,,,,,,,,,,,,,,,,,,,,,,,,,"30.41","52","54","0.00",,,,"93","30.42","FEW:02 4 BKN:07 9 BKN:07 30","29.94","10.00","53","130",,"6",,,,,,,,,,,,,,,,,,,,,,,,,,,,,,,,,,,,,"MET11909/27/20 05:53:02 METAR KSEA 271353Z 13005KT 10SM FEW004 BKN009 BKN030 12/11 A3041 RMK AO2 SLP303 T01220111 $ FIBI (LZ)","FM-15","7",,,,,,,,,,,,,,,,,,,,,,,,,,,"2007-05-17"
"72793024233","2020-09-27T06:17:00","FM-16","7",,,,,,,,,,,,,,,,,,,,,,,,,,,,,,,,,,,,,,,"30.41","52","55",,,,,"90",,"FEW:02 9 BKN:07 32 BKN:07 100","29.94","10.00","53","000",,"0",,,,,,,,,,,,,,,,,,,,,,,,,,,,,,,,,,,,,"MET11209/27/20 06:17:02 SPECI KSEA 271417Z 00000KT 10SM FEW009 BKN032 BKN100 13/11 A3041 RMK AO2 T01280111 $ FIBI (LZ)","FM-16","7",,,,,,,,,,,,,,,,,,,,,,,,,,,"2007-05-17"
"72793024233","2020-09-27T06:53:00","FM-15","7",,,,,,,,,,,,,,,,,,,,,,,,,,,,,,,,,,,,,,,"30.42","52","55","0.00",,"-0.05","3","90","30.44","FEW:02 32 BKN:07 130","29.95","9.00","53","000",,"0",,,,,,,,,,,,,,,,,,,,,,,,,,,,,,,,,,,,,"MET11709/27/20 06:53:02 METAR KSEA 271453Z 00000KT 9SM FEW032 BKN130 13/11 A3042 RMK AO2 SLP309 T01280111 53018 $ FIBI (LZ)","FM-15","7",,,,,,,,,,,,,,,,,,,,,,,,,,,"2007-05-17"
"72793024233","2020-09-27T07:53:00","FM-15","7",,,,,,,,,,,,,,,,,,,,,,,,,,,,,,,,,,,,,,,"30.45","52","57","0.00",,,,"83","30.47","FEW:02 6 FEW:02 32 BKN:07 100","29.98","10.00","54","000",,"0",,,,,,,,,,,,,,,,,,,,,,,,,,,,,,,,,,,,,"MET11909/27/20 07:53:02 METAR KSEA 271553Z 00000KT 10SM FEW006 FEW032 BKN100 14/11 A3045 RMK AO2 SLP318 T01390111 $ FIBI (LZ)","FM-15","7",,,,,,,,,,,,,,,,,,,,,,,,,,,"2007-05-17"
"72793024233","2020-09-27T08:53:00","FM-15","7",,,,,,,,,,,,,,,,,,,,,,,,,,,,,,,,,,,,,,,"30.47","53","60","0.00",,,,"78","30.49","FEW:02 10 SCT:04 32 BKN:07 100","30.00","10.00","56","180",,"5",,,,,,,,,,,,,,,,,,,,,,,,,,,,,,,,,,,,,"MET11909/27/20 08:53:02 METAR KSEA 271653Z 18004KT 10SM FEW010 SCT032 BKN100 16/12 A3047 RMK AO2 SLP324 T01560117 $ FIBI (LZ)","FM-15","7",,,,,,,,,,,,,,,,,,,,,,,,,,,"2007-05-17"
"72793024233","2020-09-27T09:53:00","FM-15","7",,,,,,,,,,,,,,,,,,,,,,,,,,,,,,,,,,,,,,,"30.48","53","59","0.00",,"-0.06","1","81","30.50","FEW:02 13 SCT:04 22 BKN:07 90","30.01","10.00","56","270",,"5",,,,,,,,,,,,,,,,,,,,,,,,,,,,,,,,,,,,,"MET13709/27/20 09:53:02 METAR KSEA 271753Z 27004KT 10SM FEW013 SCT022 BKN090 15/12 A3048 RMK AO2 SLP327 T01500117 10156 20117 51019 $ FIBI (LZ)","FM-15","7",,,,,,,,,,,,,,,,,,,,,,,,,,,"2007-05-17"
"72793024233","2020-09-27T10:00:00","FM-12","4",,,,,,,,,,,,,,,,,,,,,,,,,,,,,,,,,,,,,,,,"53","59",,,"-0.06","1","81","30.49","15","29.99","9.94","56","270",,"5",,,,,,,,,,,,,,,,,,,,,,,,,,,,,,,,,,,,,"SYN08072793 32466 62704 10150 20117 30156 40326 51019 91753 333 10156 20117 555 92718=","FM-12","4",,,,,,,,,,,,,,,,,,,,,,,,,,,"2007-05-17"
"72793024233","2020-09-27T10:53:00","FM-15","7",,,,,,,,,,,,,,,,,,,,,,,,,,,,,,,,,,,,,,,"30.48","53","63","0.00",,,,"70","30.50","SCT:04 20 SCT:04 26 BKN:07 100","30.01","10.00","57","310",,"6",,,,,,,,,,,,,,,,,,,,,,,,,,,,,,,,,,,,,"MET11909/27/20 10:53:02 METAR KSEA 271853Z 31005KT 10SM SCT020 SCT026 BKN100 17/12 A3048 RMK AO2 SLP327 T01720117 $ FIBI (LZ)","FM-15","7",,,,,,,,,,,,,,,,,,,,,,,,,,,"2007-05-17"
"72793024233","2020-09-27T11:53:00","FM-15","7",,,,,,,,,,,,,,,,,,,,,,,,,,,,,,,,,,,,,,,"30.46","52","66","0.00",,,,"61","30.48","FEW:02 30 SCT:04 100 BKN:07 170","29.99","10.00","58","VRB",,"3",,,,,,,,,,,,,,,,,,,,,,,,,,,,,,,,,,,,,"MET11909/27/20 11:53:02 METAR KSEA 271953Z VRB03KT 10SM FEW030 SCT100 BKN170 19/11 A3046 RMK AO2 SLP322 T01890111 $ FIBI (LZ)","FM-15","7",,,,,,,,,,,,,,,,,,,,,,,,,,,"2007-05-17"
"72793024233","2020-09-27T12:53:00","FM-15","7",,,,,,,,,,,,,,,,,,,,,,,,,,,,,,,,,,,,,,,"30.46","51","67","0.00",,"+0.02","8","57","30.48","FEW:02 30 FEW:02 100 SCT:04 190","29.99","10.00","58","310",,"9",,,,,,,,,,,,,,,,,,,,,,,,,,,,,,,,,,,,,"MET12509/27/20 12:53:02 METAR KSEA 272053Z 31008KT 10SM FEW030 FEW100 SCT190 19/11 A3046 RMK AO2 SLP321 T01940106 58006 $ FIBI (LZ)","FM-15","7",,,,,,,,,,,,,,,,,,,,,,,,,,,"2007-05-17"
"72793024233","2020-09-27T13:53:00","FM-15","7",,,,,,,,,,,,,,,,,,,,,,,,,,,,,,,,,,,,,,,"30.45","49","69","0.00",,,,"49","30.46","FEW:02 30","29.98","10.00","58","330",,"6",,,,,,,,,,,,,,,,,,,,,,,,,,,,,,,,,,,,,"MET10509/27/20 13:53:02 METAR KSEA 272153Z 33005KT 10SM FEW030 21/09 A3045 RMK AO2 SLP316 T02060094 $ FIBI (TL)","FM-15","7",,,,,,,,,,,,,,,,,,,,,,,,,,,"2007-05-17"
"72793024233","2020-09-27T14:53:00","FM-15","7",,,,,,,,,,,,,,,,,,,,,,,,,,,,,,,,,,,,,,,"30.45","49","68","0.00",,,,"51","30.46","FEW:02 40","29.98","10.00","58","020",,"10",,,,,,,,,,,,,,,,,,,,,,,,,,,,,,,,,,,,,"MET10509/27/20 14:53:02 METAR KSEA 272253Z 02009KT 10SM FEW040 20/09 A3045 RMK AO2 SLP315 T02000094 $ FIBI (TL)","FM-15","7",,,,,,,,,,,,,,,,,,,,,,,,,,,"2007-05-17"
"72793024233","2020-09-27T15:53:00","FM-15","7",,,,,,,,,,,,,,,,,,,,,,,,,,,,,,,,,,,,,,,"30.44","49","69","0.00",,"+0.02","6","49","30.45","FEW:02 40","29.97","10.00","58","340",,"9",,,,,,,,,,,,,,,,,,,,,,,,,,,,,,,,,,,,,"MET12309/27/20 15:53:02 METAR KSEA 272353Z 34008KT 10SM FEW040 21/09 A3044 RMK AO2 SLP313 T02060094 10211 20150 56008 $ FIBI (TL)","FM-15","7",,,,,,,,,,,,,,,,,,,,,,,,,,,"2007-05-17"
"72793024233","2020-09-27T16:00:00","FM-12","4",,,,,,,,,,,,,,,,,,,,,,,,,,,,,,,,,,,,,,,,"49","69",,,"+0.02","6","49","30.45","41","29.95","9.94","58","340",,"9",,,,,,,,,,,,,,,,,,,,,,,,,,,,,,,,,,,,,"SYN08072793 32666 23408 10206 20094 30143 40313 56008 92353 333 10211 20117 555 92800=","FM-12","4",,,,,,,,,,,,,,,,,,,,,,,,,,,"2007-05-17"
"72793024233","2020-09-27T16:53:00","FM-15","7",,,,,,,,,,,,,,,,,,,,,,,,,,,,,,,,,,,,,,,"30.43","46","67","0.00",,,,"47","30.45","FEW:02 200","29.96","10.00","56","340",,"7",,,,,,,,,,,,,,,,,,,,,,,,,,,,,,,,,,,,,"MET09309/27/20 16:53:01 METAR KSEA 280053Z 34006KT 10SM FEW200 19/08 A3043 RMK AO2 SLP310 T01940078","FM-15","7",,,,,,,,,,,,,,,,,,,,,,,,,,,"2007-05-17"
"72793024233","2020-09-27T17:53:00","FM-15","7",,,,,,,,,,,,,,,,,,,,,,,,,,,,,,,,,,,,,,,"30.43","47","63","0.00",,,,"56","30.45","FEW:02 200","29.96","10.00","55","360",,"8",,,,,,,,,,,,,,,,,,,,,,,,,,,,,,,,,,,,,"MET09309/27/20 17:53:01 METAR KSEA 280153Z 36007KT 10SM FEW200 17/08 A3043 RMK AO2 SLP310 T01720083","FM-15","7",,,,,,,,,,,,,,,,,,,,,,,,,,,"2007-05-17"
"72793024233","2020-09-27T18:53:00","FM-15","7",,,,,,,,,,,,,,,,,,,,,,,,,,,,,,,,,,,,,,,"30.44","48","59","0.00",,"-0.00","3","67","30.46","FEW:02 40","29.97","10.00","53","350",,"8",,,,,,,,,,,,,,,,,,,,,,,,,,,,,,,,,,,,,"MET09909/27/20 18:53:01 METAR KSEA 280253Z 35007KT 10SM FEW040 15/09 A3044 RMK AO2 SLP315 T01500089 53001","FM-15","7",,,,,,,,,,,,,,,,,,,,,,,,,,,"2007-05-17"
"72793024233","2020-09-27T19:53:00","FM-15","7",,,,,,,,,,,,,,,,,,,,,,,,,,,,,,,,,,,,,,,"30.44","49","58","0.00",,,,"72","30.46","CLR:00","29.97","10.00","53","360",,"7",,,,,,,,,,,,,,,,,,,,,,,,,,,,,,,,,,,,,"MET09009/27/20 19:53:02 METAR KSEA 280353Z 36006KT 10SM CLR 14/09 A3044 RMK AO2 SLP314 T01440094","FM-15","7",,,,,,,,,,,,,,,,,,,,,,,,,,,"2007-05-17"
"72793024233","2020-09-27T20:53:00","FM-15","7",,,,,,,,,,,,,,,,,,,,,,,,,,,,,,,,,,,,,,,"30.44","50","59","0.00",,,,"72","30.45","FEW:02 250","29.97","10.00","54","020",,"9",,,,,,,,,,,,,,,,,,,,,,,,,,,,,,,,,,,,,"MET09309/27/20 20:53:02 METAR KSEA 280453Z 02008KT 10SM FEW250 15/10 A3044 RMK AO2 SLP312 T01500100","FM-15","7",,,,,,,,,,,,,,,,,,,,,,,,,,,"2007-05-17"
"72793024233","2020-09-27T21:53:00","FM-15","7",,,,,,,,,,,,,,,,,,,,,,,,,,,,,,,,,,,,,,,"30.43","50","58","0.00",,"+0.01","8","75","30.45","SCT:04 250","29.96","10.00","54","360",,"10",,,,,,,,,,,,,,,,,,,,,,,,,,,,,,,,,,,,,"MET11109/27/20 21:53:02 METAR KSEA 280553Z 36009KT 10SM SCT250 14/10 A3043 RMK AO2 SLP310 T01440100 10206 20139 58003","FM-15","7",,,,,,,,,,,,,,,,,,,,,,,,,,,"2007-05-17"
"72793024233","2020-09-27T22:00:00","FM-12","4",,,,,,,,,,,,,,,,,,,,,,,,,,,,,,,,,,,,,,,,"50","58",,,"+0.01","8","75","30.45",,"29.94","9.94","54","360",,"10",,,,,,,,,,,,,,,,,,,,,,,,,,,,,,,,,,,,,"SYN08072793 32966 43609 10144 20100 30140 40310 58003 90553 333 10206 20117 555 92806=","FM-12","4",,,,,,,,,,,,,,,,,,,,,,,,,,,"2007-05-17"
"72793024233","2020-09-27T22:53:00","FM-15","7",,,,,,,,,,,,,,,,,,,,,,,,,,,,,,,,,,,,,,,"30.42","50","56","0.00",,,,"81","30.44","CLR:00","29.95","10.00","53","360",,"11",,,,,,,,,,,,,,,,,,,,,,,,,,,,,,,,,,,,,"MET09009/27/20 22:53:02 METAR KSEA 280653Z 36010KT 10SM CLR 13/10 A3042 RMK AO2 SLP308 T01330100","FM-15","7",,,,,,,,,,,,,,,,,,,,,,,,,,,"2007-05-17"
"72793024233","2020-09-27T23:53:00","FM-15","7",,,,,,,,,,,,,,,,,,,,,,,,,,,,,,,,,,,,,,,"30.42","50","55","0.00",,,,"83","30.43","CLR:00","29.95","10.00","52","010",,"8",,,,,,,,,,,,,,,,,,,,,,,,,,,,,,,,,,,,,"MET10009/27/20 23:53:02 METAR KSEA 280753Z 01007KT 10SM CLR 13/10 A3042 RMK AO2 SLP306 T01280100 402110117","FM-15","7",,,,,,,,,,,,,,,,,,,,,,,,,,,"2007-05-17"
"72793024233","2020-09-27T23:59:00","SOD  ","6",,,,,,,,,,,,,,,,,"51","62","73","30.44","29.95","55","6.0","0","3.7","3","70","53","020","17","0.00","0","0.0","360","13",,,,,,,,,,,,,,,,,,,,,,,,,,,,,,,,,,,,,,,,,,,,,,,,,,,,,,,,"SOD75624 HR PRECIPITATION (IN): 0.00 SNOW DEPTH (IN):0     24 HR SNOWFALL (IN):0.0  WEATHER(CODE):1  24 HR MAX TEMP (F): 7024 HR MIN TEMP (F): 53AVERAGE STATION PRESSURE:29.950 MINIMUM SEA LEVEL PRESSURE:30.30 TIME OF OCCURRENCE:0003 PEAK WIND SPEED (MPH): 17 PEAK WIND DIR (DEG): 20 PEAK WIND TIME (LST):      FASTEST 2MIN SPEED (MPH): 13FASTEST 2MIN DIR (DEG):360 FASTEST 2MIN TIME (LST):     AVERAGE WIND SPEED (MPH): 6.0 24 HR AVG TEMP (F): 62DEPART FROM NORMAL:  4  HEATING DEGREE DAYS:  3 COOLING DEGREE DAYS:  0 LATEST DAY MAX TEMP (0700-1900 LST):70  LATEST NIGHT MIN TEMP(1900-0800 LST):53 HOURLY INCREMENTAL PRECIPITATION VALUES (IN):.00 0.00 0.00 0.00 0.00 0.00 0.00 0.00 0.00 0.00 0.00 0.00 0.00 0.00 0.00 0.00 0.00 0.00 0.00 0.00 0.00 0.00 0.00 0.00","SOD  ","6",,,,,,,,,,,,,,,,,,,,,,,,,"0604","1755","2007-05-17"
"72793024233","2020-09-28T00:53:00","FM-15","7",,,,,,,,,,,,,,,,,,,,,,,,,,,,,,,,,,,,,,,"30.41","49","54","0.00",,"+0.02","8","83","30.42","CLR:00","29.94","10.00","51","360",,"5",,,,,,,,,,,,,,,,,,,,,,,,,,,,,,,,,,,,,"MET10809/28/20 00:53:02 METAR KSEA 280853Z 36004KT 10SM CLR 12/09 A3041 RMK AO2 SLP302 T01220094 58008 $ FIBI (MR)","FM-15","7",,,,,,,,,,,,,,,,,,,,,,,,,,,"2007-05-17"
"72793024233","2020-09-28T01:53:00","FM-15","7",,,,,,,,,,,,,,,,,,,,,,,,,,,,,,,,,,,,,,,"30.39","50","54","0.00",,,,"87","30.41","CLR:00","29.92","10.00","52","020",,"3",,,,,,,,,,,,,,,,,,,,,,,,,,,,,,,,,,,,,"MET10209/28/20 01:53:02 METAR KSEA 280953Z 02003KT 10SM CLR 12/10 A3039 RMK AO2 SLP297 T01220100 $ FIBI (MR)","FM-15","7",,,,,,,,,,,,,,,,,,,,,,,,,,,"2007-05-17"
"72793024233","2020-09-28T02:53:00","FM-15","7",,,,,,,,,,,,,,,,,,,,,,,,,,,,,,,,,,,,,,,"30.38","50","53","0.00",,,,"89","30.40","CLR:00","29.91","10.00","51","350",,"6",,,,,,,,,,,,,,,,,,,,,,,,,,,,,,,,,,,,,"MET10209/28/20 02:53:02 METAR KSEA 281053Z 35005KT 10SM CLR 12/10 A3038 RMK AO2 SLP294 T01170100 $ FIBI (MR)","FM-15","7",,,,,,,,,,,,,,,,,,,,,,,,,,,"2007-05-17"
"72793024233","2020-09-28T03:53:00","FM-15","7",,,,,,,,,,,,,,,,,,,,,,,,,,,,,,,,,,,,,,,"30.37","51","54","0.00",,"+0.04","6","90","30.38","CLR:00","29.90","10.00","52","020",,"6",,,,,,,,,,,,,,,,,,,,,,,,,,,,,,,,,,,,,"MET12009/28/20 03:53:02 METAR KSEA 281153Z 02005KT 10SM CLR 12/11 A3037 RMK AO2 SLP289 T01220106 10144 20117 56014 $ FIBI (MR)","FM-15","7",,,,,,,,,,,,,,,,,,,,,,,,,,,"2007-05-17"
"72793024233","2020-09-28T04:00:00","FM-12","4",,,,,,,,,,,,,,,,,,,,,,,,,,,,,,,,,,,,,,,,"51","54",,,"+0.04","6","90","30.38",,"29.88","9.94","52","020",,"6",,,,,,,,,,,,,,,,,,,,,,,,,,,,,,,,,,,,,"SYN08072793 32966 00205 10122 20106 30120 40289 56014 91153 333 10211 20117 555 92812=","FM-12","4",,,,,,,,,,,,,,,,,,,,,,,,,,,"2007-05-17"
"72793024233","2020-09-28T04:40:00","FM-16","7",,,,,,,,,,,,,,,,,,,,,,,,,,,,,,,,,,,,,,,"30.37","51","53",,,,,"93",,"BKN:07 3","29.90","10.00","52","360",,"9",,,,,,,,,,,,,,,,,,,,,,,,,,,,,,,,,,,,,"MET09809/28/20 04:40:02 SPECI KSEA 281240Z 36008KT 10SM BKN003 12/11 A3037 RMK AO2 T01170106 $ FIBI (MR)","FM-16","7",,,,,,,,,,,,,,,,,,,,,,,,,,,"2007-05-17"
"72793024233","2020-09-28T04:53:00","FM-15","7",,,,,,,,,,,,,,,,,,,,,,,,,,,,,,,,,,,,,,,"30.37","51","53","0.00",,,,"93","30.39","SCT:04 3","29.90","10.00","52","350",,"8",,,,,,,,,,,,,,,,,,,,,,,,,,,,,,,,,,,,,"MET11509/28/20 04:53:02 METAR KSEA 281253Z 35007KT 10SM SCT003 12/11 A3037 RMK AO2 SLP290 SCT V BKN T01170106 $ FIBI (MR)","FM-15","7",,,,,,,,,,,,,,,,,,,,,,,,,,,"2007-05-17"
"72793024233","2020-09-28T05:53:00","FM-15","7",,,,,,,,,,,,,,,,,,,,,,,,,,,,,,,,,,,,,,,"30.36","50","52","0.00",,,,"93","30.38","FEW:02 4","29.89","10.00","51","360",,"6",,,,,,,,,,,,,,,,,,,,,,,,,,,,,,,,,,,,,"MET10309/28/20 05:53:02 METAR KSEA 281353Z 36005KT 10SM FEW004 11/10 A3036 RMK AO2 SLP287 T01110100 FIBI (JC)","FM-15","7",,,,,,,,,,,,,,,,,,,,,,,,,,,"2007-05-17"
"72793024233","2020-09-28T06:53:00","FM-15","7",,,,,,,,,,,,,,,,,,,,,,,,,,,,,,,,,,,,,,,"30.36","51","54","0.00",,"+0.00","8","90","30.38","FEW:02 4","29.89","10.00","52","010",,"8",,,,,,,,,,,,,,,,,,,,,,,,,,,,,,,,,,,,,"MET10909/28/20 06:53:02 METAR KSEA 281453Z 01007KT 10SM FEW004 12/11 A3036 RMK AO2 SLP288 T01220106 58001 FIBI (JC)","FM-15","7",,,,,,,,,,,,,,,,,,,,,,,,,,,"2007-05-17"
"72793024233","2020-09-28T07:53:00","FM-15","7",,,,,,,,,,,,,,,,,,,,,,,,,,,,,,,,,,,,,,,"30.36","50","57","0.00",,,,"78","30.38","FEW:02 4","29.89","10.00","53","030",,"9",,,,,,,,,,,,,,,,,,,,,,,,,,,,,,,,,,,,,"MET10309/28/20 07:53:02 METAR KSEA 281553Z 03008KT 10SM FEW004 14/10 A3036 RMK AO2 SLP287 T01390100 FIBI (JC)","FM-15","7",,,,,,,,,,,,,,,,,,,,,,,,,,,"2007-05-17"
"72793024233","2020-09-28T08:53:00","FM-15","7",,,,,,,,,,,,,,,,,,,,,,,,,,,,,,,,,,,,,,,"30.36","51","61","0.00",,,,"70","30.37","FEW:02 4","29.89","10.00","56","010",,"8",,,,,,,,,,,,,,,,,,,,,,,,,,,,,,,,,,,,,"MET09809/28/20 08:53:02 METAR KSEA 281653Z 01007KT 10SM FEW004 16/11 A3036 RMK AO2 SLP285 T01610106 (JC)","FM-15","7",,,,,,,,,,,,,,,,,,,,,,,,,,,"2007-05-17"
"72793024233","2020-09-28T09:53:00","FM-15","7",,,,,,,,,,,,,,,,,,,,,,,,,,,,,,,,,,,,,,,"30.34","52","65","0.00",,"+0.02","8","63","30.36","CLR:00","29.87","10.00","58","340",,"8",,,,,,,,,,,,,,,,,,,,,,,,,,,,,,,,,,,,,"MET11309/28/20 09:53:02 METAR KSEA 281753Z 34007KT 10SM CLR 18/11 A3034 RMK AO2 SLP281 T01830111 10183 20111 58006 (JC)","FM-15","7",,,,,,,,,,,,,,,,,,,,,,,,,,,"2007-05-17"
"72793024233","2020-09-28T10:00:00","FM-12","4",,,,,,,,,,,,,,,,,,,,,,,,,,,,,,,,,,,,,,,,"52","65",,,"+0.02","8","63","30.36",,"29.85","9.94","58","340",,"8",,,,,,,,,,,,,,,,,,,,,,,,,,,,,,,,,,,,,"SYN08072793 32966 03407 10183 20111 30110 40281 58006 91753 333 10183 20111 555 92818=","FM-12","4",,,,,,,,,,,,,,,,,,,,,,,,,,,"2007-05-17"
"72793024233","2020-09-28T10:53:00","FM-15","7",,,,,,,,,,,,,,,,,,,,,,,,,,,,,,,,,,,,,,,"30.33","52","69","0.00",,,,"55","30.35","CLR:00","29.86","10.00","59","020",,"6",,,,,,,,,,,,,,,,,,,,,,,,,,,,,,,,,,,,,"MET09509/28/20 10:53:02 METAR KSEA 281853Z 02005KT 10SM CLR 21/11 A3033 RMK AO2 SLP276 T02060111 (JC)","FM-15","7",,,,,,,,,,,,,,,,,,,,,,,,,,,"2007-05-17"
"72793024233","2020-09-28T11:53:00","FM-15","7",,,,,,,,,,,,,,,,,,,,,,,,,,,,,,,,,,,,,,,"30.31","53","69","0.00",,,,"57","30.32","CLR:00","29.84","10.00","60","310",,"7",,,,,,,,,,,,,,,,,,,,,,,,,,,,,,,,,,,,,"MET09509/28/20 11:53:02 METAR KSEA 281953Z 31006KT 10SM CLR 21/12 A3031 RMK AO2 SLP269 T02060117 (JC)","FM-15","7",,,,,,,,,,,,,,,,,,,,,,,,,,,"2007-05-17"
"72793024233","2020-09-28T12:53:00","FM-15","7",,,,,,,,,,,,,,,,,,,,,,,,,,,,,,,,,,,,,,,"30.28","53","72","0.00",,"+0.06","8","52","30.30","CLR:00","29.81","10.00","61","VRB",,"6",,,,,,,,,,,,,,,,,,,,,,,,,,,,,,,,,,,,,"MET10109/28/20 12:53:02 METAR KSEA 282053Z VRB05KT 10SM CLR 22/12 A3028 RMK AO2 SLP260 T02220117 58020 (JC)","FM-15","7",,,,,,,,,,,,,,,,,,,,,,,,,,,"2007-05-17"
"72793024233","2020-09-28T13:53:00","FM-15","7",,,,,,,,,,,,,,,,,,,,,,,,,,,,,,,,,,,,,,,"30.26","54","74","0.00",,,,"50","30.27","CLR:00","29.79","10.00","62","020",,"8",,,,,,,,,,,,,,,,,,,,,,,,,,,,,,,,,,,,,"MET09509/28/20 13:53:02 METAR KSEA 282153Z 02007KT 10SM CLR 23/12 A3026 RMK AO2 SLP251 T02330122 (RS)","FM-15","7",,,,,,,,,,,,,,,,,,,,,,,,,,,"2007-05-17"
"72793024233","2020-09-28T14:53:00","FM-15","7",,,,,,,,,,,,,,,,,,,,,,,,,,,,,,,,,,,,,,,"30.24","54","75","0.00",,,,"48","30.25","CLR:00","29.77","10.00","63","350",,"9",,,,,,,,,,,,,,,,,,,,,,,,,,,,,,,,,,,,,"MET09509/28/20 14:53:02 METAR KSEA 282253Z 35008KT 10SM CLR 24/12 A3024 RMK AO2 SLP243 T02390122 (RS)","FM-15","7",,,,,,,,,,,,,,,,,,,,,,,,,,,"2007-05-17"
"72793024233","2020-09-28T15:53:00","FM-15","7",,,,,,,,,,,,,,,,,,,,,,,,,,,,,,,,,,,,,,,"30.21","54","75","0.00",,"+0.07","6","48","30.23","CLR:00","29.74","10.00","63","VRB",,"9",,,,,,,,,,,,,,,,,,,,,,,,,,,,,,,,,,,,,"MET11309/28/20 15:53:02 METAR KSEA 282353Z 34008KT 10SM CLR 24/12 A3021 RMK AO2 SLP236 T02390122 10244 20183 56023 (RS)","FM-15","7",,,,,,,,,,,,,,,,,,,,,,,,,,,"2007-05-17"
"72793024233","2020-09-28T16:00:00","FM-12","4",,,,,,,,,,,,,,,,,,,,,,,,,,,,,,,,,,,,,,,,"54","75",,,"+0.07","6","48","30.23",,"29.72","9.94","63","340",,"9",,,,,,,,,,,,,,,,,,,,,,,,,,,,,,,,,,,,,"SYN08072793 32966 03408 10239 20122 30066 40236 56023 92353 333 10244 20117 555 92900=","FM-12","4",,,,,,,,,,,,,,,,,,,,,,,,,,,"2007-05-17"
"72793024233","2020-09-28T16:53:00","FM-15","7",,,,,,,,,,,,,,,,,,,,,,,,,,,,,,,,,,,,,,,"30.19","53","71","0.00",,,,"53","30.21","CLR:00","29.72","10.00","61","330",,"9",,,,,,,,,,,,,,,,,,,,,,,,,,,,,,,,,,,,,"MET09009/28/20 16:53:01 METAR KSEA 290053Z 33008KT 10SM CLR 22/12 A3019 RMK AO2 SLP230 T02170117","FM-15","7",,,,,,,,,,,,,,,,,,,,,,,,,,,"2007-05-17"
"72793024233","2020-09-28T17:53:00","FM-15","7",,,,,,,,,,,,,,,,,,,,,,,,,,,,,,,,,,,,,,,"30.18","52","65","0.00",,,,"63","30.20","CLR:00","29.71","10.00","58","340",,"8",,,,,,,,,,,,,,,,,,,,,,,,,,,,,,,,,,,,,"MET09009/28/20 17:53:01 METAR KSEA 290153Z 34007KT 10SM CLR 18/11 A3018 RMK AO2 SLP226 T01830111","FM-15","7",,,,,,,,,,,,,,,,,,,,,,,,,,,"2007-05-17"
"72793024233","2020-09-28T18:53:00","FM-15","7",,,,,,,,,,,,,,,,,,,,,,,,,,,,,,,,,,,,,,,"30.18","52","63","0.00",,"+0.04","6","68","30.19","CLR:00","29.71","10.00","57","350",,"9",,,,,,,,,,,,,,,,,,,,,,,,,,,,,,,,,,,,,"MET09609/28/20 18:53:01 METAR KSEA 290253Z 35008KT 10SM CLR 17/11 A3018 RMK AO2 SLP225 T01720111 56012","FM-15","7",,,,,,,,,,,,,,,,,,,,,,,,,,,"2007-05-17"
"72793024233","2020-09-28T19:53:00","FM-15","7",,,,,,,,,,,,,,,,,,,,,,,,,,,,,,,,,,,,,,,"30.17","52","61","0.00",,,,"72","30.19","CLR:00","29.70","10.00","56","360",,"9",,,,,,,,,,,,,,,,,,,,,,,,,,,,,,,,,,,,,"MET09009/28/20 19:53:02 METAR KSEA 290353Z 36008KT 10SM CLR 16/11 A3017 RMK AO2 SLP223 T01610111","FM-15","7",,,,,,,,,,,,,,,,,,,,,,,,,,,"2007-05-17"
"72793024233","2020-09-28T20:53:00","FM-15","7",,,,,,,,,,,,,,,,,,,,,,,,,,,,,,,,,,,,,,,"30.17","52","62","0.00",,,,"70","30.19","CLR:00","29.70","10.00","56","010",,"13",,,,,,,,,,,,,,,,,,,,,,,,,,,,,,,,,,,,,"MET09009/28/20 20:53:02 METAR KSEA 290453Z 01011KT 10SM CLR 17/11 A3017 RMK AO2 SLP222 T01670111","FM-15","7",,,,,,,,,,,,,,,,,,,,,,,,,,,"2007-05-17"
"72793024233","2020-09-28T21:53:00","FM-15","7",,,,,,,,,,,,,,,,,,,,,,,,,,,,,,,,,,,,,,,"30.16","53","61","0.00",,"+0.02","8","75","30.18","CLR:00","29.69","10.00","57","010",,"17",,,,,,,,,,,,,,,,,,,,,,,,,,,,,,,,,,,,,"MET10809/28/20 21:53:02 METAR KSEA 290553Z 01015KT 10SM CLR 16/12 A3016 RMK AO2 SLP219 T01610117 10239 20161 58006","FM-15","7",,,,,,,,,,,,,,,,,,,,,,,,,,,"2007-05-17"
"72793024233","2020-09-28T22:00:00","FM-12","4",,,,,,,,,,,,,,,,,,,,,,,,,,,,,,,,,,,,,,,,"53","61",,,"+0.02","8","75","30.18",,"29.68","9.94","57","010",,"17",,,,,,,,,,,,,,,,,,,,,,,,,,,,,,,,,,,,,"SYN08072793 32966 00115 10161 20117 30050 40219 58006 90553 333 10239 20117 555 92906=","FM-12","4",,,,,,,,,,,,,,,,,,,,,,,,,,,"2007-05-17"
"72793024233","2020-09-28T22:53:00","FM-15","7",,,,,,,,,,,,,,,,,,,,,,,,,,,,,,,,,,,,,,,"30.15","53","61","0.00",,,,"75","30.16","CLR:00","29.68","10.00","57","020",,"10",,,,,,,,,,,,,,,,,,,,,,,,,,,,,,,,,,,,,"MET09009/28/20 22:53:02 METAR KSEA 290653Z 02009KT 10SM CLR 16/12 A3015 RMK AO2 SLP215 T01610117","FM-15","7",,,,,,,,,,,,,,,,,,,,,,,,,,,"2007-05-17"
"72793024233","2020-09-28T23:53:00","FM-15","7",,,,,,,,,,,,,,,,,,,,,,,,,,,,,,,,,,,,,,,"30.15","53","59","0.00",,,,"81","30.16","CLR:00","29.68","10.00","56","360",,"14",,,,,,,,,,,,,,,,,,,,,,,,,,,,,,,,,,,,,"MET10009/28/20 23:53:02 METAR KSEA 290753Z 36012KT 10SM CLR 15/12 A3015 RMK AO2 SLP213 T01500117 402440111","FM-15","7",,,,,,,,,,,,,,,,,,,,,,,,,,,"2007-05-17"
"72793024233","2020-09-28T23:59:00","SOD  ","6",,,,,,,,,,,,,,,,,"52","64","70","30.29","29.81","56","8.4","0","6.0","1","76","52","010","22","0.00","0","0.0","010","18",,,,,,,,,,,,,,,,,,,,,,,,,,,,,,,,,,,,,,,,,,,,,,,,,,,,,,,,"SOD74324 HR PRECIPITATION (IN): 0.00 SNOW DEPTH (IN):0     24 HR SNOWFALL (IN):0.0  24 HR MAX TEMP (F): 7624 HR MIN TEMP (F): 52AVERAGE STATION PRESSURE(D):29.812 MINIMUM SEA LEVEL PRESSURE:30.16 TIME OF OCCURRENCE:2359 PEAK WIND SPEED (MPH): 22 PEAK WIND DIR (DEG): 10 PEAK WIND TIME (LST):      FASTEST 2MIN SPEED (MPH): 18FASTEST 2MIN DIR (DEG): 10 FASTEST 2MIN TIME (LST):     AVERAGE WIND SPEED (MPH): 8.4 24 HR AVG TEMP (F): 64DEPART FROM NORMAL:  6  HEATING DEGREE DAYS:  1 COOLING DEGREE DAYS:  0 LATEST DAY MAX TEMP (0700-1900 LST): 76 LATEST NIGHT MIN TEMP(1900-0800 LST):52 HOURLY INCREMENTAL PRECIPITATION VALUES (IN):0.00 0.00 0.00 0.00 0.00 0.00 0.00 0.00 0.00 0.00 0.00 0.00 0.00 0.00 0.00 0.00 0.00 0.00 0.00 0.00 0.00 0.00 0.00 0.00","SOD  ","6",,,,,,,,,,,,,,,,,,,,,,,,,"0605","1753","2007-05-17"
"72793024233","2020-09-29T00:53:00","FM-15","7",,,,,,,,,,,,,,,,,,,,,,,,,,,,,,,,,,,,,,,"30.14","53","58","0.00",,"+0.02","8","84","30.15","CLR:00","29.67","10.00","55","360",,"14",,,,,,,,,,,,,,,,,,,,,,,,,,,,,,,,,,,,,"MET10109/29/20 00:53:02 METAR KSEA 290853Z 36012KT 10SM CLR 14/12 A3014 RMK AO2 SLP210 T01440117 58008 (MR)","FM-15","7",,,,,,,,,,,,,,,,,,,,,,,,,,,"2007-05-17"
"72793024233","2020-09-29T01:53:00","FM-15","7",,,,,,,,,,,,,,,,,,,,,,,,,,,,,,,,,,,,,,,"30.13","52","56","0.00",,,,"87","30.14","CLR:00","29.66","10.00","54","350",,"7",,,,,,,,,,,,,,,,,,,,,,,,,,,,,,,,,,,,,"MET09509/29/20 01:53:02 METAR KSEA 290953Z 35006KT 10SM CLR 13/11 A3013 RMK AO2 SLP207 T01330111 (MR)","FM-15","7",,,,,,,,,,,,,,,,,,,,,,,,,,,"2007-05-17"
"72793024233","2020-09-29T02:53:00","FM-15","7",,,,,,,,,,,,,,,,,,,,,,,,,,,,,,,,,,,,,,,"30.12","53","57","0.00",,,,"87","30.13","CLR:00","29.65","10.00","55","020",,"13",,,,,,,,,,,,,,,,,,,,,,,,,,,,,,,,,,,,,"MET09509/29/20 02:53:02 METAR KSEA 291053Z 02011KT 10SM CLR 14/12 A3012 RMK AO2 SLP203 T01390117 (MR)","FM-15","7",,,,,,,,,,,,,,,,,,,,,,,,,,,"2007-05-17"
"72793024233","2020-09-29T03:53:00","FM-15","7",,,,,,,,,,,,,,,,,,,,,,,,,,,,,,,,,,,,,,,"30.11","52","55","0.00",,"+0.03","7","90","30.12","CLR:00","29.64","10.00","53","360",,"7",,,,,,,,,,,,,,,,,,,,,,,,,,,,,,,,,,,,,"MET11309/29/20 03:53:02 METAR KSEA 291153Z 36006KT 10SM CLR 13/11 A3011 RMK AO2 SLP200 T01280111 10161 20128 57009 (MR)","FM-15","7",,,,,,,,,,,,,,,,,,,,,,,,,,,"2007-05-17"
"72793024233","2020-09-29T04:00:00","FM-12","4",,,,,,,,,,,,,,,,,,,,,,,,,,,,,,,,,,,,,,,,"52","55",,,"+0.03","7","90","30.12",,"29.63","9.94","53","360",,"7",,,,,,,,,,,,,,,,,,,,,,,,,,,,,,,,,,,,,"SYN08072793 32966 03606 10128 20111 30033 40200 57009 91153 333 10244 20128 555 92912=","FM-12","4",,,,,,,,,,,,,,,,,,,,,,,,,,,"2007-05-17"
"72793024233","2020-09-29T04:53:00","FM-15","7",,,,,,,,,,,,,,,,,,,,,,,,,,,,,,,,,,,,,,,"30.10","52","55","0.00",,,,"90","30.11","CLR:00","29.63","10.00","53","360",,"9",,,,,,,,,,,,,,,,,,,,,,,,,,,,,,,,,,,,,"MET09509/29/20 04:53:02 METAR KSEA 291253Z 36008KT 10SM CLR 13/11 A3010 RMK AO2 SLP198 T01280111 (MR)","FM-15","7",,,,,,,,,,,,,,,,,,,,,,,,,,,"2007-05-17"
"72793024233","2020-09-29T05:53:00","FM-15","7",,,,,,,,,,,,,,,,,,,,,,,,,,,,,,,,,,,,,,,"30.10","52","54","0.00",,,,"93","30.11","CLR:00","29.63","10.00","53","360",,"8",,,,,,,,,,,,,,,,,,,,,,,,,,,,,,,,,,,,,"MET09509/29/20 05:53:02 METAR KSEA 291353Z 36007KT 10SM CLR 12/11 A3010 RMK AO2 SLP197 T01220111 (LC)","FM-15","7",,,,,,,,,,,,,,,,,,,,,,,,,,,"2007-05-17"
"72793024233","2020-09-29T06:53:00","FM-15","7",,,,,,,,,,,,,,,,,,,,,,,,,,,,,,,,,,,,,,,"30.09","53","57","0.00",,"+0.01","6","87","30.11","CLR:00","29.62","10.00","55","020",,"11",,,,,,,,,,,,,,,,,,,,,,,,,,,,,,,,,,,,,"MET10109/29/20 06:53:02 METAR KSEA 291453Z 02010KT 10SM CLR 14/12 A3009 RMK AO2 SLP196 T01390117 56005 (LC)","FM-15","7",,,,,,,,,,,,,,,,,,,,,,,,,,,"2007-05-17"
"72793024233","2020-09-29T07:53:00","FM-15","7",,,,,,,,,,,,,,,,,,,,,,,,,,,,,,,,,,,,,,,"30.10","54","59","0.00",,,,"83","30.11","CLR:00","29.63","10.00","56","360",,"11",,,,,,,,,,,,,,,,,,,,,,,,,,,,,,,,,,,,,"MET09509/29/20 07:53:02 METAR KSEA 291553Z 36010KT 10SM CLR 15/12 A3010 RMK AO2 SLP197 T01500122 (LC)","FM-15","7",,,,,,,,,,,,,,,,,,,,,,,,,,,"2007-05-17"
"72793024233","2020-09-29T08:53:00","FM-15","7",,,,,,,,,,,,,,,,,,,,,,,,,,,,,,,,,,,,,,,"30.11","54","62","0.00",,,,"75","30.12","CLR:00","29.64","10.00","58","020",,"14",,,,,,,,,,,,,,,,,,,,,,,,,,,,,,,,,,,,,"MET09509/29/20 08:53:02 METAR KSEA 291653Z 02012KT 10SM CLR 17/12 A3011 RMK AO2 SLP200 T01670122 (LC)","FM-15","7",,,,,,,,,,,,,,,,,,,,,,,,,,,"2007-05-17"
"72793024233","2020-09-29T09:53:00","FM-15","7",,,,,,,,,,,,,,,,,,,,,,,,,,,,,,,,,,,,,,,"30.10","54","65","0.00",,"-0.01","0","68","30.12","CLR:00","29.63","10.00","59","360",,"9",,,,,,,,,,,,,,,,,,,,,,,,,,,,,,,,,,,,,"MET11309/29/20 09:53:02 METAR KSEA 291753Z 36008KT 10SM CLR 18/12 A3010 RMK AO2 SLP200 T01830122 10189 20122 50003 (LC)","FM-15","7",,,,,,,,,,,,,,,,,,,,,,,,,,,"2007-05-17"
"72793024233","2020-09-29T10:00:00","FM-12","4",,,,,,,,,,,,,,,,,,,,,,,,,,,,,,,,,,,,,,,,"54","65",,,"0.01","9","68","30.12",,"29.62","9.94","59","360",,"9",,,,,,,,,,,,,,,,,,,,,,,,,,,,,,,,,,,,,"SYN08072793 32966 03608 10183 20122 30029 40200 50003 91753 333 10189 20122 555 92918=","FM-12","4",,,,,,,,,,,,,,,,,,,,,,,,,,,"2007-05-17"
"72793024233","2020-09-29T10:53:00","FM-15","7",,,,,,,,,,,,,,,,,,,,,,,,,,,,,,,,,,,,,,,"30.09","55","69","0.00",,,,"61","30.10","CLR:00","29.62","10.00","61","010",,"11",,,,,,,,,,,,,,,,,,,,,,,,,,,,,,,,,,,,,"MET09509/29/20 10:53:02 METAR KSEA 291853Z 01010KT 10SM CLR 21/13 A3009 RMK AO2 SLP194 T02060128 (LC)","FM-15","7",,,,,,,,,,,,,,,,,,,,,,,,,,,"2007-05-17"
"72793024233","2020-09-29T11:53:00","FM-15","7",,,,,,,,,,,,,,,,,,,,,,,,,,,,,,,,,,,,,,,"30.08","55","73","0.00",,,,"53","30.09","CLR:00","29.61","10.00","62","350",,"9",,,,,,,,,,,,,,,,,,,,,,,,,,,,,,,,,,,,,"MET09509/29/20 11:53:02 METAR KSEA 291953Z 35008KT 10SM CLR 23/13 A3008 RMK AO2 SLP191 T02280128 (LC)","FM-15","7",,,,,,,,,,,,,,,,,,,,,,,,,,,"2007-05-17"
"72793024233","2020-09-29T12:53:00","FM-15","7",,,,,,,,,,,,,,,,,,,,,,,,,,,,,,,,,,,,,,,"30.06","55","76","0.00",,"+0.04","8","48","30.08","FEW:02 200","29.59","10.00","63","010",,"8",,,,,,,,,,,,,,,,,,,,,,,,,,,,,,,,,,,,,"MET10409/29/20 12:53:02 METAR KSEA 292053Z 01007KT 10SM FEW200 24/13 A3006 RMK AO2 SLP185 T02440128 58014 (LC)","FM-15","7",,,,,,,,,,,,,,,,,,,,,,,,,,,"2007-05-17"
"72793024233","2020-09-29T13:53:00","FM-15","7",,,,,,,,,,,,,,,,,,,,,,,,,,,,,,,,,,,,,,,"30.05","56","78","0.00",,,,"47","30.06","FEW:02 200","29.58","10.00","65","010",,"8",,,,,,,,,,,,,,,,,,,,,,,,,,,,,,,,,,,,,"MET09809/29/20 13:53:02 METAR KSEA 292153Z 01007KT 10SM FEW200 26/13 A3005 RMK AO2 SLP179 T02560133 (RS)","FM-15","7",,,,,,,,,,,,,,,,,,,,,,,,,,,"2007-05-17"
"72793024233","2020-09-29T14:53:00","FM-15","7",,,,,,,,,,,,,,,,,,,,,,,,,,,,,,,,,,,,,,,"30.04","56","79","0.00",,,,"45","30.05","FEW:02 200","29.57","10.00","65","360",,"7",,,,,,,,,,,,,,,,,,,,,,,,,,,,,,,,,,,,,"MET09809/29/20 14:53:02 METAR KSEA 292253Z 36006KT 10SM FEW200 26/13 A3004 RMK AO2 SLP176 T02610133 (RS)","FM-15","7",,,,,,,,,,,,,,,,,,,,,,,,,,,"2007-05-17"
"72793024233","2020-09-29T15:53:00","FM-15","7",,,,,,,,,,,,,,,,,,,,,,,,,,,,,,,,,,,,,,,"30.03","57","78","0.00",,"+0.03","6","48","30.04","FEW:02 200","29.56","10.00","65","280",,"5",,,,,,,,,,,,,,,,,,,,,,,,,,,,,,,,,,,,,"MET11609/29/20 15:53:02 METAR KSEA 292353Z 28004KT 10SM FEW200 26/14 A3003 RMK AO2 SLP174 T02560139 10267 20183 56010 (RS)","FM-15","7",,,,,,,,,,,,,,,,,,,,,,,,,,,"2007-05-17"
"72793024233","2020-09-29T16:00:00","FM-12","4",,,,,,,,,,,,,,,,,,,,,,,,,,,,,,,,,,,,,,,,"57","78",,,"+0.03","6","48","30.04",,"29.55","9.94","65","280",,"5",,,,,,,,,,,,,,,,,,,,,,,,,,,,,,,,,,,,,"SYN08072793 32966 22804 10256 20139 30006 40174 56010 92353 333 10267 20128 555 93000=","FM-12","4",,,,,,,,,,,,,,,,,,,,,,,,,,,"2007-05-17"
"72793024233","2020-09-29T16:53:00","FM-15","7",,,,,,,,,,,,,,,,,,,,,,,,,,,,,,,,,,,,,,,"30.03","55","74","0.00",,,,"52","30.04","FEW:02 200","29.56","10.00","63","290",,"7",,,,,,,,,,,,,,,,,,,,,,,,,,,,,,,,,,,,,"MET09809/29/20 16:53:03 METAR KSEA 300053Z 29006KT 10SM FEW200 23/13 A3003 RMK AO2 SLP173 T02330128 (RS)","FM-15","7",,,,,,,,,,,,,,,,,,,,,,,,,,,"2007-05-17"
"72793024233","2020-09-29T17:53:00","FM-15","7",,,,,,,,,,,,,,,,,,,,,,,,,,,,,,,,,,,,,,,"30.03","55","68","0.00",,,,"63","30.05","SCT:04 200","29.56","10.00","60","290",,"5",,,,,,,,,,,,,,,,,,,,,,,,,,,,,,,,,,,,,"MET09809/29/20 17:53:03 METAR KSEA 300153Z 29004KT 10SM SCT200 20/13 A3003 RMK AO2 SLP175 T02000128 (RS)","FM-15","7",,,,,,,,,,,,,,,,,,,,,,,,,,,"2007-05-17"
"72793024233","2020-09-29T18:53:00","FM-15","7",,,,,,,,,,,,,,,,,,,,,,,,,,,,,,,,,,,,,,,"30.04","56","68","0.00",,"-0.01","3","65","30.06","FEW:02 100 SCT:04 200","29.57","10.00","61","000",,"0",,,,,,,,,,,,,,,,,,,,,,,,,,,,,,,,,,,,,"MET12109/29/20 18:53:03 METAR KSEA 300253Z 00000KT 10SM FEW100 SCT200 20/13 A3004 RMK AO2 SLP179 FU FEW100 T02000133 53004 (RS)","FM-15","7",,,,,,,,,,,,,,,,,,,,,,,,,,,"2007-05-17"
"72793024233","2020-09-29T19:53:00","FM-15","7",,,,,,,,,,,,,,,,,,,,,,,,,,,,,,,,,,,,,,,"30.05","56","65","0.00",,,,"73","30.06","FEW:02 100","29.58","10.00","60","330",,"3",,,,,,,,,,,,,,,,,,,,,,,,,,,,,,,,,,,,,"MET10809/29/20 19:53:03 METAR KSEA 300353Z 33003KT 10SM FEW100 18/13 A3005 RMK AO2 SLP181 FU FEW100 T01830133 (RS)","FM-15","7",,,,,,,,,,,,,,,,,,,,,,,,,,,"2007-05-17"
"72793024233","2020-09-29T20:53:00","FM-15","7",,,,,,,,,,,,,,,,,,,,,,,,,,,,,,,,,,,,,,,"30.06","56","65","0.00",,,,"73","30.07","CLR:00","29.59","10.00","60","000",,"0",,,,,,,,,,,,,,,,,,,,,,,,,,,,,,,,,,,,,"MET09509/29/20 20:53:03 METAR KSEA 300453Z 00000KT 10SM CLR 18/13 A3006 RMK AO2 SLP184 T01830133 (RS)","FM-15","7",,,,,,,,,,,,,,,,,,,,,,,,,,,"2007-05-17"
"72793024233","2020-09-29T21:53:00","FM-15","7",,,,,,,,,,,,,,,,,,,,,,,,,,,,,,,,,,,,,,,"30.07","55","64","0.00",,"-0.03","3","73","30.08","CLR:00","29.60","10.00","59","000",,"0",,,,,,,,,,,,,,,,,,,,,,,,,,,,,,,,,,,,,"MET11309/29/20 21:53:03 METAR KSEA 300553Z 00000KT 10SM CLR 18/13 A3007 RMK AO2 SLP187 T01780128 10250 20178 53009 (TL)","FM-15","7",,,,,,,,,,,,,,,,,,,,,,,,,,,"2007-05-17"
"72793024233","2020-09-29T22:00:00","FM-12","4",,,,,,,,,,,,,,,,,,,,,,,,,,,,,,,,,,,,,,,,"55","64",,,"-0.03","3","73","30.08",,"29.59","9.94","59","000",,"0",,,,,,,,,,,,,,,,,,,,,,,,,,,,,,,,,,,,,"SYN08072793 32966 00000 10178 20128 30019 40187 53009 90553 333 10250 20128 555 93006=","FM-12","4",,,,,,,,,,,,,,,,,,,,,,,,,,,"2007-05-17"
"72793024233","2020-09-29T22:53:00","FM-15","7",,,,,,,,,,,,,,,,,,,,,,,,,,,,,,,,,,,,,,,"30.08","55","62","0.00",,,,"78","30.10","CLR:00","29.61","10.00","58","000",,"0",,,,,,,,,,,,,,,,,,,,,,,,,,,,,,,,,,,,,"MET09509/29/20 22:53:03 METAR KSEA 300653Z 00000KT 10SM CLR 17/13 A3008 RMK AO2 SLP192 T01670128 (TL)","FM-15","7",,,,,,,,,,,,,,,,,,,,,,,,,,,"2007-05-17"
"72793024233","2020-09-29T23:53:00","FM-15","7",,,,,,,,,,,,,,,,,,,,,,,,,,,,,,,,,,,,,,,"30.09","55","62","0.00",,,,"78","30.11","CLR:00","29.62","10.00","58","120",,"3",,,,,,,,,,,,,,,,,,,,,,,,,,,,,,,,,,,,,"MET10509/29/20 23:53:03 METAR KSEA 300753Z 12003KT 10SM CLR 17/13 A3009 RMK AO2 SLP195 T01670128 402670122 (TL)","FM-15","7",,,,,,,,,,,,,,,,,,,,,,,,,,,"2007-05-17"
"72793024233","2020-09-29T23:59:00","SOD  ","6",,,,,,,,,,,,,,,,,"54","67","70","30.09","29.60","59","7.1","2","9.3","0","80","54","360","18","0.00","0","0.0","010","15",,,,,,,,,,,,,,,,,,,,,,,,,,,,,,,,,,,,,,,,,,,,,,,,,,,,,,,,"SOD73924 HR PRECIPITATION (IN): 0.00 SNOW DEPTH (IN):0     24 HR SNOWFALL (IN):0.0  24 HR MAX TEMP (F): 8024 HR MIN TEMP (F): 54AVERAGE STATION PRESSURE:29.605 MINIMUM SEA LEVEL PRESSURE:30.04 TIME OF OCCURRENCE:1747 PEAK WIND SPEED (MPH): 18 PEAK WIND DIR (DEG):360 PEAK WIND TIME (LST):      FASTEST 2MIN SPEED (MPH): 15FASTEST 2MIN DIR (DEG): 10 FASTEST 2MIN TIME (LST):     AVERAGE WIND SPEED (MPH): 7.1 24 HR AVG TEMP (F): 67DEPART FROM NORMAL:  9  HEATING DEGREE DAYS:  0 COOLING DEGREE DAYS:  2 LATEST DAY MAX TEMP (0700-1900 LST):80  LATEST NIGHT MIN TEMP(1900-0800 LST):54 HOURLY INCREMENTAL PRECIPITATION VALUES (IN):.00 0.00 0.00 0.00 0.00 0.00 0.00 0.00 0.00 0.00 0.00 0.00 0.00 0.00 0.00 0.00 0.00 0.00 0.00 0.00 0.00 0.00 0.00 0.00","SOD  ","6",,,,,,,,,,,,,,,,,,,,,,,,,"0607","1751","2007-05-17"
"72793024233","2020-09-30T00:53:00","FM-15","7",,,,,,,,,,,,,,,,,,,,,,,,,,,,,,,,,,,,,,,"30.11","54","59","0.00",,"-0.04","1","83","30.12","SCT:04 200","29.64","10.00","56","000",,"0",,,,,,,,,,,,,,,,,,,,,,,,,,,,,,,,,,,,,"MET10409/30/20 00:53:02 METAR KSEA 300853Z 00000KT 10SM SCT200 15/12 A3011 RMK AO2 SLP199 T01500122 51012 (TL)","FM-15","7",,,,,,,,,,,,,,,,,,,,,,,,,,,"2007-05-17"
"72793024233","2020-09-30T01:53:00","FM-15","7",,,,,,,,,,,,,,,,,,,,,,,,,,,,,,,,,,,,,,,"30.11","54","59","0.00",,,,"83","30.13","FEW:02 100 SCT:04 200","29.64","10.00","56","000",,"0",,,,,,,,,,,,,,,,,,,,,,,,,,,,,,,,,,,,,"MET11509/30/20 01:53:02 METAR KSEA 300953Z 00000KT 10SM FEW100 SCT200 15/12 A3011 RMK AO2 SLP202 FU FEW100 T01500122 (TL)","FM-15","7",,,,,,,,,,,,,,,,,,,,,,,,,,,"2007-05-17"
"72793024233","2020-09-30T02:53:00","FM-15","7",,,,,,,,,,,,,,,,,,,,,,,,,,,,,,,,,,,,,,,"30.12","54","58","0.00",,,,"87","30.14","FEW:02 100 SCT:04 200","29.65","10.00","56","000",,"0",,,,,,,,,,,,,,,,,,,,,,,,,,,,,,,,,,,,,"MET11509/30/20 02:53:02 METAR KSEA 301053Z 00000KT 10SM FEW100 SCT200 14/12 A3012 RMK AO2 SLP205 FU FEW100 T01440122 (TL)","FM-15","7",,,,,,,,,,,,,,,,,,,,,,,,,,,"2007-05-17"
"72793024233","2020-09-30T03:53:00","FM-15","7",,,,,,,,,,,,,,,,,,,,,,,,,,,,,,,,,,,,,,,"30.13","56","58","0.00",,"-0.02","1","93","30.14","SCT:04 100","29.66","10.00","57","130",,"5",,,,,,,,,,,,,,,,,,,,,,,,,,,,,,,,,,,,,"MET12609/30/20 03:53:02 METAR KSEA 301153Z 13004KT 10SM SCT100 14/13 A3013 RMK AO2 SLP206 FU SCT100 T01440133 10183 20139 51007 (TL)","FM-15","7",,,,,,,,,,,,,,,,,,,,,,,,,,,"2007-05-17"
"72793024233","2020-09-30T04:00:00","FM-12","4",,,,,,,,,,,,,,,,,,,,,,,,,,,,,,,,,,,,,,,,"55","57",,,"-0.02","1","94","30.14",,"29.65","9.94","56","130",,"5",,,,,,,,,,,,,,,,,,,,,,,,,,,,,,,,,,,,,"SYN08072793 32966 41304 10140 20130 30039 40206 51007 91153 333 10267 20139 555 93012=","FM-12","4",,,,,,,,,,,,,,,,,,,,,,,,,,,"2007-05-17"
"72793024233","2020-09-30T04:53:00","FM-15","7",,,,,,,,,,,,,,,,,,,,,,,,,,,,,,,,,,,,,,,"30.14","55","58","0.00",,,,"90","30.15","SCT:04 100","29.67","9.00","56","000",,"0",,,,,,,,,,,,,,,,,,,,,,,,,,,,,,,,,,,,,"MET10709/30/20 04:53:02 METAR KSEA 301253Z 00000KT 9SM SCT100 14/13 A3014 RMK AO2 SLP209 FU SCT100 T01440128 (TL)","FM-15","7",,,,,,,,,,,,,,,,,,,,,,,,,,,"2007-05-17"
"72793024233","2020-09-30T05:53:00","FM-15","7",,,,,,,,,,,,,,,,,,,,,,,,,,,,,,,,,,,,,,,"30.14","54","56","0.00",,,,"93","30.16","OVC:08 40","29.67","8.00","55","000",,"0",,,,,,,,,,,,,,,,,,,,,,,,,,,,,,,,,,,,,"MET10709/30/20 05:53:02 METAR KSEA 301353Z 00000KT 8SM OVC040 13/12 A3014 RMK AO2 SLP213 FU OVC040 T01330122 (JC)","FM-15","7",,,,,,,,,,,,,,,,,,,,,,,,,,,"2007-05-17"
"72793024233","2020-09-30T06:53:00","FM-15","7",,,,,,,,,,,,,,,,,,,,,,,,,,,,,,,,,,,,,,,"30.15","53","56","0.00",,"-0.03","1","90","30.17","OVC:08 70","29.68","9.00","54","000",,"0",,,,,,,,,,,,,,,,,,,,,,,,,,,,,,,,,,,,,"MET11309/30/20 06:53:02 METAR KSEA 301453Z 00000KT 9SM OVC070 13/12 A3015 RMK AO2 SLP216 FU OVC070 T01330117 51009 (JC)","FM-15","7",,,,,,,,,,,,,,,,,,,,,,,,,,,"2007-05-17"
"72793024233","2020-09-30T07:53:00","FM-15","7",,,,,,,,,,,,,,,,,,,,,,,,,,,,,,,,,,,,,,,"30.17","56","58","0.00",,,,"93","30.18","OVC:08 60","29.70","9.00","57","000",,"0",,,,,,,,,,,,,,,,,,,,,,,,,,,,,,,,,,,,,"MET10709/30/20 07:53:02 METAR KSEA 301553Z 00000KT 9SM OVC060 14/13 A3017 RMK AO2 SLP221 FU OVC060 T01440133 (JC)","FM-15","7",,,,,,,,,,,,,,,,,,,,,,,,,,,"2007-05-17"
"72793024233","2020-09-30T08:53:00","FM-15","7",,,,,,,,,,,,,,,,,,,,,,,,,,,,,,,,,,,,,,,"30.18","57","61","0.00",,,,"87","30.20","OVC:08 60","29.71","10.00","59","000",,"0",,,,,,,,,,,,,,,,,,,,,,,,,,,,,,,,,,,,,"MET10809/30/20 08:53:02 METAR KSEA 301653Z 00000KT 10SM OVC060 16/14 A3018 RMK AO2 SLP226 FU OVC060 T01610139 (JC)","FM-15","7",,,,,,,,,,,,,,,,,,,,,,,,,,,"2007-05-17"
"72793024233","2020-09-30T09:53:00","FM-15","7",,,,,,,,,,,,,,,,,,,,,,,,,,,,,,,,,,,,,,,"30.19","58","64","0.00",,"-0.04","1","81","30.21","OVC:08 60","29.72","10.00","60","000",,"0",,,,,,,,,,,,,,,,,,,,,,,,,,,,,,,,,,,,,"MET12609/30/20 09:53:02 METAR KSEA 301753Z 00000KT 10SM OVC060 18/14 A3019 RMK AO2 SLP229 FU OVC060 T01780144 10178 20128 51014 (JC)","FM-15","7",,,,,,,,,,,,,,,,,,,,,,,,,,,"2007-05-17"
"72793024233","2020-09-30T10:00:00","FM-12","4",,,,,,,,,,,,,,,,,,,,,,,,,,,,,,,,,,,,,,,,"57","64",,,"-0.04","1","78","30.21","57","29.71","9.94","60","000",,"0",,,,,,,,,,,,,,,,,,,,,,,,,,,,,,,,,,,,,"SYN08072793 32766 80000 10180 20140 30060 40229 51014 91753 333 10183 20128 555 93018=","FM-12","4",,,,,,,,,,,,,,,,,,,,,,,,,,,"2007-05-17"
"72793024233","2020-09-30T10:53:00","FM-15","7",,,,,,,,,,,,,,,,,,,,,,,,,,,,,,,,,,,,,,,"30.20","58","68","0.00",,,,"70","30.21","OVC:08 60","29.73","10.00","62","VRB",,"5",,,,,,,,,,,,,,,,,,,,,,,,,,,,,,,,,,,,,"MET10809/30/20 10:53:02 METAR KSEA 301853Z VRB04KT 10SM OVC060 20/14 A3020 RMK AO2 SLP230 FU OVC060 T02000144 (JC)","FM-15","7",,,,,,,,,,,,,,,,,,,,,,,,,,,"2007-05-17"
"72793024233","2020-09-30T11:53:00","FM-15","7",,,,,,,,,,,,,,,,,,,,,,,,,,,,,,,,,,,,,,,"30.20","58","69","0.00",,,,"68","30.21","OVC:08 60","29.73","10.00","62","290",,"5",,,,,,,,,,,,,,,,,,,,,,,,,,,,,,,,,,,,,"MET10809/30/20 11:53:02 METAR KSEA 301953Z 29004KT 10SM OVC060 21/14 A3020 RMK AO2 SLP231 FU OVC060 T02060144 (JC)","FM-15","7",,,,,,,,,,,,,,,,,,,,,,,,,,,"2007-05-17"
"72793024233","2020-09-30T12:53:00","FM-15","7",,,,,,,,,,,,,,,,,,,,,,,,,,,,,,,,,,,,,,,"30.20","59","72","0.00",,"-0.01","1","64","30.21","OVC:08 60","29.73","10.00","64","280",,"5",,,,,,,,,,,,,,,,,,,,,,,,,,,,,,,,,,,,,"MET11409/30/20 12:53:02 METAR KSEA 302053Z 28004KT 10SM OVC060 22/15 A3020 RMK AO2 SLP231 FU OVC060 T02220150 51002 (JC)","FM-15","7",,,,,,,,,,,,,,,,,,,,,,,,,,,"2007-05-17"
"72793024233","2020-09-30T13:53:00","FM-15","7",,,,,,,,,,,,,,,,,,,,,,,,,,,,,,,,,,,,,,,"30.19","59","74","0.00",,,,"60","30.21","BKN:07 60","29.72","10.00","65","000",,"0",,,,,,,,,,,,,,,,,,,,,,,,,,,,,,,,,,,,,"MET10809/30/20 13:53:02 METAR KSEA 302153Z 00000KT 10SM BKN060 23/15 A3019 RMK AO2 SLP229 FU BKN060 T02330150 (LC)","FM-15","7",,,,,,,,,,,,,,,,,,,,,,,,,,,"2007-05-17"
"72793024233","2020-09-30T14:53:00","FM-15","7",,,,,,,,,,,,,,,,,,,,,,,,,,,,,,,,,,,,,,,"30.18","59","75","0.00",,,,"58","30.19","BKN:07 60","29.71","10.00","65","290",,"6",,,,,,,,,,,,,,,,,,,,,,,,,,,,,,,,,,,,,"MET10809/30/20 14:53:02 METAR KSEA 302253Z 29005KT 10SM BKN060 24/15 A3018 RMK AO2 SLP225 FU BKN060 T02390150 (LC)","FM-15","7",,,,,,,,,,,,,,,,,,,,,,,,,,,"2007-05-17"
"72793024233","2020-09-30T15:53:00","FM-15","7",,,,,,,,,,,,,,,,,,,,,,,,,,,,,,,,,,,,,,,"30.17","59","73","0.00",,"+0.03","8","62","30.18","BKN:07 60","29.70","10.00","64","260",,"3",,,,,,,,,,,,,,,,,,,,,,,,,,,,,,,,,,,,,"MET12609/30/20 15:53:02 METAR KSEA 302353Z 26003KT 10SM BKN060 23/15 A3017 RMK AO2 SLP221 FU BKN060 T02280150 10244 20178 58009 (LC)","FM-15","7",,,,,,,,,,,,,,,,,,,,,,,,,,,"2007-05-17"
"72793024233","2020-09-30T16:00:00","FM-12","4",,,,,,,,,,,,,,,,,,,,,,,,,,,,,,,,,,,,,,,,"59","73",,,"+0.03","8","61","30.18","57","29.69","9.94","64","260",,"3",,,,,,,,,,,,,,,,,,,,,,,,,,,,,,,,,,,,,"SYN08072793 32766 62603 10230 20150 30053 40221 58009 92353 333 10244 20128 555 90100=","FM-12","4",,,,,,,,,,,,,,,,,,,,,,,,,,,"2007-05-17"
"72793024233","2020-09-30T16:53:00","FM-15","7",,,,,,,,,,,,,,,,,,,,,,,,,,,,,,,,,,,,,,,"30.17","58","72","0.00",,,,"61","30.19","SCT:04 60 BKN:07 250","29.70","10.00","64","000",,"0",,,,,,,,,,,,,,,,,,,,,,,,,,,,,,,,,,,,,"MET11509/30/20 16:53:03 METAR KSEA 010053Z 00000KT 10SM SCT060 BKN250 22/14 A3017 RMK AO2 SLP222 FU SCT060 T02220144 (LC)","FM-15","7",,,,,,,,,,,,,,,,,,,,,,,,,,,"2007-05-17"
"72793024233","2020-09-30T17:53:00","FM-15","7",,,,,,,,,,,,,,,,,,,,,,,,,,,,,,,,,,,,,,,"30.17","58","71","0.00",,,,"63","30.18","SCT:04 60 BKN:07 200","29.70","10.00","63","000",,"0",,,,,,,,,,,,,,,,,,,,,,,,,,,,,,,,,,,,,"MET11509/30/20 17:53:03 METAR KSEA 010153Z 00000KT 10SM SCT060 BKN200 22/14 A3017 RMK AO2 SLP221 FU SCT060 T02170144 (LC)","FM-15","7",,,,,,,,,,,,,,,,,,,,,,,,,,,"2007-05-17"
"72793024233","2020-09-30T18:53:00","FM-15","7",,,,,,,,,,,,,,,,,,,,,,,,,,,,,,,,,,,,,,,"30.18","59","65","0.00",,"-0.01","3","81","30.19","SCT:04 80 BKN:07 200","29.71","10.00","61","300",,"3",,,,,,,,,,,,,,,,,,,,,,,,,,,,,,,,,,,,,"MET12109/30/20 18:53:03 METAR KSEA 010253Z 30003KT 10SM SCT080 BKN200 18/15 A3018 RMK AO2 SLP225 FU SCT080 T01830150 53003 (LC)","FM-15","7",,,,,,,,,,,,,,,,,,,,,,,,,,,"2007-05-17"
"72793024233","2020-09-30T19:53:00","FM-15","7",,,,,,,,,,,,,,,,,,,,,,,,,,,,,,,,,,,,,,,"30.19","58","65","0.00",,,,"78","30.20","SCT:04 80 BKN:07 200","29.72","10.00","61","330",,"3",,,,,,,,,,,,,,,,,,,,,,,,,,,,,,,,,,,,,"MET11509/30/20 19:53:03 METAR KSEA 010353Z 33003KT 10SM SCT080 BKN200 18/14 A3019 RMK AO2 SLP228 FU SCT080 T01830144 (LC)","FM-15","7",,,,,,,,,,,,,,,,,,,,,,,,,,,"2007-05-17"
"72793024233","2020-09-30T20:53:00","FM-15","7",,,,,,,,,,,,,,,,,,,,,,,,,,,,,,,,,,,,,,,"30.20","57","64","0.00",,,,"78","30.21","SCT:04 80 BKN:07 200","29.73","10.00","60","000",,"0",,,,,,,,,,,,,,,,,,,,,,,,,,,,,,,,,,,,,"MET11509/30/20 20:53:03 METAR KSEA 010453Z 00000KT 10SM SCT080 BKN200 18/14 A3020 RMK AO2 SLP231 FU SCT080 T01780139 (LC)","FM-15","7",,,,,,,,,,,,,,,,,,,,,,,,,,,"2007-05-17"
"72793024233","2020-09-30T21:53:00","FM-15","7",,,,,,,,,,,,,,,,,,,,,,,,,,,,,,,,,,,,,,,"30.20","57","61","0.00",,"-0.02","1","87","30.22","SCT:04 80 BKN:07 200","29.73","10.00","59","000",,"0",,,,,,,,,,,,,,,,,,,,,,,,,,,,,,,,,,,,,"MET13309/30/20 21:53:03 METAR KSEA 010553Z 00000KT 10SM SCT080 BKN200 16/14 A3020 RMK AO2 SLP232 FU SCT080 T01610139 10228 20161 51007 (TL)","FM-15","7",,,,,,,,,,,,,,,,,,,,,,,,,,,"2007-05-17"
"72793024233","2020-09-30T22:00:00","FM-12","4",,,,,,,,,,,,,,,,,,,,,,,,,,,,,,,,,,,,,,,,"57","61",,,"-0.02","1","88","30.22","74","29.72","9.94","59","000",,"0",,,,,,,,,,,,,,,,,,,,,,,,,,,,,,,,,,,,,"SYN08072793 32866 60000 10160 20140 30063 40232 51007 90553 333 10228 20128 555 90106=","FM-12","4",,,,,,,,,,,,,,,,,,,,,,,,,,,"2007-05-17"
"72793024233","2020-09-30T22:53:00","FM-15","7",,,,,,,,,,,,,,,,,,,,,,,,,,,,,,,,,,,,,,,"30.20","56","60","0.00",,,,"86","30.22","FEW:02 80 BKN:07 200","29.73","10.00","58","000",,"0",,,,,,,,,,,,,,,,,,,,,,,,,,,,,,,,,,,,,"MET11509/30/20 22:53:03 METAR KSEA 010653Z 00000KT 10SM FEW080 BKN200 16/13 A3020 RMK AO2 SLP232 FU FEW080 T01560133 (TL)","FM-15","7",,,,,,,,,,,,,,,,,,,,,,,,,,,"2007-05-17"
"72793024233","2020-09-30T23:53:00","FM-15","7",,,,,,,,,,,,,,,,,,,,,,,,,,,,,,,,,,,,,,,"30.20","56","59","0.00",,,,"90","30.21","FEW:02 80 BKN:07 200","29.73","10.00","57","000",,"0",,,,,,,,,,,,,,,,,,,,,,,,,,,,,,,,,,,,,"MET12509/30/20 23:53:03 METAR KSEA 010753Z 00000KT 10SM FEW080 BKN200 15/13 A3020 RMK AO2 SLP230 FU FEW080 T01500133 402440128 (TL)","FM-15","7",,,,,,,,,,,,,,,,,,,,,,,,,,,"2007-05-17"
"72793024233","2020-09-30T23:59:00","SOD  ","6",,,,,,,,,,,,,,,,,"57","66","78","30.18","29.70","60","1.4","1","8.6","0","76","55","360","9","0.00","0","0.0","300","7",,,,,,,,,,,,,,,,,,,,,,,,,,,,,,,,,,,,,,,,,,,,,,,,,,,,,,,,"SOD73924 HR PRECIPITATION (IN): 0.00 SNOW DEPTH (IN):0     24 HR SNOWFALL (IN):0.0  24 HR MAX TEMP (F): 7624 HR MIN TEMP (F): 55AVERAGE STATION PRESSURE:29.700 MINIMUM SEA LEVEL PRESSURE:30.11 TIME OF OCCURRENCE:0033 PEAK WIND SPEED (MPH):  9 PEAK WIND DIR (DEG):360 PEAK WIND TIME (LST):      FASTEST 2MIN SPEED (MPH):  7FASTEST 2MIN DIR (DEG):300 FASTEST 2MIN TIME (LST):     AVERAGE WIND SPEED (MPH): 1.4 24 HR AVG TEMP (F): 66DEPART FROM NORMAL:  9  HEATING DEGREE DAYS:  0 COOLING DEGREE DAYS:  1 LATEST DAY MAX TEMP (0700-1900 LST):76  LATEST NIGHT MIN TEMP(1900-0800 LST):55 HOURLY INCREMENTAL PRECIPITATION VALUES (IN):.00 0.00 0.00 0.00 0.00 0.00 0.00 0.00 0.00 0.00 0.00 0.00 0.00 0.00 0.00 0.00 0.00 0.00 0.00 0.00 0.00 0.00 0.00 0.00","SOD  ","6",,,,,,,,,,,,,,,,,,,,,,,,,"0608","1749","2007-05-17"
"72793024233","2020-09-30T23:59:00","SOM  ","6","7.2",,,,,,,,,,,"313","67","0",,,,,,,,,,,,,,,,,,,,,,,"92","52",,,,,,,,,,,,,,,,,,"9","4","0","1","0","0","4.2","46","-80","3.8","4.6","0.98",,"1.08","23-23","0",,"0.0",,"30.50","27","1056","74.3","65.5","29.69","25","0753","56.7","30.23","29.59","2.48",,,"21","132","SOM787PCP MTOT:0.27 PCP GT 24HRS:0.27 DATE(S):25 DAYS W/PCP >=.01:0  DAYS W/PCP >=.10:0  DAYS W/ PCP >=.50:0 DAYS W/PCP >=1.00:0 MSDP AMTS W/DATE-TIME TAGS:MIN:5 0.09  25/1209 MIN:10 0.13  25/1209 MIN:15 0.16  25/1209 MIN:20 0.18  25/1218 MIN:30 0.22  25/1220 MIN:45 0.25  25/1220 MIN:60 0.25  25/1220 MIN:80 0.27  25/1220 MIN:100 0.27  25/1220 MIN:120 0.27  25/1220 MIN:150 0.27  25/1220 MIN:180 0.27  25/1220 AVG DLY MIN:53.7  AVG DLY MAX:71.7  AVG MLY TMP:62.7  MIN TMP:52 DATE(S):28 MAX TMP:80  DATE(S):29 DAYS MAX <=32:0 DAYS MAX >=90:0  DAYS MIN <=32:0  DAYS MIN  <=0:0  AVG STP:29.745 LWST SLP:29.98 DATE/TIME:252225 HGST SLP:30.50 DATE/TIME:271056 HDD MTH TOT:16 DEP NORM:-2553 SEASON(JUL 1-JUN 30):16 DEP NORM:-25536 CDD MTH TOT:3 DEP NORM:-2553 SEASON(JAN 1-DEC 31):3 DEP NORM:-25536","SOM  ","6","2020-09-25 12:09","2020-09-25 12:09","2020-09-25 12:09","2020-09-25 12:18","2020-09-25 12:20","2020-09-25 12:20","2020-09-25 12:20","2020-09-25 12:20","2020-09-25 12:20","2020-09-25 12:20","2020-09-25 12:20","2020-09-25 12:20","0.09","0.13","0.16","0.18","0.22","0.25","0.25","0.27","0.27","0.27","0.27","0.27",,,"2007-05-17"
"72793024233","2020-10-01T00:53:00","FM-15","7",,,,,,,,,,,,,,,,,,,,,,,,,,,,,,,,,,,,,,,"30.20","56","60","0.00",,"+0.00","8","86","30.21","SCT:04 80 BKN:07 200","29.73","10.00","58","000",,"0",,,,,,,,,,,,,,,,,,,,,,,,,,,,,,,,,,,,,"MET12110/01/20 00:53:02 METAR KSEA 010853Z 00000KT 10SM SCT080 BKN200 16/13 A3020 RMK AO2 SLP231 FU SCT080 T01560133 58000 (TL)","FM-15","7",,,,,,,,,,,,,,,,,,,,,,,,,,,"2007-05-17"
"72793024233","2020-10-01T01:53:00","FM-15","7",,,,,,,,,,,,,,,,,,,,,,,,,,,,,,,,,,,,,,,"30.19","56","59","0.00",,,,"90","30.20","SCT:04 80 BKN:07 200","29.72","10.00","57","130",,"5",,,,,,,,,,,,,,,,,,,,,,,,,,,,,,,,,,,,,"MET11510/01/20 01:53:02 METAR KSEA 010953Z 13004KT 10SM SCT080 BKN200 15/13 A3019 RMK AO2 SLP227 FU SCT080 T01500133 (TL)","FM-15","7",,,,,,,,,,,,,,,,,,,,,,,,,,,"2007-05-17"
"72793024233","2020-10-01T02:53:00","FM-15","7",,,,,,,,,,,,,,,,,,,,,,,,,,,,,,,,,,,,,,,"30.19","55","56","0.00","BR:1 ||",,,"97","30.20","BKN:07 2","29.72","4.00","55","000",,"0",,,,,,,,,,,,,,,,,,,,,,,,,,,,,,,,,,,,,"MET11010/01/20 02:53:02 METAR KSEA 011053Z 00000KT 4SM BR BKN002 13/13 A3019 RMK AO2 SLP228 VIS S 3/4 T01330128 (TL)","FM-15","7",,,,,,,,,,,,,,,,,,,,,,,,,,,"2007-05-17"
"72793024233","2020-10-01T03:03:00","FM-16","7",,,,,,,,,,,,,,,,,,,,,,,,,,,,,,,,,,,,,,,"30.19","55","57",,"BC:3 FG:2 |FG |",,,"93",,"SCT:04 2 SCT:04 80","29.72","5.00","56","000",,"0",,,,,,,,,,,,,,,,,,,,,,,,,,,,,,,,,,,,,"MET11410/01/20 03:03:02 SPECI KSEA 011103Z 00000KT 5SM BCFG SCT002 SCT080 14/13 A3019 RMK AO2 VIS S-W 3/4 T01390128 (TL)","FM-16","7",,,,,,,,,,,,,,,,,,,,,,,,,,,"2007-05-17"
"72793024233","2020-10-01T03:53:00","FM-15","7",,,,,,,,,,,,,,,,,,,,,,,,,,,,,,,,,,,,,,,"30.19","53","55","0.00",,"+0.01","5","93","30.21","FEW:02 2 SCT:04 200","29.72","7.00","54","000",,"0",,,,,,,,,,,,,,,,,,,,,,,,,,,,,,,,,,,,,"MET12210/01/20 03:53:02 METAR KSEA 011153Z 00000KT 7SM FEW002 SCT200 13/12 A3019 RMK AO2 SLP229 T01280117 10161 20122 55002 (TL)","FM-15","7",,,,,,,,,,,,,,,,,,,,,,,,,,,"2007-05-17"
"72793024233","2020-10-01T04:00:00","FM-12","4",,,,,,,,,,,,,,,,,,,,,,,,,,,,,,,,,,,,,,,,"53","55",,,"+0.01","5","93","30.21","2","29.71","6.84","54","000",,"0",,,,,,,,,,,,,,,,,,,,,,,,,,,,,,,,,,,,,"SYN08072793 32161 40000 10128 20117 30060 40229 55002 91153 333 10244 20122 555 90112=","FM-12","4",,,,,,,,,,,,,,,,,,,,,,,,,,,"2007-05-17"
"72793024233","2020-10-01T04:20:00","FM-16","7",,,,,,,,,,,,,,,,,,,,,,,,,,,,,,,,,,,,,,,"30.20","53","55",,"BR:1 |s |",,,"93",,"BKN:07 2","29.73","0.25","54","320",,"5",,,,,,,,,,,,,,,,,,,,,,,,,,,,,,,,,,,,,"MET12210/01/20 04:20:02 SPECI KSEA 011220Z 32004KT 1/4SM R16L/P6000FT BR BKN002 13/12 A3020 RMK AO2 SFC VIS 1 1/4 T01280117 (TL)","FM-16","7",,,,,,,,,,,,,,,,,,,,,,,,,,,"2007-05-17"
"72793024233","2020-10-01T04:36:00","FM-16","7",,,,,,,,,,,,,,,,,,,,,,,,,,,,,,,,,,,,,,,"30.19","55","56",,"FG:2 |FG |",,,"97",,"OVC:08 1","29.72","0.25","55","000",,"0",,,,,,,,,,,,,,,,,,,,,,,,,,,,,,,,,,,,,"MET12510/01/20 04:36:02 SPECI KSEA 011236Z 00000KT 1/4SM R16L/1400VP6000FT FG OVC001 13/13 A3019 RMK AO2 SFC VIS 1/2 T01330128 (TL)","FM-16","7",,,,,,,,,,,,,,,,,,,,,,,,,,,"2007-05-17"
"72793024233","2020-10-01T04:53:00","FM-15","7",,,,,,,,,,,,,,,,,,,,,,,,,,,,,,,,,,,,,,,"30.20","55","57","0.00","FG:2 |FG |",,,"93","30.21","VV:09 1","29.73","0.25","56","350",,"3",,,,,,,,,,,,,,,,,,,,,,,,,,,,,,,,,,,,,"MET11810/01/20 04:53:02 METAR KSEA 011253Z 35003KT 1/4SM R16L/1200V2600FT FG VV001 14/13 A3020 RMK AO2 SLP230 T01390128 (JC)","FM-15","7",,,,,,,,,,,,,,,,,,,,,,,,,,,"2007-05-17"
"72793024233","2020-10-01T05:07:00","FM-16","7",,,,,,,,,,,,,,,,,,,,,,,,,,,,,,,,,,,,,,,"30.20","56","56",,"FG:2 |FG |",,,"100",,"VV:09 1","29.73","0.25","56","000",,"0",,,,,,,,,,,,,,,,,,,,,,,,,,,,,,,,,,,,,"MET11110/01/20 05:07:02 SPECI KSEA 011307Z 00000KT 1/4SM R16L/0800V1000FT FG VV001 13/13 A3020 RMK AO2 T01330133 (JC)","FM-16","7",,,,,,,,,,,,,,,,,,,,,,,,,,,"2007-05-17"
"72793024233","2020-10-01T05:53:00","FM-15","7",,,,,,,,,,,,,,,,,,,,,,,,,,,,,,,,,,,,,,,"30.20","56","57","0.00","FG:2 |FG |",,,"96","30.21","VV:09 1","29.73","0.12","56","020",,"3",,,,,,,,,,,,,,,,,,,,,,,,,,,,,,,,,,,,,"MET11810/01/20 05:53:02 METAR KSEA 011353Z 02003KT 1/8SM R16L/0600V1000FT FG VV001 14/13 A3020 RMK AO2 SLP231 T01390133 (JC)","FM-15","7",,,,,,,,,,,,,,,,,,,,,,,,,,,"2007-05-17"
"72793024233","2020-10-01T06:09:00","FM-16","7",,,,,,,,,,,,,,,,,,,,,,,,,,,,,,,,,,,,,,,"30.20","57","57",,"FG:2 |FG |",,,"100",,"VV:09 1","29.73","0.25","57","050",,"3",,,,,,,,,,,,,,,,,,,,,,,,,,,,,,,,,,,,,"MET11110/01/20 06:09:02 SPECI KSEA 011409Z 05003KT 1/4SM R16L/1200V2800FT FG VV001 14/14 A3020 RMK AO2 T01390139 (JC)","FM-16","7",,,,,,,,,,,,,,,,,,,,,,,,,,,"2007-05-17"
"72793024233","2020-10-01T06:40:00","FM-16","7",,,,,,,,,,,,,,,,,,,,,,,,,,,,,,,,,,,,,,,"30.20","57","57",,"FG:2 |FG |",,,"100",,"VV:09 1","29.73","0.12","57","030",,"5",,,,,,,,,,,,,,,,,,,,,,,,,,,,,,,,,,,,,"MET11110/01/20 06:40:02 SPECI KSEA 011440Z 03004KT 1/8SM R16L/0800V1400FT FG VV001 14/14 A3020 RMK AO2 T01390139 (JC)","FM-16","7",,,,,,,,,,,,,,,,,,,,,,,,,,,"2007-05-17"
"72793024233","2020-10-01T06:53:00","FM-15","7",,,,,,,,,,,,,,,,,,,,,,,,,,,,,,,,,,,,,,,"30.20","57","57","0.00","FG:2 |FG |","-0.01","1","100","30.22","VV:09 1","29.73","0.12","57","050",,"6",,,,,,,,,,,,,,,,,,,,,,,,,,,,,,,,,,,,,"MET12410/01/20 06:53:02 METAR KSEA 011453Z 05005KT 1/8SM R16L/0800V1200FT FG VV001 14/14 A3020 RMK AO2 SLP233 T01390139 51003 (JC)","FM-15","7",,,,,,,,,,,,,,,,,,,,,,,,,,,"2007-05-17"
"72793024233","2020-10-01T07:53:00","FM-15","7",,,,,,,,,,,,,,,,,,,,,,,,,,,,,,,,,,,,,,,"30.21","56","56","0.00","FG:2 |FG |",,,"100","30.22","VV:09 1","29.74","0.12","56","330",,"3",,,,,,,,,,,,,,,,,,,,,,,,,,,,,,,,,,,,,"MET11810/01/20 07:53:02 METAR KSEA 011553Z 33003KT 1/8SM R16L/0600V0700FT FG VV001 13/13 A3021 RMK AO2 SLP235 T01330133 (JC)","FM-15","7",,,,,,,,,,,,,,,,,,,,,,,,,,,"2007-05-17"
"72793024233","2020-10-01T08:53:00","FM-15","7",,,,,,,,,,,,,,,,,,,,,,,,,,,,,,,,,,,,,,,"30.22","57","57","0.00","FG:2 |FG |",,,"100","30.23","VV:09 1","29.75","0.12","57","000",,"0",,,,,,,,,,,,,,,,,,,,,,,,,,,,,,,,,,,,,"MET13010/01/20 08:53:02 METAR KSEA 011653Z 00000KT 1/8SM R16L/1000V1400FT FG VV001 14/14 A3022 RMK AO2 SFC VIS 1/4 SLP237 T01390139 (JC)","FM-15","7",,,,,,,,,,,,,,,,,,,,,,,,,,,"2007-05-17"
"72793024233","2020-10-01T09:08:00","FM-16","7",,,,,,,,,,,,,,,,,,,,,,,,,,,,,,,,,,,,,,,"30.21","56","57",,"FG:2 |FG |",,,"96",,"VV:09 1","29.74","0.12","56","000",,"0",,,,,,,,,,,,,,,,,,,,,,,,,,,,,,,,,,,,,"MET12310/01/20 09:08:02 SPECI KSEA 011708Z 00000KT 1/8SM R16L/1400V3500FT FG VV001 14/13 A3021 RMK AO2 SFC VIS 1/4 T01390133 (JC)","FM-16","7",,,,,,,,,,,,,,,,,,,,,,,,,,,"2007-05-17"
"72793024233","2020-10-01T09:53:00","FM-15","7",,,,,,,,,,,,,,,,,,,,,,,,,,,,,,,,,,,,,,,"30.21","57","57","0.00","FG:2 |FG |","-0.01","0","100","30.23","VV:09 1","29.74","0.12","57","260",,"5",,,,,,,,,,,,,,,,,,,,,,,,,,,,,,,,,,,,,"MET14810/01/20 09:53:02 METAR KSEA 011753Z 26004KT 1/8SM R16L/2000V4500FT FG VV001 14/14 A3021 RMK AO2 SFC VIS 1/2 SLP236 T01390139 10144 20122 50003 (JC)","FM-15","7",,,,,,,,,,,,,,,,,,,,,,,,,,,"2007-05-17"
"72793024233","2020-10-01T10:00:00","FM-12","4",,,,,,,,,,,,,,,,,,,,,,,,,,,,,,,,,,,,,,,,"57","57",,"||FG","0.01","9","100","30.23","1","29.72","0.12","57","260",,"5",,,,,,,,,,,,,,,,,,,,,,,,,,,,,,,,,,,,,"SYN08672793 31002 92604 10139 20139 30066 40236 50003 741// 91753 333 10161 20122 555 90118=","FM-12","4",,,,,,,,,,,,,,,,,,,,,,,,,,,"2007-05-17"
"72793024233","2020-10-01T10:48:00","FM-16","7",,,,,,,,,,,,,,,,,,,,,,,,,,,,,,,,,,,,,,,"30.21","55","57",,"BR:1 ||",,,"94",,"OVC:08 2","29.74","1.00","56","VRB",,"3",,,,,,,,,,,,,,,,,,,,,,,,,,,,,,,,,,,,,"MET10110/01/20 10:48:02 SPECI KSEA 011848Z VRB03KT 1SM R16L/4000VP6000FT BR OVC002 14/13 A3021 RMK AO2 (JC)","FM-16","7",,,,,,,,,,,,,,,,,,,,,,,,,,,"2007-05-17"
"72793024233","2020-10-01T10:53:00","FM-15","7",,,,,,,,,,,,,,,,,,,,,,,,,,,,,,,,,,,,,,,"30.21","56","58","0.00","BR:1 ||",,,"93","30.22","OVC:08 2","29.74","1.00","57","000",,"0",,,,,,,,,,,,,,,,,,,,,,,,,,,,,,,,,,,,,"MET11810/01/20 10:53:02 METAR KSEA 011853Z 00000KT 1SM R16L/4500VP6000FT BR OVC002 14/13 A3021 RMK AO2 SLP234 T01440133 (JC)","FM-15","7",,,,,,,,,,,,,,,,,,,,,,,,,,,"2007-05-17"
"72793024233","2020-10-01T11:15:00","FM-16","7",,,,,,,,,,,,,,,,,,,,,,,,,,,,,,,,,,,,,,,"30.20","57","59",,"BR:1 ||",,,"93",,"FEW:02 2 BKN:07 5","29.73","1.00","58","250",,"5",,,,,,,,,,,,,,,,,,,,,,,,,,,,,,,,,,,,,"MET11310/01/20 11:15:02 SPECI KSEA 011915Z 25004KT 1SM R16L/P6000FT BR FEW002 BKN005 15/14 A3020 RMK AO2 T01500139 (JC)","FM-16","7",,,,,,,,,,,,,,,,,,,,,,,,,,,"2007-05-17"
"72793024233","2020-10-01T11:50:00","FM-16","7",,,,,,,,,,,,,,,,,,,,,,,,,,,,,,,,,,,,,,,"30.19","57","63",,"HZ:7 |FU |HZ",,,"83",,"FEW:02 5 BKN:07 250","29.72","3.00","60","290",,"3",,,,,,,,,,,,,,,,,,,,,,,,,,,,,,,,,,,,,"MET09010/01/20 11:50:02 SPECI KSEA 011950Z 29003KT 3SM HZ FEW005 BKN250 17/14 A3019 RMK AO2 (JC)","FM-16","7",,,,,,,,,,,,,,,,,,,,,,,,,,,"2007-05-17"
"72793024233","2020-10-01T11:53:00","FM-15","7",,,,,,,,,,,,,,,,,,,,,,,,,,,,,,,,,,,,,,,"30.19","57","63","0.00","HZ:7 FU:3 |HZ FU |FU HZ",,,"81","30.21","FEW:02 5 BKN:07 250","29.72","3.00","60","290",,"5",,,,,,,,,,,,,,,,,,,,,,,,,,,,,,,,,,,,,"MET11010/01/20 11:53:02 METAR KSEA 011953Z 29004KT 3SM HZ FU FEW005 BKN250 17/14 A3019 RMK AO2 SLP229 T01720139 (JC)","FM-15","7",,,,,,,,,,,,,,,,,,,,,,,,,,,"2007-05-17"
"72793024233","2020-10-01T12:53:00","FM-15","7",,,,,,,,,,,,,,,,,,,,,,,,,,,,,,,,,,,,,,,"30.17","57","64","0.00","HZ:7 FU:3 |HZ FU |FU HZ","+0.04","8","78","30.19","FEW:02 2 BKN:07 250","29.70","4.00","60","270",,"6",,,,,,,,,,,,,,,,,,,,,,,,,,,,,,,,,,,,,"MET11610/01/20 12:53:02 METAR KSEA 012053Z 27005KT 4SM HZ FU FEW002 BKN250 18/14 A3017 RMK AO2 SLP222 T01780139 58014 (JC)","FM-15","7",,,,,,,,,,,,,,,,,,,,,,,,,,,"2007-05-17"
"72793024233","2020-10-01T13:53:00","FM-15","7",,,,,,,,,,,,,,,,,,,,,,,,,,,,,,,,,,,,,,,"30.16","58","68","0.00",,,,"70","30.17","BKN:07 250","29.69","7.00","62","290",,"6",,,,,,,,,,,,,,,,,,,,,,,,,,,,,,,,,,,,,"MET09710/01/20 13:53:02 METAR KSEA 012153Z 29005KT 7SM BKN250 20/14 A3016 RMK AO2 SLP218 T02000144 (RS)","FM-15","7",,,,,,,,,,,,,,,,,,,,,,,,,,,"2007-05-17"
"72793024233","2020-10-01T14:53:00","FM-15","7",,,,,,,,,,,,,,,,,,,,,,,,,,,,,,,,,,,,,,,"30.15","58","70","0.00",,,,"66","30.16","BKN:07 250","29.68","7.00","63","000",,"0",,,,,,,,,,,,,,,,,,,,,,,,,,,,,,,,,,,,,"MET09710/01/20 14:53:02 METAR KSEA 012253Z 00000KT 7SM BKN250 21/14 A3015 RMK AO2 SLP214 T02110144 (RS)","FM-15","7",,,,,,,,,,,,,,,,,,,,,,,,,,,"2007-05-17"
"72793024233","2020-10-01T15:53:00","FM-15","7",,,,,,,,,,,,,,,,,,,,,,,,,,,,,,,,,,,,,,,"30.13","58","72","0.00",,"+0.04","8","61","30.14","BKN:07 250","29.66","10.00","64","340",,"6",,,,,,,,,,,,,,,,,,,,,,,,,,,,,,,,,,,,,"MET11610/01/20 15:53:02 METAR KSEA 012353Z 34005KT 10SM BKN250 22/14 A3013 RMK AO2 SLP208 T02220144 10222 20139 58013 (RS)","FM-15","7",,,,,,,,,,,,,,,,,,,,,,,,,,,"2007-05-17"
"72793024233","2020-10-01T16:00:00","FM-12","4",,,,,,,,,,,,,,,,,,,,,,,,,,,,,,,,,,,,,,,,"58","72",,,"+0.04","8","61","30.14",,"29.65","9.94","64","340",,"6",,,,,,,,,,,,,,,,,,,,,,,,,,,,,,,,,,,,,"SYN08072793 32966 63405 10222 20144 30039 40208 58013 92353 333 10222 20122 555 90200=","FM-12","4",,,,,,,,,,,,,,,,,,,,,,,,,,,"2007-05-17"
"72793024233","2020-10-01T16:53:00","FM-15","7",,,,,,,,,,,,,,,,,,,,,,,,,,,,,,,,,,,,,,,"30.13","56","68","0.00",,,,"65","30.14","BKN:07 250","29.66","10.00","61","280",,"6",,,,,,,,,,,,,,,,,,,,,,,,,,,,,,,,,,,,,"MET09310/01/20 16:53:01 METAR KSEA 020053Z 28005KT 10SM BKN250 20/13 A3013 RMK AO2 SLP208 T02000133","FM-15","7",,,,,,,,,,,,,,,,,,,,,,,,,,,"2007-05-17"
"72793024233","2020-10-01T17:53:00","FM-15","7",,,,,,,,,,,,,,,,,,,,,,,,,,,,,,,,,,,,,,,"30.13","56","65","0.00",,,,"73","30.14","BKN:07 250","29.66","10.00","60","000",,"0",,,,,,,,,,,,,,,,,,,,,,,,,,,,,,,,,,,,,"MET09310/01/20 17:53:01 METAR KSEA 020153Z 00000KT 10SM BKN250 18/13 A3013 RMK AO2 SLP207 T01830133","FM-15","7",,,,,,,,,,,,,,,,,,,,,,,,,,,"2007-05-17"
"72793024233","2020-10-01T18:53:00","FM-15","7",,,,,,,,,,,,,,,,,,,,,,,,,,,,,,,,,,,,,,,"30.13","55","63","0.00",,"+0.00","5","75","30.14","BKN:07 250","29.66","10.00","58","360",,"5",,,,,,,,,,,,,,,,,,,,,,,,,,,,,,,,,,,,,"MET09910/01/20 18:53:01 METAR KSEA 020253Z 36004KT 10SM BKN250 17/13 A3013 RMK AO2 SLP208 T01720128 55001","FM-15","7",,,,,,,,,,,,,,,,,,,,,,,,,,,"2007-05-17"
"72793024233","2020-10-01T19:53:00","FM-15","7",,,,,,,,,,,,,,,,,,,,,,,,,,,,,,,,,,,,,,,"30.13","55","61","0.00",,,,"81","30.14","SCT:04 250","29.66","10.00","58","350",,"7",,,,,,,,,,,,,,,,,,,,,,,,,,,,,,,,,,,,,"MET09310/01/20 19:53:02 METAR KSEA 020353Z 35006KT 10SM SCT250 16/13 A3013 RMK AO2 SLP208 T01610128","FM-15","7",,,,,,,,,,,,,,,,,,,,,,,,,,,"2007-05-17"
"72793024233","2020-10-01T20:53:00","FM-15","7",,,,,,,,,,,,,,,,,,,,,,,,,,,,,,,,,,,,,,,"30.13","55","61","0.00",,,,"81","30.15","FEW:02 250","29.66","10.00","58","350",,"6",,,,,,,,,,,,,,,,,,,,,,,,,,,,,,,,,,,,,"MET09310/01/20 20:53:02 METAR KSEA 020453Z 35005KT 10SM FEW250 16/13 A3013 RMK AO2 SLP209 T01610128","FM-15","7",,,,,,,,,,,,,,,,,,,,,,,,,,,"2007-05-17"
"72793024233","2020-10-01T21:53:00","FM-15","7",,,,,,,,,,,,,,,,,,,,,,,,,,,,,,,,,,,,,,,"30.14","55","60","0.00",,"-0.01","3","84","30.15","SCT:04 250","29.67","10.00","57","360",,"6",,,,,,,,,,,,,,,,,,,,,,,,,,,,,,,,,,,,,"MET11110/01/20 21:53:02 METAR KSEA 020553Z 36005KT 10SM SCT250 16/13 A3014 RMK AO2 SLP210 T01560128 10222 20156 53002","FM-15","7",,,,,,,,,,,,,,,,,,,,,,,,,,,"2007-05-17"
"72793024233","2020-10-01T22:00:00","FM-12","4",,,,,,,,,,,,,,,,,,,,,,,,,,,,,,,,,,,,,,,,"55","60",,,"-0.01","3","84","30.15",,"29.66","9.94","57","360",,"6",,,,,,,,,,,,,,,,,,,,,,,,,,,,,,,,,,,,,"SYN08072793 32966 43605 10156 20128 30043 40210 53002 90553 333 10222 20122 555 90206=","FM-12","4",,,,,,,,,,,,,,,,,,,,,,,,,,,"2007-05-17"
"72793024233","2020-10-01T22:53:00","FM-15","7",,,,,,,,,,,,,,,,,,,,,,,,,,,,,,,,,,,,,,,"30.14","56","61","0.00",,,,"84","30.15","SCT:04 250","29.67","10.00","58","030",,"6",,,,,,,,,,,,,,,,,,,,,,,,,,,,,,,,,,,,,"MET09310/01/20 22:53:02 METAR KSEA 020653Z 03005KT 10SM SCT250 16/13 A3014 RMK AO2 SLP211 T01610133","FM-15","7",,,,,,,,,,,,,,,,,,,,,,,,,,,"2007-05-17"
"72793024233","2020-10-01T23:53:00","FM-15","7",,,,,,,,,,,,,,,,,,,,,,,,,,,,,,,,,,,,,,,"30.13","55","58","0.00",,,,"90","30.15","SCT:04 250","29.66","9.00","56","320",,"5",,,,,,,,,,,,,,,,,,,,,,,,,,,,,,,,,,,,,"MET10210/01/20 23:53:02 METAR KSEA 020753Z 32004KT 9SM SCT250 14/13 A3013 RMK AO2 SLP209 T01440128 402220122","FM-15","7",,,,,,,,,,,,,,,,,,,,,,,,,,,"2007-05-17"
"72793024233","2020-10-01T23:59:00","SOD  ","6",,,,,,,,,,,,,,,,,"56","63","85","30.18","29.70","58","3.6","0","5.9","2","72","54","280","12","0.00","0","0.0","350","8","FG BR HZ",,,,,,,,,,,,,,,,,,,,,,,,,,,,,,,,,,,,,,,,,,,,,,,,,,,,,,,"SOD75824 HR PRECIPITATION (IN): 0.00 SNOW DEPTH (IN):0     24 HR SNOWFALL (IN):0.0  WEATHER(CODE):128  24 HR MAX TEMP (F): 7224 HR MIN TEMP (F): 54AVERAGE STATION PRESSURE:29.695 MINIMUM SEA LEVEL PRESSURE:30.14 TIME OF OCCURRENCE:2015 PEAK WIND SPEED (MPH): 12 PEAK WIND DIR (DEG):280 PEAK WIND TIME (LST):      FASTEST 2MIN SPEED (MPH):  8FASTEST 2MIN DIR (DEG):350 FASTEST 2MIN TIME (LST):     AVERAGE WIND SPEED (MPH): 3.6 24 HR AVG TEMP (F): 63DEPART FROM NORMAL:  6  HEATING DEGREE DAYS:  2 COOLING DEGREE DAYS:  0 LATEST DAY MAX TEMP (0700-1900 LST):72  LATEST NIGHT MIN TEMP(1900-0800 LST):54 HOURLY INCREMENTAL PRECIPITATION VALUES (IN):.00 0.00 0.00 0.00 0.00 0.00 0.00 0.00 0.00 0.00 0.00 0.00 0.00 0.00 0.00 0.00 0.00 0.00 0.00 0.00 0.00 0.00 0.00 0.00","SOD  ","6",,,,,,,,,,,,,,,,,,,,,,,,,"0609","1747","2007-05-17"
"72793024233","2020-10-02T00:53:00","FM-15","7",,,,,,,,,,,,,,,,,,,,,,,,,,,,,,,,,,,,,,,"30.13","54","56","0.00",,"+0.00","8","93","30.15","FEW:02 250","29.66","8.00","55","000",,"0",,,,,,,,,,,,,,,,,,,,,,,,,,,,,,,,,,,,,"MET10310/02/20 00:53:02 METAR KSEA 020853Z 00000KT 8SM FEW250 13/12 A3013 RMK AO2 SLP209 T01330122 58001 (TL)","FM-15","7",,,,,,,,,,,,,,,,,,,,,,,,,,,"2007-05-17"
"72793024233","2020-10-02T01:53:00","FM-15","7",,,,,,,,,,,,,,,,,,,,,,,,,,,,,,,,,,,,,,,"30.13","55","57","0.00",,,,"93","30.14","FEW:02 250","29.66","8.00","56","020",,"3",,,,,,,,,,,,,,,,,,,,,,,,,,,,,,,,,,,,,"MET09710/02/20 01:53:02 METAR KSEA 020953Z 02003KT 8SM FEW250 14/13 A3013 RMK AO2 SLP208 T01390128 (TL)","FM-15","7",,,,,,,,,,,,,,,,,,,,,,,,,,,"2007-05-17"
"72793024233","2020-10-02T02:32:00","FM-16","7",,,,,,,,,,,,,,,,,,,,,,,,,,,,,,,,,,,,,,,"30.13","54","56",,"BC:3 FG:2 |FG |",,,"93",,"SCT:04 1","29.66","5.00","55","350",,"3",,,,,,,,,,,,,,,,,,,,,,,,,,,,,,,,,,,,,"MET09510/02/20 02:32:02 SPECI KSEA 021032Z 35003KT 5SM BCFG SCT001 13/12 A3013 RMK AO2 T01330122 (TL)","FM-16","7",,,,,,,,,,,,,,,,,,,,,,,,,,,"2007-05-17"
"72793024233","2020-10-02T02:40:00","FM-16","7",,,,,,,,,,,,,,,,,,,,,,,,,,,,,,,,,,,,,,,"30.13","54","56",,"FG:2 |FG |",,,"93",,"BKN:07 1","29.66","0.50","55","340",,"3",,,,,,,,,,,,,,,,,,,,,,,,,,,,,,,,,,,,,"MET12510/02/20 02:40:02 SPECI KSEA 021040Z 34003KT 1/2SM R16L/2800VP6000FT FG BKN001 13/12 A3013 RMK AO2 TWR VIS 4 T01330122 $ (TL)","FM-16","7",,,,,,,,,,,,,,,,,,,,,,,,,,,"2007-05-17"
"72793024233","2020-10-02T02:51:00","FM-16","7",,,,,,,,,,,,,,,,,,,,,,,,,,,,,,,,,,,,,,,"30.13","54","55",,"BC:3 FG:2 |FG |",,,"94",,"FEW:02 1","29.66","4.00","54","010",,"3",,,,,,,,,,,,,,,,,,,,,,,,,,,,,,,,,,,,,"MET10510/02/20 02:51:02 SPECI KSEA 021051Z 01003KT 4SM R16L/1800VP6000FT BCFG FEW001 13/12 A3013 RMK AO2 $ (TL)","FM-16","7",,,,,,,,,,,,,,,,,,,,,,,,,,,"2007-05-17"
"72793024233","2020-10-02T02:53:00","FM-15","7",,,,,,,,,,,,,,,,,,,,,,,,,,,,,,,,,,,,,,,"30.13","54","56","0.00","BC:3 FG:2 |FG |",,,"93","30.14","FEW:02 1","29.66","4.00","55","000",,"0",,,,,,,,,,,,,,,,,,,,,,,,,,,,,,,,,,,,,"MET12210/02/20 02:53:02 METAR KSEA 021053Z 00000KT 4SM R16L/2000VP6000FT BCFG FEW001 13/12 A3013 RMK AO2 SLP208 T01330122 $ (TL)","FM-15","7",,,,,,,,,,,,,,,,,,,,,,,,,,,"2007-05-17"
"72793024233","2020-10-02T03:08:00","FM-16","7",,,,,,,,,,,,,,,,,,,,,,,,,,,,,,,,,,,,,,,"30.13","53","54",,"FG:2 |FG |",,,"97",,"BKN:07 1","29.66","0.50","53","010",,"5",,,,,,,,,,,,,,,,,,,,,,,,,,,,,,,,,,,,,"MET12910/02/20 03:08:02 SPECI KSEA 021108Z 01004KT 1/2SM R16L/2400VP6000FT FG BKN001 12/12 A3013 RMK AO2 TWR VIS 1 1/2 T01220117 $ (TL)","FM-16","7",,,,,,,,,,,,,,,,,,,,,,,,,,,"2007-05-17"
"72793024233","2020-10-02T03:50:00","FM-16","7",,,,,,,,,,,,,,,,,,,,,,,,,,,,,,,,,,,,,,,"30.13","55","57",,"FG:2 |FG |",,,"94",,"VV:09 1","29.66","0.25","56","020",,"5",,,,,,,,,,,,,,,,,,,,,,,,,,,,,,,,,,,,,"MET10310/02/20 03:50:02 SPECI KSEA 021150Z 02004KT 1/4SM R16L/1400V1600FT FG VV001 14/13 A3013 RMK AO2 $ (TL)","FM-16","7",,,,,,,,,,,,,,,,,,,,,,,,,,,"2007-05-17"
"72793024233","2020-10-02T03:53:00","FM-15","7",,,,,,,,,,,,,,,,,,,,,,,,,,,,,,,,,,,,,,,"30.13","56","57","0.00","FG:2 |FG |","-0.00","2","96","30.14","VV:09 1","29.66","0.25","56","030",,"5",,,,,,,,,,,,,,,,,,,,,,,,,,,,,,,,,,,,,"MET13810/02/20 03:53:02 METAR KSEA 021153Z 03004KT 1/4SM R16L/1400V1800FT FG VV001 14/13 A3013 RMK AO2 SLP208 T01390133 10161 20122 52001 $ (TL)","FM-15","7",,,,,,,,,,,,,,,,,,,,,,,,,,,"2007-05-17"
"72793024233","2020-10-02T04:00:00","FM-12","4",,,,,,,,,,,,,,,,,,,,,,,,,,,,,,,,,,,,,,,,"56","57",,"||FG","-0.00","2","96","30.14","1","29.65","0.25","56","030",,"5",,,,,,,,,,,,,,,,,,,,,,,,,,,,,,,,,,,,,"SYN08672793 31004 90304 10139 20133 30039 40208 52001 741// 91153 333 10222 20122 555 90212=","FM-12","4",,,,,,,,,,,,,,,,,,,,,,,,,,,"2007-05-17"
"72793024233","2020-10-02T04:08:00","FM-16","7",,,,,,,,,,,,,,,,,,,,,,,,,,,,,,,,,,,,,,,"30.13","56","57",,"FG:2 |FG |",,,"96",,"VV:09 1","29.66","0.25","56","030",,"5",,,,,,,,,,,,,,,,,,,,,,,,,,,,,,,,,,,,,"MET11310/02/20 04:08:02 SPECI KSEA 021208Z 03004KT 1/4SM R16L/1800V2400FT FG VV001 14/13 A3013 RMK AO2 T01390133 $ (TL)","FM-16","7",,,,,,,,,,,,,,,,,,,,,,,,,,,"2007-05-17"
"72793024233","2020-10-02T04:21:00","FM-16","7",,,,,,,,,,,,,,,,,,,,,,,,,,,,,,,,,,,,,,,"30.13","56","57",,"FG:2 |FG |",,,"96",,"VV:09 1","29.66","0.25","56","020",,"6",,,,,,,,,,,,,,,,,,,,,,,,,,,,,,,,,,,,,"MET11310/02/20 04:21:02 SPECI KSEA 021221Z 02005KT 1/4SM R16L/0800V1200FT FG VV001 14/13 A3013 RMK AO2 T01390133 $ (TL)","FM-16","7",,,,,,,,,,,,,,,,,,,,,,,,,,,"2007-05-17"
"72793024233","2020-10-02T04:43:00","FM-16","7",,,,,,,,,,,,,,,,,,,,,,,,,,,,,,,,,,,,,,,"30.13","56","57",,"FG:2 |FG |",,,"96",,"VV:09 1","29.66","0.25","56","010",,"6",,,,,,,,,,,,,,,,,,,,,,,,,,,,,,,,,,,,,"MET11310/02/20 04:43:02 SPECI KSEA 021243Z 01005KT 1/4SM R16L/1400V2800FT FG VV001 14/13 A3013 RMK AO2 T01390133 $ (TL)","FM-16","7",,,,,,,,,,,,,,,,,,,,,,,,,,,"2007-05-17"
"72793024233","2020-10-02T04:53:00","FM-15","7",,,,,,,,,,,,,,,,,,,,,,,,,,,,,,,,,,,,,,,"30.13","56","57","0.00","FG:2 |FG |",,,"96","30.15","VV:09 1","29.66","0.25","56","010",,"5",,,,,,,,,,,,,,,,,,,,,,,,,,,,,,,,,,,,,"MET12010/02/20 04:53:02 METAR KSEA 021253Z 01004KT 1/4SM R16L/1400V3500FT FG VV001 14/13 A3013 RMK AO2 SLP210 T01390133 $ (LC)","FM-15","7",,,,,,,,,,,,,,,,,,,,,,,,,,,"2007-05-17"
"72793024233","2020-10-02T05:07:00","FM-16","7",,,,,,,,,,,,,,,,,,,,,,,,,,,,,,,,,,,,,,,"30.14","56","57",,"FG:2 |FG |",,,"96",,"VV:09 1","29.67","0.25","56","030",,"3",,,,,,,,,,,,,,,,,,,,,,,,,,,,,,,,,,,,,"MET12510/02/20 05:07:02 SPECI KSEA 021307Z 03003KT 1/4SM R16L/1400V1800FT FG VV001 14/13 A3014 RMK AO2 TWR VIS 1/4 T01390133 $ (LC)","FM-16","7",,,,,,,,,,,,,,,,,,,,,,,,,,,"2007-05-17"
"72793024233","2020-10-02T05:24:00","FM-16","7",,,,,,,,,,,,,,,,,,,,,,,,,,,,,,,,,,,,,,,"30.14","56","57",,"FG:2 |FG |",,,"96",,"VV:09 1","29.67","0.25","56","030",,"5",,,,,,,,,,,,,,,,,,,,,,,,,,,,,,,,,,,,,"MET12310/02/20 05:24:02 SPECI KSEA 021324Z 03004KT 1/4SM R16L/1600V3500FT FG VV001 14/13 A3014 RMK AO2 TWR VIS 1/4 T01390133 (LC)","FM-16","7",,,,,,,,,,,,,,,,,,,,,,,,,,,"2007-05-17"
"72793024233","2020-10-02T05:39:00","FM-16","7",,,,,,,,,,,,,,,,,,,,,,,,,,,,,,,,,,,,,,,"30.14","56","57",,"FG:2 |FG |",,,"96",,"VV:09 1","29.67","0.25","56","010",,"5",,,,,,,,,,,,,,,,,,,,,,,,,,,,,,,,,,,,,"MET12310/02/20 05:39:02 SPECI KSEA 021339Z 01004KT 1/4SM R16L/1000V1600FT FG VV001 14/13 A3014 RMK AO2 TWR VIS 1/4 T01390133 (LC)","FM-16","7",,,,,,,,,,,,,,,,,,,,,,,,,,,"2007-05-17"
"72793024233","2020-10-02T05:48:00","FM-16","7",,,,,,,,,,,,,,,,,,,,,,,,,,,,,,,,,,,,,,,"30.14","55","57",,"FG:2 |FG |",,,"94",,"VV:09 1","29.67","0.12","56","360",,"5",,,,,,,,,,,,,,,,,,,,,,,,,,,,,,,,,,,,,"MET11310/02/20 05:48:02 SPECI KSEA 021348Z 36004KT 1/8SM R16L/1200V2400FT FG VV001 14/13 A3014 RMK AO2 TWR VIS 1/4 (LC)","FM-16","7",,,,,,,,,,,,,,,,,,,,,,,,,,,"2007-05-17"
"72793024233","2020-10-02T05:53:00","FM-15","7",,,,,,,,,,,,,,,,,,,,,,,,,,,,,,,,,,,,,,,"30.14","56","57","0.00","FG:2 |FG |",,,"96","30.15","VV:09 1","29.67","0.12","56","350",,"5",,,,,,,,,,,,,,,,,,,,,,,,,,,,,,,,,,,,,"MET11810/02/20 05:53:02 METAR KSEA 021353Z 35004KT 1/8SM R16L/1000V2400FT FG VV001 14/13 A3014 RMK AO2 SLP211 T01390133 (LC)","FM-15","7",,,,,,,,,,,,,,,,,,,,,,,,,,,"2007-05-17"
"72793024233","2020-10-02T06:00:00","FM-16","7",,,,,,,,,,,,,,,,,,,,,,,,,,,,,,,,,,,,,,,"30.14","56","57",,"FG:2 |FG |",,,"96",,"VV:09 1","29.67","0.12","56","010",,"6",,,,,,,,,,,,,,,,,,,,,,,,,,,,,,,,,,,,,"MET11110/02/20 06:00:02 SPECI KSEA 021400Z 01005KT 1/8SM R16L/1000V1200FT FG VV001 14/13 A3014 RMK AO2 T01390133 (LC)","FM-16","7",,,,,,,,,,,,,,,,,,,,,,,,,,,"2007-05-17"
"72793024233","2020-10-02T06:53:00","FM-15","7",,,,,,,,,,,,,,,,,,,,,,,,,,,,,,,,,,,,,,,"30.14","56","57","0.00","FG:2 |FG |","-0.01","3","96","30.16","VV:09 1","29.67","0.12","56","000",,"0",,,,,,,,,,,,,,,,,,,,,,,,,,,,,,,,,,,,,"MET12410/02/20 06:53:02 METAR KSEA 021453Z 00000KT 1/8SM R16L/0600V0800FT FG VV001 14/13 A3014 RMK AO2 SLP212 T01390133 53003 (LC)","FM-15","7",,,,,,,,,,,,,,,,,,,,,,,,,,,"2007-05-17"
"72793024233","2020-10-02T07:53:00","FM-15","7",,,,,,,,,,,,,,,,,,,,,,,,,,,,,,,,,,,,,,,"30.15","57","58","0.00","FG:2 |FG |",,,"97","30.16","VV:09 1","29.68","0.12","57","360",,"3",,,,,,,,,,,,,,,,,,,,,,,,,,,,,,,,,,,,,"MET11810/02/20 07:53:02 METAR KSEA 021553Z 36003KT 1/8SM R16L/0800V2000FT FG VV001 14/14 A3015 RMK AO2 SLP214 T01440139 (LC)","FM-15","7",,,,,,,,,,,,,,,,,,,,,,,,,,,"2007-05-17"
"72793024233","2020-10-02T08:25:00","FM-16","7",,,,,,,,,,,,,,,,,,,,,,,,,,,,,,,,,,,,,,,"30.15","58","58",,"FG:2 |FG |",,,"100",,"VV:09 1","29.68","0.12","58","VRB",,"3",,,,,,,,,,,,,,,,,,,,,,,,,,,,,,,,,,,,,"MET11110/02/20 08:25:02 SPECI KSEA 021625Z VRB03KT 1/8SM R16L/1200V2400FT FG VV001 14/14 A3015 RMK AO2 T01440144 (LC)","FM-16","7",,,,,,,,,,,,,,,,,,,,,,,,,,,"2007-05-17"
"72793024233","2020-10-02T08:35:00","FM-16","7",,,,,,,,,,,,,,,,,,,,,,,,,,,,,,,,,,,,,,,"30.15","57","58",,"FG:2 |FG |",,,"97",,"VV:09 1","29.68","0.12","57","350",,"3",,,,,,,,,,,,,,,,,,,,,,,,,,,,,,,,,,,,,"MET11110/02/20 08:35:02 SPECI KSEA 021635Z 35003KT 1/8SM R16L/1000V1400FT FG VV001 14/14 A3015 RMK AO2 T01440139 (LC)","FM-16","7",,,,,,,,,,,,,,,,,,,,,,,,,,,"2007-05-17"
"72793024233","2020-10-02T08:51:00","FM-16","6",,,,,,,,,,,,,,,,,,,,,,,,,,,,,,,,,,,,,,,"30.15","57","57",,"FG:2 |FG |",,,"100",,"VV:09 1","29.68","0.12","57","310",,"3",,,,,,,,,,,,,,,,,,,,,,,,,,,,,,,,,,,,,"MET11810/02/20 08:51:02 SPECI KSEA 021651Z 31003KT 1/8SM R16L/1000V3000FT FG VV001 14/14 A3015 RMK AO2 SFC VIS 1/4 FIBI (LC)","FM-16","6",,,,,,,,,,,,,,,,,,,,,,,,,,,"2007-05-17"
"72793024233","2020-10-02T08:53:00","FM-15","7",,,,,,,,,,,,,,,,,,,,,,,,,,,,,,,,,,,,,,,"30.15","58","58","0.00","FG:2 |FG |",,,"100","30.16","VV:09 1","29.68","0.12","58","330",,"3",,,,,,,,,,,,,,,,,,,,,,,,,,,,,,,,,,,,,"MET13010/02/20 08:53:02 METAR KSEA 021653Z 33003KT 1/8SM R16L/1200V3000FT FG VV001 14/14 A3015 RMK AO2 SFC VIS 1/4 SLP215 T01440144 (LC)","FM-15","7",,,,,,,,,,,,,,,,,,,,,,,,,,,"2007-05-17"
"72793024233","2020-10-02T09:47:00","FM-16","7",,,,,,,,,,,,,,,,,,,,,,,,,,,,,,,,,,,,,,,"30.15","57","59",,"FG:2 |FG |",,,"94",,"OVC:08 1","29.68","0.25","58","280",,"3",,,,,,,,,,,,,,,,,,,,,,,,,,,,,,,,,,,,,"MET11510/02/20 09:47:02 SPECI KSEA 021747Z 28003KT 1/4SM R16L/3500VP6000FT FG OVC001 15/14 A3015 RMK AO2 SFC VIS 1/2 (LC)","FM-16","7",,,,,,,,,,,,,,,,,,,,,,,,,,,"2007-05-17"
"72793024233","2020-10-02T09:53:00","FM-15","7",,,,,,,,,,,,,,,,,,,,,,,,,,,,,,,,,,,,,,,"30.15","57","59","0.00","FG:2 |FG |","-0.01","1","93","30.17","OVC:08 1","29.68","0.25","58","000",,"0",,,,,,,,,,,,,,,,,,,,,,,,,,,,,,,,,,,,,"MET15010/02/20 09:53:02 METAR KSEA 021753Z 00000KT 1/4SM R16L/3500VP6000FT FG OVC001 15/14 A3015 RMK AO2 SFC VIS 1/2 SLP216 T01500139 10156 20133 51002 (LC)","FM-15","7",,,,,,,,,,,,,,,,,,,,,,,,,,,"2007-05-17"
"72793024233","2020-10-02T10:00:00","FM-12","4",,,,,,,,,,,,,,,,,,,,,,,,,,,,,,,,,,,,,,,,"57","59",,"||FG","-0.01","1","93","30.17","1","29.67","0.25","58","000",,"0",,,,,,,,,,,,,,,,,,,,,,,,,,,,,,,,,,,,,"SYN08672793 31004 80000 10150 20139 30046 40216 51002 741// 91753 333 10161 20133 555 90218=","FM-12","4",,,,,,,,,,,,,,,,,,,,,,,,,,,"2007-05-17"
"72793024233","2020-10-02T10:20:00","FM-16","6",,,,,,,,,,,,,,,,,,,,,,,,,,,,,,,,,,,,,,,"30.16","58","59",,"BR:1 ||",,,"96",,"OVC:08 2","29.69","1.00","58","000",,"0",,,,,,,,,,,,,,,,,,,,,,,,,,,,,,,,,,,,,"MET10610/02/20 10:20:02 SPECI KSEA 021820Z 00000KT 1SM R16L/P6000FT BR OVC002 15/14 A3016 RMK AO2 T01500144 (LC)","FM-16","6",,,,,,,,,,,,,,,,,,,,,,,,,,,"2007-05-17"
"72793024233","2020-10-02T10:53:00","FM-15","7",,,,,,,,,,,,,,,,,,,,,,,,,,,,,,,,,,,,,,,"30.15","58","62","0.00","BR:1 ||",,,"86","30.17","BKN:07 4","29.68","1.00","60","000",,"0",,,,,,,,,,,,,,,,,,,,,,,,,,,,,,,,,,,,,"MET12710/02/20 10:53:02 METAR KSEA 021853Z 00000KT 1SM R16L/P6000FT BR BKN004 17/14 A3015 RMK AO2 SFC VIS 1 1/2 SLP216 T01670144 (LC)","FM-15","7",,,,,,,,,,,,,,,,,,,,,,,,,,,"2007-05-17"
"72793024233","2020-10-02T11:00:00","FM-16","7",,,,,,,,,,,,,,,,,,,,,,,,,,,,,,,,,,,,,,,"30.15","58","63",,"HZ:7 |FU |HZ",,,"84",,"BKN:07 6","29.68","1.00","60","VRB",,"3",,,,,,,,,,,,,,,,,,,,,,,,,,,,,,,,,,,,,"MET12010/02/20 11:00:02 SPECI KSEA 021900Z VRB03KT 1SM R16L/P6000FT HZ BKN006 17/14 A3015 RMK AO2 SFC VIS 1 1/2 T01720144 (LC)","FM-16","7",,,,,,,,,,,,,,,,,,,,,,,,,,,"2007-05-17"
"72793024233","2020-10-02T11:16:00","FM-16","7",,,,,,,,,,,,,,,,,,,,,,,,,,,,,,,,,,,,,,,"30.15","58","62",,"BR:1 ||",,,"86",,"SCT:04 6","29.68","2.00","60","270",,"5",,,,,,,,,,,,,,,,,,,,,,,,,,,,,,,,,,,,,"MET10710/02/20 11:16:02 SPECI KSEA 021916Z 27004KT 2SM BR SCT006 17/14 A3015 RMK AO2 TWR VIS 2 1/2 T01670144 (LC)","FM-16","7",,,,,,,,,,,,,,,,,,,,,,,,,,,"2007-05-17"
"72793024233","2020-10-02T11:53:00","FM-15","7",,,,,,,,,,,,,,,,,,,,,,,,,,,,,,,,,,,,,,,"30.14","58","64","0.00","HZ:7 |FU |HZ",,,"81","30.16","FEW:02 7","29.67","2.00","60","VRB",,"5",,,,,,,,,,,,,,,,,,,,,,,,,,,,,,,,,,,,,"MET11410/02/20 11:53:02 METAR KSEA 021953Z VRB04KT 2SM HZ FEW007 18/14 A3014 RMK AO2 TWR VIS 2 1/2 SLP213 T01780144 (LC)","FM-15","7",,,,,,,,,,,,,,,,,,,,,,,,,,,"2007-05-17"
"72793024233","2020-10-02T12:32:00","FM-16","7",,,,,,,,,,,,,,,,,,,,,,,,,,,,,,,,,,,,,,,"30.13","58","68",,"HZ:7 |FU |HZ",,,"70",,"CLR:00","29.66","3.00","62","000",,"0",,,,,,,,,,,,,,,,,,,,,,,,,,,,,,,,,,,,,"MET09010/02/20 12:32:02 SPECI KSEA 022032Z 00000KT 3SM HZ CLR 20/14 A3013 RMK AO2 T02000144 (LC)","FM-16","7",,,,,,,,,,,,,,,,,,,,,,,,,,,"2007-05-17"
"72793024233","2020-10-02T12:53:00","FM-15","7",,,,,,,,,,,,,,,,,,,,,,,,,,,,,,,,,,,,,,,"30.13","58","67","0.00","HZ:7 |FU |HZ","+0.02","8","73","30.15","CLR:00","29.66","6.00","62","260",,"3",,,,,,,,,,,,,,,,,,,,,,,,,,,,,,,,,,,,,"MET10310/02/20 12:53:02 METAR KSEA 022053Z 26003KT 6SM HZ CLR 19/14 A3013 RMK AO2 SLP209 T01940144 58007 (LC)","FM-15","7",,,,,,,,,,,,,,,,,,,,,,,,,,,"2007-05-17"
"72793024233","2020-10-02T13:53:00","FM-15","7",,,,,,,,,,,,,,,,,,,,,,,,,,,,,,,,,,,,,,,"30.11","58","70","0.00",,,,"66","30.12","CLR:00","29.64","10.00","63","250",,"6",,,,,,,,,,,,,,,,,,,,,,,,,,,,,,,,,,,,,"MET09510/02/20 13:53:02 METAR KSEA 022153Z 25005KT 10SM CLR 21/14 A3011 RMK AO2 SLP201 T02110144 (RS)","FM-15","7",,,,,,,,,,,,,,,,,,,,,,,,,,,"2007-05-17"
"72793024233","2020-10-02T14:53:00","FM-15","7",,,,,,,,,,,,,,,,,,,,,,,,,,,,,,,,,,,,,,,"30.10","58","72","0.00",,,,"61","30.11","CLR:00","29.63","9.00","64","270",,"7",,,,,,,,,,,,,,,,,,,,,,,,,,,,,,,,,,,,,"MET09410/02/20 14:53:02 METAR KSEA 022253Z 27006KT 9SM CLR 22/14 A3010 RMK AO2 SLP198 T02220144 (RS)","FM-15","7",,,,,,,,,,,,,,,,,,,,,,,,,,,"2007-05-17"
"72793024233","2020-10-02T15:53:00","FM-15","7",,,,,,,,,,,,,,,,,,,,,,,,,,,,,,,,,,,,,,,"30.09","58","72","0.00",,"+0.04","6","61","30.11","CLR:00","29.62","10.00","64","270",,"6",,,,,,,,,,,,,,,,,,,,,,,,,,,,,,,,,,,,,"MET11310/02/20 15:53:02 METAR KSEA 022353Z 27005KT 10SM CLR 22/14 A3009 RMK AO2 SLP195 T02220144 10228 20150 56013 (RS)","FM-15","7",,,,,,,,,,,,,,,,,,,,,,,,,,,"2007-05-17"
"72793024233","2020-10-02T16:00:00","FM-12","4",,,,,,,,,,,,,,,,,,,,,,,,,,,,,,,,,,,,,,,,"58","72",,,"+0.04","6","61","30.11",,"29.61","9.94","64","270",,"6",,,,,,,,,,,,,,,,,,,,,,,,,,,,,,,,,,,,,"SYN08072793 32966 02705 10222 20144 30026 40195 56013 92353 333 10228 20122 555 90300=","FM-12","4",,,,,,,,,,,,,,,,,,,,,,,,,,,"2007-05-17"
"72793024233","2020-10-02T16:53:00","FM-15","7",,,,,,,,,,,,,,,,,,,,,,,,,,,,,,,,,,,,,,,"30.09","58","71","0.00",,,,"63","30.10","CLR:00","29.62","10.00","63","290",,"6",,,,,,,,,,,,,,,,,,,,,,,,,,,,,,,,,,,,,"MET09010/02/20 16:53:01 METAR KSEA 030053Z 29005KT 10SM CLR 22/14 A3009 RMK AO2 SLP193 T02170144","FM-15","7",,,,,,,,,,,,,,,,,,,,,,,,,,,"2007-05-17"
"72793024233","2020-10-02T17:53:00","FM-15","7",,,,,,,,,,,,,,,,,,,,,,,,,,,,,,,,,,,,,,,"30.08","55","67","0.00",,,,"66","30.10","CLR:00","29.61","10.00","60","000",,"0",,,,,,,,,,,,,,,,,,,,,,,,,,,,,,,,,,,,,"MET09010/02/20 17:53:01 METAR KSEA 030153Z 00000KT 10SM CLR 19/13 A3008 RMK AO2 SLP193 T01940128","FM-15","7",,,,,,,,,,,,,,,,,,,,,,,,,,,"2007-05-17"
"72793024233","2020-10-02T18:53:00","FM-15","7",,,,,,,,,,,,,,,,,,,,,,,,,,,,,,,,,,,,,,,"30.09","55","66","0.00",,"+0.01","5","68","30.10","CLR:00","29.62","10.00","60","330",,"3",,,,,,,,,,,,,,,,,,,,,,,,,,,,,,,,,,,,,"MET09610/02/20 18:53:01 METAR KSEA 030253Z 33003KT 10SM CLR 19/13 A3009 RMK AO2 SLP193 T01890128 55003","FM-15","7",,,,,,,,,,,,,,,,,,,,,,,,,,,"2007-05-17"
"72793024233","2020-10-02T19:53:00","FM-15","7",,,,,,,,,,,,,,,,,,,,,,,,,,,,,,,,,,,,,,,"30.09","55","64","0.00",,,,"73","30.10","CLR:00","29.62","10.00","59","360",,"5",,,,,,,,,,,,,,,,,,,,,,,,,,,,,,,,,,,,,"MET09210/02/20 19:53:02 METAR KSEA 030353Z 36004KT 10SM CLR 18/13 A3009 RMK AO2 SLP194 T01780128 $","FM-15","7",,,,,,,,,,,,,,,,,,,,,,,,,,,"2007-05-17"
"72793024233","2020-10-02T20:53:00","FM-15","7",,,,,,,,,,,,,,,,,,,,,,,,,,,,,,,,,,,,,,,"30.09","56","62","0.00",,,,"80","30.11","CLR:00","29.62","10.00","59","000",,"0",,,,,,,,,,,,,,,,,,,,,,,,,,,,,,,,,,,,,"MET09210/02/20 20:53:02 METAR KSEA 030453Z 00000KT 10SM CLR 17/13 A3009 RMK AO2 SLP195 T01670133 $","FM-15","7",,,,,,,,,,,,,,,,,,,,,,,,,,,"2007-05-17"
"72793024233","2020-10-02T21:53:00","FM-15","7",,,,,,,,,,,,,,,,,,,,,,,,,,,,,,,,,,,,,,,"30.09","56","59","0.00",,"-0.01","3","90","30.11","CLR:00","29.62","10.00","57","000",,"0",,,,,,,,,,,,,,,,,,,,,,,,,,,,,,,,,,,,,"MET09810/02/20 21:53:02 METAR KSEA 030553Z 00000KT 10SM CLR 15/13 A3009 RMK AO2 SLP196 T01500133 53002 $","FM-15","7",,,,,,,,,,,,,,,,,,,,,,,,,,,"2007-05-17"
"72793024233","2020-10-02T22:00:00","FM-12","4",,,,,,,,,,,,,,,,,,,,,,,,,,,,,,,,,,,,,,,,"56","59",,,"-0.01","3","90","30.11",,"29.61","9.94","57","000",,"0",,,,,,,,,,,,,,,,,,,,,,,,,,,,,,,,,,,,,"SYN06472793 32966 00000 10150 20133 30026 40196 53002 90553 555 90306=","FM-12","4",,,,,,,,,,,,,,,,,,,,,,,,,,,"2007-05-17"
"72793024233","2020-10-02T22:53:00","FM-15","7",,,,,,,,,,,,,,,,,,,,,,,,,,,,,,,,,,,,,,,"30.10","56","58","0.00",,,,"93","30.11","CLR:00","29.63","9.00","57","000",,"0",,,,,,,,,,,,,,,,,,,,,,,,,,,,,,,,,,,,,"MET09110/02/20 22:53:02 METAR KSEA 030653Z 00000KT 9SM CLR 14/13 A3010 RMK AO2 SLP198 T01440133 $","FM-15","7",,,,,,,,,,,,,,,,,,,,,,,,,,,"2007-05-17"
"72793024233","2020-10-02T23:53:00","FM-15","7",,,,,,,,,,,,,,,,,,,,,,,,,,,,,,,,,,,,,,,"30.11","56","58","0.00",,,,"93","30.12","CLR:00","29.64","10.00","57","000",,"0",,,,,,,,,,,,,,,,,,,,,,,,,,,,,,,,,,,,,"MET10210/02/20 23:53:02 METAR KSEA 030753Z 00000KT 10SM CLR 14/13 A3011 RMK AO2 SLP200 T01440133 402280122 $","FM-15","7",,,,,,,,,,,,,,,,,,,,,,,,,,,"2007-05-17"
"72793024233","2020-10-02T23:59:00","SOD  ","6",,,,,,,,,,,,,,,,,"56","64","83","30.13","29.65","59","2.7","0","7.2","1","73","54","300","10","0.00","0","0.0","290","8","FG BR HZ",,,,,,,,,,,,,,,,,,,,,,,,,,,,,,,,,,,,,,,,,,,,,,,,,,,,,,,"SOD75824 HR PRECIPITATION (IN): 0.00 SNOW DEPTH (IN):0     24 HR SNOWFALL (IN):0.0  WEATHER(CODE):128  24 HR MAX TEMP (F): 7324 HR MIN TEMP (F): 54AVERAGE STATION PRESSURE:29.645 MINIMUM SEA LEVEL PRESSURE:30.10 TIME OF OCCURRENCE:2005 PEAK WIND SPEED (MPH): 10 PEAK WIND DIR (DEG):300 PEAK WIND TIME (LST):      FASTEST 2MIN SPEED (MPH):  8FASTEST 2MIN DIR (DEG):290 FASTEST 2MIN TIME (LST):     AVERAGE WIND SPEED (MPH): 2.7 24 HR AVG TEMP (F): 64DEPART FROM NORMAL:  7  HEATING DEGREE DAYS:  1 COOLING DEGREE DAYS:  0 LATEST DAY MAX TEMP (0700-1900 LST):73  LATEST NIGHT MIN TEMP(1900-0800 LST):54 HOURLY INCREMENTAL PRECIPITATION VALUES (IN):.00 0.00 0.00 0.00 0.00 0.00 0.00 0.00 0.00 0.00 0.00 0.00 0.00 0.00 0.00 0.00 0.00 0.00 0.00 0.00 0.00 0.00 0.00 0.00","SOD  ","6",,,,,,,,,,,,,,,,,,,,,,,,,"0611","1745","2007-05-17"
"72793024233","2020-10-03T00:53:00","FM-15","7",,,,,,,,,,,,,,,,,,,,,,,,,,,,,,,,,,,,,,,"30.11","56","58","0.00",,"-0.01","1","93","30.12","CLR:00","29.64","9.00","57","000",,"0",,,,,,,,,,,,,,,,,,,,,,,,,,,,,,,,,,,,,"MET10210/03/20 00:53:02 METAR KSEA 030853Z 00000KT 9SM CLR 14/13 A3011 RMK AO2 SLP200 T01440133 51004 $ (MR)","FM-15","7",,,,,,,,,,,,,,,,,,,,,,,,,,,"2007-05-17"
"72793024233","2020-10-03T01:53:00","FM-15","7",,,,,,,,,,,,,,,,,,,,,,,,,,,,,,,,,,,,,,,"30.10","54","56","0.00","BR:1 ||",,,"93","30.12","CLR:00","29.63","6.00","55","170",,"3",,,,,,,,,,,,,,,,,,,,,,,,,,,,,,,,,,,,,"MET10910/03/20 01:53:02 METAR KSEA 030953Z 17003KT 6SM BR CLR 13/12 A3010 RMK AO2 SLP199 FG BANK S T01330122 $ (MR)","FM-15","7",,,,,,,,,,,,,,,,,,,,,,,,,,,"2007-05-17"
"72793024233","2020-10-03T02:06:00","FM-16","7",,,,,,,,,,,,,,,,,,,,,,,,,,,,,,,,,,,,,,,"30.10","54","56",,"BR:1 ||",,,"93",,"BKN:07 3","29.63","1.50","55","170",,"6",,,,,,,,,,,,,,,,,,,,,,,,,,,,,,,,,,,,,"MET09910/03/20 02:06:02 SPECI KSEA 031006Z 17005KT 1 1/2SM BR BKN003 13/12 A3010 RMK AO2 T01330122 $ (MR)","FM-16","7",,,,,,,,,,,,,,,,,,,,,,,,,,,"2007-05-17"
"72793024233","2020-10-03T02:13:00","FM-16","7",,,,,,,,,,,,,,,,,,,,,,,,,,,,,,,,,,,,,,,"30.10","56","57",,"BR:1 |s |",,,"96",,"VV:09 1","29.63","0.50","56","180",,"6",,,,,,,,,,,,,,,,,,,,,,,,,,,,,,,,,,,,,"MET11410/03/20 02:13:02 SPECI KSEA 031013Z 18005KT 1/2SM R16L/1800VP6000FT BR VV001 14/13 A3010 RMK AO2 T01390133 $ (MR)","FM-16","7",,,,,,,,,,,,,,,,,,,,,,,,,,,"2007-05-17"
"72793024233","2020-10-03T02:16:00","FM-16","7",,,,,,,,,,,,,,,,,,,,,,,,,,,,,,,,,,,,,,,"30.10","56","57",,"FG:2 |FG |",,,"96",,"VV:09 1","29.63","0.12","56","180",,"6",,,,,,,,,,,,,,,,,,,,,,,,,,,,,,,,,,,,,"MET11410/03/20 02:16:02 SPECI KSEA 031016Z 18005KT 1/8SM R16L/1000VP6000FT FG VV001 14/13 A3010 RMK AO2 T01390133 $ (MR)","FM-16","7",,,,,,,,,,,,,,,,,,,,,,,,,,,"2007-05-17"
"72793024233","2020-10-03T02:28:00","FM-16","7",,,,,,,,,,,,,,,,,,,,,,,,,,,,,,,,,,,,,,,"30.10","56","57",,"FG:2 |FG |",,,"96",,"VV:09 1","29.63","0.12","56","180",,"6",,,,,,,,,,,,,,,,,,,,,,,,,,,,,,,,,,,,,"MET10810/03/20 02:28:02 SPECI KSEA 031028Z 18005KT 1/8SM R16L/0800FT FG VV001 14/13 A3010 RMK AO2 T01390133 $ (MR)","FM-16","7",,,,,,,,,,,,,,,,,,,,,,,,,,,"2007-05-17"
"72793024233","2020-10-03T02:53:00","FM-15","7",,,,,,,,,,,,,,,,,,,,,,,,,,,,,,,,,,,,,,,"30.10","54","54","0.00","FG:2 |FG |",,,"100","30.12","VV:09 1","29.63","0.00","54","000",,"0",,,,,,,,,,,,,,,,,,,,,,,,,,,,,,,,,,,,,"MET12110/03/20 02:53:02 METAR KSEA 031053Z 00000KT 1/16SM R16L/0600V0800FT FG VV001 12/12 A3010 RMK AO2 SLP200 T01220122 $ (MR)","FM-15","7",,,,,,,,,,,,,,,,,,,,,,,,,,,"2007-05-17"
"72793024233","2020-10-03T03:53:00","FM-15","7",,,,,,,,,,,,,,,,,,,,,,,,,,,,,,,,,,,,,,,"30.11","55","55",,"FG:2 |FG DZ |DZ","-0.00","3","100","30.12","VV:09 1","29.64","0.12","55",,,"0",,,,,,,,,,,,,,,,,,,,,,,,,,,,,,,,,,,,,"MET16410/03/20 03:53:02 METAR KSEA 031153Z 00000KT 1/8SM R16L/1000V1200FT -DZ FG VV001 13/13 A3011 RMK AO2 DZB49 SLP200 6//// 7//// T01280128 10150 20122 53001 PNO $ (MR)","FM-15","7",,,,,,,,,,,,,,,,,,,,,,,,,,,"2007-05-17"
"72793024233","2020-10-03T04:00:00","FM-12","4",,,,,,,,,,,,,,,,,,,,,,,,,,,,,,,,,,,,,,,,"55","55",,"||DZ","-0.00","3","100","30.12",,"29.63","0.12","55","000",,"0",,,,,,,,,,,,,,,,,,,,,,,,,,,,,,,,,,,,,"SYN08672793 31002 /0000 10128 20128 30033 40200 53001 751// 91153 333 10228 96041 555 90312=","FM-12","4",,,,,,,,,,,,,,,,,,,,,,,,,,,"2007-05-17"
"72793024233","2020-10-03T04:42:00","FM-16","7",,,,,,,,,,,,,,,,,,,,,,,,,,,,,,,,,,,,,,,"30.11","55","55",,"FG:2 |FG DZ |DZ",,,"100",,"VV:09 1","29.64","0.25","55","190",,"3",,,,,,,,,,,,,,,,,,,,,,,,,,,,,,,,,,,,,"MET12110/03/20 04:42:02 SPECI KSEA 031242Z 19003KT 1/4SM R16L/1200V1400FT -DZ FG VV001 13/13 A3011 RMK AO2 T01280128 PNO $ (MR)","FM-16","7",,,,,,,,,,,,,,,,,,,,,,,,,,,"2007-05-17"
"72793024233","2020-10-03T04:53:00","FM-15","7",,,,,,,,,,,,,,,,,,,,,,,,,,,,,,,,,,,,,,,"30.11","55","55",,"FG:2 |FG DZ |DZ",,,"100","30.12","VV:09 1","29.64","0.25","55","190",,"3",,,,,,,,,,,,,,,,,,,,,,,,,,,,,,,,,,,,,"MET12810/03/20 04:53:02 METAR KSEA 031253Z 19003KT 1/4SM R16L/1400V1800FT -DZ FG VV001 13/13 A3011 RMK AO2 SLP201 T01280128 PNO $ (MR)","FM-15","7",,,,,,,,,,,,,,,,,,,,,,,,,,,"2007-05-17"
"72793024233","2020-10-03T05:53:00","FM-15","7",,,,,,,,,,,,,,,,,,,,,,,,,,,,,,,,,,,,,,,"30.11","55","55",,"FG:2 |FG |",,,"100","30.13","VV:09 1","29.64","0.25","55","200",,"5",,,,,,,,,,,,,,,,,,,,,,,,,,,,,,,,,,,,,"MET13010/03/20 05:53:02 METAR KSEA 031353Z 20004KT 1/4SM R16L/1200V1800FT FG VV001 13/13 A3011 RMK AO2 DZE40 SLP202 T01280128 PNO $ (TL)","FM-15","7",,,,,,,,,,,,,,,,,,,,,,,,,,,"2007-05-17"
"72793024233","2020-10-03T06:53:00","FM-15","7",,,,,,,,,,,,,,,,,,,,,,,,,,,,,,,,,,,,,,,"30.11","54","54",,"FG:2 |FG |","-0.01","1","100","30.13","VV:09 1","29.64","0.25","54","180",,"5",,,,,,,,,,,,,,,,,,,,,,,,,,,,,,,,,,,,,"MET13610/03/20 06:53:02 METAR KSEA 031453Z 18004KT 1/4SM R16L/1000V1600FT FG VV001 12/12 A3011 RMK AO2 SLP202 6//// T01220122 51002 PNO $ (TL)","FM-15","7",,,,,,,,,,,,,,,,,,,,,,,,,,,"2007-05-17"
"72793024233","2020-10-03T07:53:00","FM-15","7",,,,,,,,,,,,,,,,,,,,,,,,,,,,,,,,,,,,,,,"30.12","54","54","0.00","FG:2 |FG |",,,"100","30.14","VV:09 1","29.65","0.12","54","190",,"5",,,,,,,,,,,,,,,,,,,,,,,,,,,,,,,,,,,,,"MET12010/03/20 07:53:02 METAR KSEA 031553Z 19004KT 1/8SM R16L/0700V0800FT FG VV001 12/12 A3012 RMK AO2 SLP205 T01220122 $ (TL)","FM-15","7",,,,,,,,,,,,,,,,,,,,,,,,,,,"2007-05-17"
"72793024233","2020-10-03T08:51:00","FM-16","6",,,,,,,,,,,,,,,,,,,,,,,,,,,,,,,,,,,,,,,"30.12","54","54",,"FG:2 |FG |",,,"100",,"VV:09 1","29.65","0.50","54","190",,"5",,,,,,,,,,,,,,,,,,,,,,,,,,,,,,,,,,,,,"MET10810/03/20 08:51:02 SPECI KSEA 031651Z 19004KT 1/2SM R16L/1200V1800FT FG VV001 12/12 A3012 RMK AO2 $ FIBI (TL)","FM-16","6",,,,,,,,,,,,,,,,,,,,,,,,,,,"2007-05-17"
"72793024233","2020-10-03T08:53:00","FM-15","7",,,,,,,,,,,,,,,,,,,,,,,,,,,,,,,,,,,,,,,"30.12","55","55","0.00","FG:2 |FG |",,,"100","30.14","VV:09 1","29.65","0.50","55","260",,"3",,,,,,,,,,,,,,,,,,,,,,,,,,,,,,,,,,,,,"MET12010/03/20 08:53:02 METAR KSEA 031653Z 26003KT 1/2SM R16L/1200V1800FT FG VV001 13/13 A3012 RMK AO2 SLP205 T01280128 $ (TL)","FM-15","7",,,,,,,,,,,,,,,,,,,,,,,,,,,"2007-05-17"
"72793024233","2020-10-03T09:53:00","FM-15","7",,,,,,,,,,,,,,,,,,,,,,,,,,,,,,,,,,,,,,,"30.11","55","55","0.00","FG:2 |FG |","-0.00","0","100","30.13","VV:09 1","29.64","0.50","55","000",,"0",,,,,,,,,,,,,,,,,,,,,,,,,,,,,,,,,,,,,"MET14410/03/20 09:53:02 METAR KSEA 031753Z 00000KT 1/2SM R16L/1000V2400FT FG VV001 13/13 A3011 RMK AO2 SLP204 6//// T01280128 10128 20122 50001 $ (TL)","FM-15","7",,,,,,,,,,,,,,,,,,,,,,,,,,,"2007-05-17"
"72793024233","2020-10-03T10:00:00","FM-12","4",,,,,,,,,,,,,,,,,,,,,,,,,,,,,,,,,,,,,,,,"55","55",,"||FG","0.00","9","100","30.13","1","29.63","0.50","55","000",,"0",,,,,,,,,,,,,,,,,,,,,,,,,,,,,,,,,,,,,"SYN08072793 31008 90000 10128 20128 30033 40204 50001 741// 91753 333 10150 555 90318=","FM-12","4",,,,,,,,,,,,,,,,,,,,,,,,,,,"2007-05-17"
"72793024233","2020-10-03T10:53:00","FM-15","7",,,,,,,,,,,,,,,,,,,,,,,,,,,,,,,,,,,,,,,"30.11","55","55","0.00","BR:1 ||",,,"100","30.13","OVC:08 1","29.64","0.75","55","270",,"5",,,,,,,,,,,,,,,,,,,,,,,,,,,,,,,,,,,,,"MET12110/03/20 10:53:02 METAR KSEA 031853Z 27004KT 3/4SM R16L/1200V5000FT BR OVC001 13/13 A3011 RMK AO2 SLP203 T01280128 $ (TL)","FM-15","7",,,,,,,,,,,,,,,,,,,,,,,,,,,"2007-05-17"
"72793024233","2020-10-03T11:04:00","FM-16","7",,,,,,,,,,,,,,,,,,,,,,,,,,,,,,,,,,,,,,,"30.11","55","55",,"BR:1 ||",,,"100",,"VV:09 1","29.64","0.75","55","270",,"5",,,,,,,,,,,,,,,,,,,,,,,,,,,,,,,,,,,,,"MET11310/03/20 11:04:02 SPECI KSEA 031904Z 27004KT 3/4SM R16L/1000V1600FT BR VV001 13/13 A3011 RMK AO2 T01280128 $ (TL)","FM-16","7",,,,,,,,,,,,,,,,,,,,,,,,,,,"2007-05-17"
"72793024233","2020-10-03T11:53:00","FM-15","7",,,,,,,,,,,,,,,,,,,,,,,,,,,,,,,,,,,,,,,"30.10","55","55","0.00","FG:2 |FG |",,,"100","30.12","VV:09 1","29.63","0.50","55","230",,"5",,,,,,,,,,,,,,,,,,,,,,,,,,,,,,,,,,,,,"MET12010/03/20 11:53:02 METAR KSEA 031953Z 23004KT 1/2SM R16L/1200V2400FT FG VV001 13/13 A3010 RMK AO2 SLP200 T01280128 $ (TL)","FM-15","7",,,,,,,,,,,,,,,,,,,,,,,,,,,"2007-05-17"
"72793024233","2020-10-03T12:53:00","FM-15","7",,,,,,,,,,,,,,,,,,,,,,,,,,,,,,,,,,,,,,,"30.09","55","55","0.00","FG:2 |FG |","+0.03","8","100","30.10","VV:09 1","29.62","0.50","55","200",,"3",,,,,,,,,,,,,,,,,,,,,,,,,,,,,,,,,,,,,"MET12710/03/20 12:53:02 METAR KSEA 032053Z 20003KT 1/2SM R16L/3500VP6000FT FG VV001 13/13 A3009 RMK AO2 SLP194 T01280128 58009 $ (JC)","FM-15","7",,,,,,,,,,,,,,,,,,,,,,,,,,,"2007-05-17"
"72793024233","2020-10-03T13:53:00","FM-15","7",,,,,,,,,,,,,,,,,,,,,,,,,,,,,,,,,,,,,,,"30.08","55","56","0.00","FG:2 |FG |",,,"97","30.10","VV:09 1","29.61","0.12","55","240",,"3",,,,,,,,,,,,,,,,,,,,,,,,,,,,,,,,,,,,,"MET13310/03/20 13:53:02 METAR KSEA 032153Z 24003KT 1/8SM R16L/3500VP6000FT FG VV001 13/13 A3008 RMK AO2 SFC VIS 1/2 SLP192 T01330128 $ (JC)","FM-15","7",,,,,,,,,,,,,,,,,,,,,,,,,,,"2007-05-17"
"72793024233","2020-10-03T14:29:00","FM-16","7",,,,,,,,,,,,,,,,,,,,,,,,,,,,,,,,,,,,,,,"30.08","55","56",,"FG:2 |FG |",,,"97",,"OVC:08 2","29.61","0.12","55","240",,"3",,,,,,,,,,,,,,,,,,,,,,,,,,,,,,,,,,,,,"MET12210/03/20 14:29:02 SPECI KSEA 032229Z 24003KT 1/8SM R16L/P6000FT FG OVC002 13/13 A3008 RMK AO2 SFC VIS 1/2 T01330128 $ (JC)","FM-16","7",,,,,,,,,,,,,,,,,,,,,,,,,,,"2007-05-17"
"72793024233","2020-10-03T14:53:00","FM-15","7",,,,,,,,,,,,,,,,,,,,,,,,,,,,,,,,,,,,,,,"30.07","56","56","0.00","BR:1 |s |",,,"100","30.09","OVC:08 2","29.60","0.50","56","000",,"0",,,,,,,,,,,,,,,,,,,,,,,,,,,,,,,,,,,,,"MET12710/03/20 14:53:02 METAR KSEA 032253Z 00000KT 1/2SM R16L/P6000FT BR OVC002 13/13 A3007 RMK AO2 SFC VIS 1 SLP190 T01330133 $ (JC)","FM-15","7",,,,,,,,,,,,,,,,,,,,,,,,,,,"2007-05-17"
"72793024233","2020-10-03T15:53:00","FM-15","7",,,,,,,,,,,,,,,,,,,,,,,,,,,,,,,,,,,,,,,"30.07","56","56","0.00","BR:1 |s |","+0.01","6","100","30.09","OVC:08 4","29.60","0.50","56","000",,"0",,,,,,,,,,,,,,,,,,,,,,,,,,,,,,,,,,,,,"MET14510/03/20 15:53:02 METAR KSEA 032353Z 00000KT 1/2SM R16L/P6000FT BR OVC004 13/13 A3007 RMK AO2 SFC VIS 1 SLP189 T01330133 10133 20128 56005 $ (JC)","FM-15","7",,,,,,,,,,,,,,,,,,,,,,,,,,,"2007-05-17"
"72793024233","2020-10-03T16:00:00","FM-12","4",,,,,,,,,,,,,,,,,,,,,,,,,,,,,,,,,,,,,,,,"56","56",,,"+0.01","6","100","30.09","5","29.59","0.50","56","000",,"0",,,,,,,,,,,,,,,,,,,,,,,,,,,,,,,,,,,,,"SYN08672793 31208 80000 10133 20133 30019 40189 56005 710// 92353 333 10133 20122 555 90400=","FM-12","4",,,,,,,,,,,,,,,,,,,,,,,,,,,"2007-05-17"
"72793024233","2020-10-03T16:48:00","FM-16","7",,,,,,,,,,,,,,,,,,,,,,,,,,,,,,,,,,,,,,,"30.07","55","55",,"FG:2 |FG |",,,"100",,"OVC:08 2","29.60","0.50","55","000",,"0",,,,,,,,,,,,,,,,,,,,,,,,,,,,,,,,,,,,,"MET09510/03/20 16:48:01 SPECI KSEA 040048Z 00000KT 1/2SM R16L/P6000FT FG OVC002 13/13 A3007 RMK AO2 $","FM-16","7",,,,,,,,,,,,,,,,,,,,,,,,,,,"2007-05-17"
"72793024233","2020-10-03T16:51:00","FM-16","6",,,,,,,,,,,,,,,,,,,,,,,,,,,,,,,,,,,,,,,"30.07","55","55",,"FG:2 |FG |",,,"100",,"OVC:08 2","29.60","0.12","55","260",,"5",,,,,,,,,,,,,,,,,,,,,,,,,,,,,,,,,,,,,"MET12210/03/20 16:51:03 SPECI KSEA 040051Z 26004KT 1/8SM R16L/5000VP6000FT FG OVC002 13/13 A3007 RMK AO2 SFC VIS 1/2 $ FIBI (JC)","FM-16","6",,,,,,,,,,,,,,,,,,,,,,,,,,,"2007-05-17"
"72793024233","2020-10-03T16:53:00","FM-15","7",,,,,,,,,,,,,,,,,,,,,,,,,,,,,,,,,,,,,,,"30.07","56","56","0.00","FG:2 |FG |",,,"100","30.09","OVC:08 2","29.60","0.12","56","260",,"5",,,,,,,,,,,,,,,,,,,,,,,,,,,,,,,,,,,,,"MET12910/03/20 16:53:01 METAR KSEA 040053Z 26004KT 1/8SM R16L/5000VP6000FT FG OVC002 13/13 A3007 RMK AO2 SFC VIS 1/2 SLP188 T01330133 $","FM-15","7",,,,,,,,,,,,,,,,,,,,,,,,,,,"2007-05-17"
"72793024233","2020-10-03T17:07:00","FM-16","7",,,,,,,,,,,,,,,,,,,,,,,,,,,,,,,,,,,,,,,"30.06","56","56",,"FG:2 |FG |",,,"100",,"OVC:08 1","29.59","0.12","56","260",,"5",,,,,,,,,,,,,,,,,,,,,,,,,,,,,,,,,,,,,"MET12110/03/20 17:07:01 SPECI KSEA 040107Z 26004KT 1/8SM R16L/2800V5500FT FG OVC001 13/13 A3006 RMK AO2 SFC VIS 1/2 T01330133 $","FM-16","7",,,,,,,,,,,,,,,,,,,,,,,,,,,"2007-05-17"
"72793024233","2020-10-03T17:24:00","FM-16","7",,,,,,,,,,,,,,,,,,,,,,,,,,,,,,,,,,,,,,,"30.06","56","56",,"FG:2 |FG |",,,"100",,"VV:09 2","29.59","0.12","56","260",,"5",,,,,,,,,,,,,,,,,,,,,,,,,,,,,,,,,,,,,"MET12110/03/20 17:24:01 SPECI KSEA 040124Z 26004KT 1/8SM R16L/2200VP6000FT FG VV002 13/13 A3006 RMK AO2 SFC VIS 1/2 T01330133 $","FM-16","7",,,,,,,,,,,,,,,,,,,,,,,,,,,"2007-05-17"
"72793024233","2020-10-03T17:42:00","FM-16","7",,,,,,,,,,,,,,,,,,,,,,,,,,,,,,,,,,,,,,,"30.07","56","56",,"FG:2 |FG |",,,"100",,"VV:09 1","29.60","0.12","56","260",,"5",,,,,,,,,,,,,,,,,,,,,,,,,,,,,,,,,,,,,"MET12010/03/20 17:42:01 SPECI KSEA 040142Z 26004KT 1/8SM R16L/1400V2600FT FG VV001 13/13 A3007 RMK AO2 SFC VIS 1/4 T01330133 $","FM-16","7",,,,,,,,,,,,,,,,,,,,,,,,,,,"2007-05-17"
"72793024233","2020-10-03T17:53:00","FM-15","7",,,,,,,,,,,,,,,,,,,,,,,,,,,,,,,,,,,,,,,"30.07","56","56","0.00","FG:2 |FG |",,,"100","30.09","VV:09 1","29.60","0.12","56","260",,"5",,,,,,,,,,,,,,,,,,,,,,,,,,,,,,,,,,,,,"MET12710/03/20 17:53:01 METAR KSEA 040153Z 26004KT 1/8SM R16L/1400V2600FT FG VV001 13/13 A3007 RMK AO2 SFC VIS 1/4 SLP188 T01330133 $","FM-15","7",,,,,,,,,,,,,,,,,,,,,,,,,,,"2007-05-17"
"72793024233","2020-10-03T17:59:00","FM-16","7",,,,,,,,,,,,,,,,,,,,,,,,,,,,,,,,,,,,,,,"30.07","55","55",,"FG:2 |FG |",,,"100",,"VV:09 1","29.60","0.12","55","000",,"0",,,,,,,,,,,,,,,,,,,,,,,,,,,,,,,,,,,,,"MET12010/03/20 17:59:01 SPECI KSEA 040159Z 00000KT 1/8SM R16L/1400V1800FT FG VV001 13/13 A3007 RMK AO2 SFC VIS 1/4 T01280128 $","FM-16","7",,,,,,,,,,,,,,,,,,,,,,,,,,,"2007-05-17"
"72793024233","2020-10-03T18:53:00","FM-15","7",,,,,,,,,,,,,,,,,,,,,,,,,,,,,,,,,,,,,,,"30.07","54","54","0.00","FG:2 |FG |","+0.00","6","100","30.08","VV:09 1","29.60","0.12","54","000",,"0",,,,,,,,,,,,,,,,,,,,,,,,,,,,,,,,,,,,,"MET13310/03/20 18:53:01 METAR KSEA 040253Z 00000KT 1/8SM R16L/1200V2000FT FG VV001 12/12 A3007 RMK AO2 SFC VIS 1/4 SLP187 T01220122 56001 $","FM-15","7",,,,,,,,,,,,,,,,,,,,,,,,,,,"2007-05-17"
"72793024233","2020-10-03T19:29:00","FM-16","7",,,,,,,,,,,,,,,,,,,,,,,,,,,,,,,,,,,,,,,"30.07","54","54",,"FG:2 |FG |",,,"100",,"VV:09 1","29.60","0.12","54","000",,"0",,,,,,,,,,,,,,,,,,,,,,,,,,,,,,,,,,,,,"MET12010/03/20 19:29:02 SPECI KSEA 040329Z 00000KT 1/8SM R16L/2000V2400FT FG VV001 12/12 A3007 RMK AO2 SFC VIS 1/4 T01220122 $","FM-16","7",,,,,,,,,,,,,,,,,,,,,,,,,,,"2007-05-17"
"72793024233","2020-10-03T19:53:00","FM-15","7",,,,,,,,,,,,,,,,,,,,,,,,,,,,,,,,,,,,,,,"30.07","54","54","0.00","FG:2 |FG |",,,"100","30.09","VV:09 1","29.60","0.12","54","250",,"3",,,,,,,,,,,,,,,,,,,,,,,,,,,,,,,,,,,,,"MET12710/03/20 19:53:02 METAR KSEA 040353Z 25003KT 1/8SM R16L/2000V3500FT FG VV001 12/12 A3007 RMK AO2 SFC VIS 1/4 SLP190 T01220122 $","FM-15","7",,,,,,,,,,,,,,,,,,,,,,,,,,,"2007-05-17"
"72793024233","2020-10-03T20:18:00","FM-16","7",,,,,,,,,,,,,,,,,,,,,,,,,,,,,,,,,,,,,,,"30.08","54","54",,"FG:2 |FG |",,,"100",,"VV:09 1","29.61","0.12","54","250",,"3",,,,,,,,,,,,,,,,,,,,,,,,,,,,,,,,,,,,,"MET12010/03/20 20:18:02 SPECI KSEA 040418Z 25003KT 1/8SM R16L/2000V2200FT FG VV001 12/12 A3008 RMK AO2 SFC VIS 1/4 T01220122 $","FM-16","7",,,,,,,,,,,,,,,,,,,,,,,,,,,"2007-05-17"
"72793024233","2020-10-03T20:30:00","FM-16","7",,,,,,,,,,,,,,,,,,,,,,,,,,,,,,,,,,,,,,,"30.08","54","54",,"FG:2 |FG |",,,"100",,"VV:09 1","29.61","0.12","54","250",,"3",,,,,,,,,,,,,,,,,,,,,,,,,,,,,,,,,,,,,"MET12010/03/20 20:30:02 SPECI KSEA 040430Z 25003KT 1/8SM R16L/2000V2600FT FG VV001 12/12 A3008 RMK AO2 SFC VIS 1/4 T01220122 $","FM-16","7",,,,,,,,,,,,,,,,,,,,,,,,,,,"2007-05-17"
"72793024233","2020-10-03T20:53:00","FM-15","7",,,,,,,,,,,,,,,,,,,,,,,,,,,,,,,,,,,,,,,"30.08","55","55","0.00","FG:2 |FG |",,,"100","30.10","VV:09 1","29.61","0.12","55","000",,"0",,,,,,,,,,,,,,,,,,,,,,,,,,,,,,,,,,,,,"MET12710/03/20 20:53:02 METAR KSEA 040453Z 00000KT 1/8SM R16L/2600V5000FT FG VV001 13/13 A3008 RMK AO2 SFC VIS 1/4 SLP193 T01280128 $","FM-15","7",,,,,,,,,,,,,,,,,,,,,,,,,,,"2007-05-17"
"72793024233","2020-10-03T21:53:00","FM-15","7",,,,,,,,,,,,,,,,,,,,,,,,,,,,,,,,,,,,,,,"30.09","54","54","0.00","FG:2 |FG |","-0.02","2","100","30.11","VV:09 1","29.62","0.12","54","180",,"3",,,,,,,,,,,,,,,,,,,,,,,,,,,,,,,,,,,,,"MET14610/03/20 21:53:02 METAR KSEA 040553Z 18003KT 1/8SM R16L/4500VP6000FT FG VV001 12/12 A3009 RMK AO2 SFC VIS 1/4 SLP196 T01220122 10133 20122 52008 $","FM-15","7",,,,,,,,,,,,,,,,,,,,,,,,,,,"2007-05-17"
"72793024233","2020-10-03T22:00:00","FM-12","4",,,,,,,,,,,,,,,,,,,,,,,,,,,,,,,,,,,,,,,,"54","54",,"||FG","-0.02","2","100","30.11","1","29.61","0.12","54","180",,"3",,,,,,,,,,,,,,,,,,,,,,,,,,,,,,,,,,,,,"SYN08672793 31002 91803 10122 20122 30026 40196 52008 741// 90553 333 10150 20122 555 90406=","FM-12","4",,,,,,,,,,,,,,,,,,,,,,,,,,,"2007-05-17"
"72793024233","2020-10-03T22:53:00","FM-15","7",,,,,,,,,,,,,,,,,,,,,,,,,,,,,,,,,,,,,,,"30.09","54","54",,"FG:2 |FG DZ |DZ",,,"100","30.11","OVC:08 1","29.62","0.12","54","250",,"3",,,,,,,,,,,,,,,,,,,,,,,,,,,,,,,,,,,,,"MET14310/03/20 22:53:02 METAR KSEA 040653Z 25003KT 1/8SM R16L/4500VP6000FT -DZ FG OVC001 12/12 A3009 RMK AO2 SFC VIS 1/2 DZB51 SLP195 T01220122 PNO $","FM-15","7",,,,,,,,,,,,,,,,,,,,,,,,,,,"2007-05-17"
"72793024233","2020-10-03T23:44:00","FM-16","7",,,,,,,,,,,,,,,,,,,,,,,,,,,,,,,,,,,,,,,"30.09","54","54",,"BR:1 ||",,,"100",,"OVC:08 3","29.62","1.00","54","000",,"0",,,,,,,,,,,,,,,,,,,,,,,,,,,,,,,,,,,,,"MET11310/03/20 23:44:02 SPECI KSEA 040744Z 00000KT 1SM R16L/P6000FT BR OVC003 12/12 A3009 RMK AO2 DZE43 T01220122 PNO $","FM-16","7",,,,,,,,,,,,,,,,,,,,,,,,,,,"2007-05-17"
"72793024233","2020-10-03T23:53:00","FM-15","7",,,,,,,,,,,,,,,,,,,,,,,,,,,,,,,,,,,,,,,"30.08","54","54",,"BR:1 ||",,,"100","30.10","OVC:08 3","29.61","1.00","54","000",,"0",,,,,,,,,,,,,,,,,,,,,,,,,,,,,,,,,,,,,"MET13010/03/20 23:53:02 METAR KSEA 040753Z 00000KT 1SM R16L/P6000FT BR OVC003 12/12 A3008 RMK AO2 DZE43 SLP194 T01220122 401440122 PNO $","FM-15","7",,,,,,,,,,,,,,,,,,,,,,,,,,,"2007-05-17"
"72793024233","2020-10-03T23:59:00","SOD  ","6",,,,,,,,,,,,,,,,,"55","56","100","30.11","29.62","55","2.5","0","-0.4","9","58","54","170","6","0.00","0","0.0","170","6","FG BR DZ",,,,,,,,,,,,,,,,,,,,,,,,,,,,,,,,,,,,,,,,,,,,,,,,,,,,,,,"SOD67524 HR PRECIPITATION (IN): 0.00 SNOW DEPTH (IN):0     24 HR SNOWFALL (IN):0.0  WEATHER(CODE):128  24 HR MAX TEMP (F): 5824 HR MIN TEMP (F): 54AVERAGE STATION PRESSURE:29.625 MINIMUM SEA LEVEL PRESSURE:30.08 TIME OF OCCURRENCE:1916 PEAK WIND SPEED (MPH):  6 PEAK WIND DIR (DEG):170 PEAK WIND TIME (LST):      FASTEST 2MIN SPEED (MPH):  6FASTEST 2MIN DIR (DEG):170 FASTEST 2MIN TIME (LST):     AVERAGE WIND SPEED (MPH): 2.5 24 HR AVG TEMP (F): 56DEPART FROM NORMAL:  0  HEATING DEGREE DAYS:  9 COOLING DEGREE DAYS:  0 HOURLY INCREMENTAL PRECIPITATION VALUES (IN):.00 0.00 0.00 M    M    M    M    0.00 0.00 0.00 0.00 0.00 0.00 0.00 0.00 0.00 0.00 0.00 0.00 0.00 0.00 0.00 M    M","SOD  ","6",,,,,,,,,,,,,,,,,,,,,,,,,"0612","1743","2007-05-17"
"72793024233","2020-10-04T00:36:00","FM-16","7",,,,,,,,,,,,,,,,,,,,,,,,,,,,,,,,,,,,,,,"30.09","54","54",,"BR:1 ||",,,"100",,"OVC:08 4","29.62","2.00","54","000",,"0",,,,,,,,,,,,,,,,,,,,,,,,,,,,,,,,,,,,,"MET09910/04/20 00:36:02 SPECI KSEA 040836Z 00000KT 2SM BR OVC004 12/12 A3009 RMK AO2 T01220122 PNO $ (LC)","FM-16","7",,,,,,,,,,,,,,,,,,,,,,,,,,,"2007-05-17"
"72793024233","2020-10-04T00:53:00","FM-15","7",,,,,,,,,,,,,,,,,,,,,,,,,,,,,,,,,,,,,,,"30.09","54","54",,"BR:1 ||","+0.00","5","100","30.11","OVC:08 4","29.62","2.00","54","000",,"0",,,,,,,,,,,,,,,,,,,,,,,,,,,,,,,,,,,,,"MET11810/04/20 00:53:02 METAR KSEA 040853Z 00000KT 2SM BR OVC004 12/12 A3009 RMK AO2 SLP195 6//// T01220122 55001 PNO $ (LC)","FM-15","7",,,,,,,,,,,,,,,,,,,,,,,,,,,"2007-05-17"
"72793024233","2020-10-04T01:51:00","FM-16","6",,,,,,,,,,,,,,,,,,,,,,,,,,,,,,,,,,,,,,,"30.09","55","55",,"BR:1 |DZ |DZ",,,"100",,"OVC:08 3","29.62","1.00","55",,,"0",,,,,,,,,,,,,,,,,,,,,,,,,,,,,,,,,,,,,"MET12710/04/20 01:51:02 SPECI KSEA 040951Z 00000KT 1SM R16L/P6000FT -DZ BR OVC003 13/13 A3009 RMK AO2 SFC VIS 2 DZB46 PNO $ FIBI (LC)","FM-16","6",,,,,,,,,,,,,,,,,,,,,,,,,,,"2007-05-17"
"72793024233","2020-10-04T01:53:00","FM-15","7",,,,,,,,,,,,,,,,,,,,,,,,,,,,,,,,,,,,,,,"30.09","55","55",,"BR:1 |DZ |DZ",,,"100","30.10","OVC:08 3","29.62","1.00","55",,,"0",,,,,,,,,,,,,,,,,,,,,,,,,,,,,,,,,,,,,"MET13910/04/20 01:53:02 METAR KSEA 040953Z 00000KT 1SM R16L/P6000FT -DZ BR OVC003 13/13 A3009 RMK AO2 SFC VIS 2 DZB46 SLP194 T01280128 PNO $ (LC)","FM-15","7",,,,,,,,,,,,,,,,,,,,,,,,,,,"2007-05-17"
"72793024233","2020-10-04T02:51:00","FM-16","6",,,,,,,,,,,,,,,,,,,,,,,,,,,,,,,,,,,,,,,"30.08","54","55",,"BR:1 ||",,,"94",,"SCT:04 3 OVC:08 6","29.61","1.00","54","000",,"0",,,,,,,,,,,,,,,,,,,,,,,,,,,,,,,,,,,,,"MET13010/04/20 02:51:02 SPECI KSEA 041051Z 00000KT 1SM R16L/P6000FT BR SCT003 OVC006 13/12 A3008 RMK AO2 SFC VIS 4 DZE35 PNO $ FIBI (LC)","FM-16","6",,,,,,,,,,,,,,,,,,,,,,,,,,,"2007-05-17"
"72793024233","2020-10-04T02:53:00","FM-15","7",,,,,,,,,,,,,,,,,,,,,,,,,,,,,,,,,,,,,,,"30.08","54","55",,"BR:1 ||",,,"96","30.10","SCT:04 3 OVC:08 6","29.61","1.00","54","000",,"0",,,,,,,,,,,,,,,,,,,,,,,,,,,,,,,,,,,,,"MET14210/04/20 02:53:02 METAR KSEA 041053Z 00000KT 1SM R16L/P6000FT BR SCT003 OVC006 13/12 A3008 RMK AO2 SFC VIS 4 DZE35 SLP193 T01280122 PNO $ (LC)","FM-15","7",,,,,,,,,,,,,,,,,,,,,,,,,,,"2007-05-17"
"72793024233","2020-10-04T03:51:00","FM-16","6",,,,,,,,,,,,,,,,,,,,,,,,,,,,,,,,,,,,,,,"30.09","55","55",,"BR:1 ||",,,"100",,"OVC:08 5","29.62","0.75","55","000",,"0",,,,,,,,,,,,,,,,,,,,,,,,,,,,,,,,,,,,,"MET11910/04/20 03:51:02 SPECI KSEA 041151Z 00000KT 3/4SM R16L/P6000FT BR OVC005 13/13 A3009 RMK AO2 SFC VIS 3 PNO $ FIBI (LC)","FM-16","6",,,,,,,,,,,,,,,,,,,,,,,,,,,"2007-05-17"
"72793024233","2020-10-04T03:53:00","FM-15","7",,,,,,,,,,,,,,,,,,,,,,,,,,,,,,,,,,,,,,,"30.09","55","55",,"BR:1 ||","+0.00","5","100","30.11","OVC:08 5","29.62","0.75","55","000",,"0",,,,,,,,,,,,,,,,,,,,,,,,,,,,,,,,,,,,,"MET16110/04/20 03:53:02 METAR KSEA 041153Z 00000KT 3/4SM R16L/P6000FT BR OVC005 13/13 A3009 RMK AO2 SFC VIS 3 SLP195 6//// 7//// T01280128 10128 20122 55000 PNO $ (LC)","FM-15","7",,,,,,,,,,,,,,,,,,,,,,,,,,,"2007-05-17"
"72793024233","2020-10-04T04:00:00","FM-12","4",,,,,,,,,,,,,,,,,,,,,,,,,,,,,,,,,,,,,,,,"55","55",,,"+0.00","5","100","30.11","5","29.61","0.75","55","000",,"0",,,,,,,,,,,,,,,,,,,,,,,,,,,,,,,,,,,,,"SYN08672793 31212 80000 10128 20128 30026 40195 55000 710// 91153 333 10144 20122 555 90412=","FM-12","4",,,,,,,,,,,,,,,,,,,,,,,,,,,"2007-05-17"
"72793024233","2020-10-04T04:03:00","FM-16","7",,,,,,,,,,,,,,,,,,,,,,,,,,,,,,,,,,,,,,,"30.09","55","55",,"BR:1 ||",,,"100",,"OVC:08 2","29.62","0.75","55","000",,"0",,,,,,,,,,,,,,,,,,,,,,,,,,,,,,,,,,,,,"MET12010/04/20 04:03:02 SPECI KSEA 041203Z 00000KT 3/4SM R16L/P6000FT BR OVC002 13/13 A3009 RMK AO2 SFC VIS 3 T01280128 $ (LC)","FM-16","7",,,,,,,,,,,,,,,,,,,,,,,,,,,"2007-05-17"
"72793024233","2020-10-04T04:53:00","FM-15","7",,,,,,,,,,,,,,,,,,,,,,,,,,,,,,,,,,,,,,,"30.09","55","55","0.00","BR:1 ||",,,"100","30.11","OVC:08 8","29.62","0.75","55","000",,"0",,,,,,,,,,,,,,,,,,,,,,,,,,,,,,,,,,,,,"MET12710/04/20 04:53:02 METAR KSEA 041253Z 00000KT 3/4SM R16L/P6000FT BR OVC008 13/13 A3009 RMK AO2 SFC VIS 3 SLP196 T01280128 $ (LZ)","FM-15","7",,,,,,,,,,,,,,,,,,,,,,,,,,,"2007-05-17"
"72793024233","2020-10-04T05:51:00","FM-16","6",,,,,,,,,,,,,,,,,,,,,,,,,,,,,,,,,,,,,,,"30.10","55","55",,"BR:1 ||",,,"100",,"BKN:07 4 OVC:08 12","29.63","1.50","55","000",,"0",,,,,,,,,,,,,,,,,,,,,,,,,,,,,,,,,,,,,"MET11110/04/20 05:51:02 SPECI KSEA 041351Z 00000KT 1 1/2SM BR BKN004 OVC012 13/13 A3010 RMK AO2 SFC VIS 5 $ FIBI (LZ)","FM-16","6",,,,,,,,,,,,,,,,,,,,,,,,,,,"2007-05-17"
"72793024233","2020-10-04T05:53:00","FM-15","7",,,,,,,,,,,,,,,,,,,,,,,,,,,,,,,,,,,,,,,"30.10","55","55","0.00","BR:1 ||",,,"100","30.11","BKN:07 4 OVC:08 12","29.63","1.50","55","000",,"0",,,,,,,,,,,,,,,,,,,,,,,,,,,,,,,,,,,,,"MET12310/04/20 05:53:02 METAR KSEA 041353Z 00000KT 1 1/2SM BR BKN004 OVC012 13/13 A3010 RMK AO2 SFC VIS 5 SLP197 T01280128 $ (LZ)","FM-15","7",,,,,,,,,,,,,,,,,,,,,,,,,,,"2007-05-17"
"72793024233","2020-10-04T06:53:00","FM-15","7",,,,,,,,,,,,,,,,,,,,,,,,,,,,,,,,,,,,,,,"30.10","54","55","0.00","BR:1 ||","-0.01","3","96","30.12","BKN:07 6 OVC:08 14","29.63","1.50","54","000",,"0",,,,,,,,,,,,,,,,,,,,,,,,,,,,,,,,,,,,,"MET12910/04/20 06:53:02 METAR KSEA 041453Z 00000KT 1 1/2SM BR BKN006 OVC014 13/12 A3010 RMK AO2 SFC VIS 4 SLP200 T01280122 53005 $ (LZ)","FM-15","7",,,,,,,,,,,,,,,,,,,,,,,,,,,"2007-05-17"
"72793024233","2020-10-04T07:53:00","FM-15","7",,,,,,,,,,,,,,,,,,,,,,,,,,,,,,,,,,,,,,,"30.12","55","56","0.00","BR:1 ||",,,"97","30.14","OVC:08 4","29.65","1.50","55","000",,"0",,,,,,,,,,,,,,,,,,,,,,,,,,,,,,,,,,,,,"MET11610/04/20 07:53:02 METAR KSEA 041553Z 00000KT 1 1/2SM BR OVC004 13/13 A3012 RMK AO2 SFC VIS 4 SLP205 T01330128 $ (LZ)","FM-15","7",,,,,,,,,,,,,,,,,,,,,,,,,,,"2007-05-17"
"72793024233","2020-10-04T08:53:00","FM-15","7",,,,,,,,,,,,,,,,,,,,,,,,,,,,,,,,,,,,,,,"30.14","55","56","0.00","BR:1 ||",,,"97","30.15","OVC:08 4","29.67","1.50","55","000",,"0",,,,,,,,,,,,,,,,,,,,,,,,,,,,,,,,,,,,,"MET11610/04/20 08:53:02 METAR KSEA 041653Z 00000KT 1 1/2SM BR OVC004 13/13 A3014 RMK AO2 SFC VIS 4 SLP211 T01330128 $ (LZ)","FM-15","7",,,,,,,,,,,,,,,,,,,,,,,,,,,"2007-05-17"
"72793024233","2020-10-04T09:53:00","FM-15","7",,,,,,,,,,,,,,,,,,,,,,,,,,,,,,,,,,,,,,,"30.15","55","56","0.00","BR:1 ||","-0.04","1","97","30.16","BKN:07 5 OVC:08 9","29.68","1.50","55","100",,"5",,,,,,,,,,,,,,,,,,,,,,,,,,,,,,,,,,,,,"MET14110/04/20 09:53:02 METAR KSEA 041753Z 10004KT 1 1/2SM BR BKN005 OVC009 13/13 A3015 RMK AO2 SFC VIS 5 SLP215 T01330128 10133 20128 51015 $ (LZ)","FM-15","7",,,,,,,,,,,,,,,,,,,,,,,,,,,"2007-05-17"
"72793024233","2020-10-04T10:00:00","FM-12","4",,,,,,,,,,,,,,,,,,,,,,,,,,,,,,,,,,,,,,,,"55","56",,,"-0.04","1","97","30.16","5","29.67","1.49","55","100",,"5",,,,,,,,,,,,,,,,,,,,,,,,,,,,,,,,,,,,,"SYN08672793 31224 81004 10133 20128 30046 40215 51015 710// 91753 333 10133 20128 555 90418=","FM-12","4",,,,,,,,,,,,,,,,,,,,,,,,,,,"2007-05-17"
"72793024233","2020-10-04T10:51:00","FM-16","6",,,,,,,,,,,,,,,,,,,,,,,,,,,,,,,,,,,,,,,"30.14","55","57",,,,,"94",,"SCT:04 5 OVC:08 9","29.67","2.50","56","150",,"6",,,,,,,,,,,,,,,,,,,,,,,,,,,,,,,,,,,,,"MET10910/04/20 10:51:02 SPECI KSEA 041851Z 15005KT 2 1/2SM SCT005 OVC009 14/13 A3014 RMK AO2 SFC VIS 10 $ FIBI (LZ)","FM-16","6",,,,,,,,,,,,,,,,,,,,,,,,,,,"2007-05-17"
"72793024233","2020-10-04T10:53:00","FM-15","7",,,,,,,,,,,,,,,,,,,,,,,,,,,,,,,,,,,,,,,"30.14","56","58","0.00",,,,"93","30.16","SCT:04 5 OVC:08 9","29.67","2.50","57","150",,"6",,,,,,,,,,,,,,,,,,,,,,,,,,,,,,,,,,,,,"MET12110/04/20 10:53:02 METAR KSEA 041853Z 15005KT 2 1/2SM SCT005 OVC009 14/13 A3014 RMK AO2 SFC VIS 10 SLP214 T01440133 $ (LZ)","FM-15","7",,,,,,,,,,,,,,,,,,,,,,,,,,,"2007-05-17"
"72793024233","2020-10-04T11:18:00","FM-16","7",,,,,,,,,,,,,,,,,,,,,,,,,,,,,,,,,,,,,,,"30.15","56","58",,"BR:1 ||",,,"93",,"BKN:07 10 BKN:07 18 OVC:08 24","29.68","10.00","57","150",,"6",,,,,,,,,,,,,,,,,,,,,,,,,,,,,,,,,,,,,"MET11010/04/20 11:18:02 SPECI KSEA 041918Z 15005KT 10SM BR BKN010 BKN018 OVC024 14/13 A3015 RMK AO2 T01440133 $ (LZ)","FM-16","7",,,,,,,,,,,,,,,,,,,,,,,,,,,"2007-05-17"
"72793024233","2020-10-04T11:19:00","FM-16","7",,,,,,,,,,,,,,,,,,,,,,,,,,,,,,,,,,,,,,,"30.14","56","58",,,,,"93",,"BKN:07 10 BKN:07 18 OVC:08 24","29.67","10.00","57","150",,"6",,,,,,,,,,,,,,,,,,,,,,,,,,,,,,,,,,,,,"MET10710/04/20 11:19:02 SPECI KSEA 041919Z 15005KT 10SM BKN010 BKN018 OVC024 14/13 A3014 RMK AO2 T01440133 $ (LZ)","FM-16","7",,,,,,,,,,,,,,,,,,,,,,,,,,,"2007-05-17"
"72793024233","2020-10-04T11:53:00","FM-15","7",,,,,,,,,,,,,,,,,,,,,,,,,,,,,,,,,,,,,,,"30.14","56","58","0.00",,,,"93","30.16","BKN:07 8 BKN:07 18 OVC:08 24","29.67","10.00","57","240",,"6",,,,,,,,,,,,,,,,,,,,,,,,,,,,,,,,,,,,,"MET11410/04/20 11:53:02 METAR KSEA 041953Z 24005KT 10SM BKN008 BKN018 OVC024 14/13 A3014 RMK AO2 SLP213 T01440133 $ (LZ)","FM-15","7",,,,,,,,,,,,,,,,,,,,,,,,,,,"2007-05-17"
"72793024233","2020-10-04T12:53:00","FM-15","7",,,,,,,,,,,,,,,,,,,,,,,,,,,,,,,,,,,,,,,"30.15","55","56","0.00","BR:1 ||","-0.01","3","97","30.17","BKN:07 3 BKN:07 17 OVC:08 21","29.68","3.00","55","190",,"7",,,,,,,,,,,,,,,,,,,,,,,,,,,,,,,,,,,,,"MET12210/04/20 12:53:02 METAR KSEA 042053Z 19006KT 3SM BR BKN003 BKN017 OVC021 13/13 A3015 RMK AO2 SLP217 T01330128 53002 $ (LZ)","FM-15","7",,,,,,,,,,,,,,,,,,,,,,,,,,,"2007-05-17"
"72793024233","2020-10-04T13:30:00","FM-16","7",,,,,,,,,,,,,,,,,,,,,,,,,,,,,,,,,,,,,,,"30.15","56","58",,,,,"93",,"FEW:02 3 SCT:04 14 OVC:08 25","29.68","10.00","57","240",,"6",,,,,,,,,,,,,,,,,,,,,,,,,,,,,,,,,,,,,"MET10710/04/20 13:30:02 SPECI KSEA 042130Z 24005KT 10SM FEW003 SCT014 OVC025 14/13 A3015 RMK AO2 T01440133 $ (TL)","FM-16","7",,,,,,,,,,,,,,,,,,,,,,,,,,,"2007-05-17"
"72793024233","2020-10-04T13:53:00","FM-15","7",,,,,,,,,,,,,,,,,,,,,,,,,,,,,,,,,,,,,,,"30.16","56","58","0.00",,,,"93","30.18","SCT:04 5 OVC:08 25","29.69","10.00","57","240",,"6",,,,,,,,,,,,,,,,,,,,,,,,,,,,,,,,,,,,,"MET10710/04/20 13:53:02 METAR KSEA 042153Z 24005KT 10SM SCT005 OVC025 14/13 A3016 RMK AO2 SLP219 T01440133 $ (TL)","FM-15","7",,,,,,,,,,,,,,,,,,,,,,,,,,,"2007-05-17"
"72793024233","2020-10-04T14:53:00","FM-15","7",,,,,,,,,,,,,,,,,,,,,,,,,,,,,,,,,,,,,,,"30.17","54","58","0.00",,,,"87","30.19","FEW:02 8 OVC:08 27","29.70","10.00","56","270",,"5",,,,,,,,,,,,,,,,,,,,,,,,,,,,,,,,,,,,,"MET10710/04/20 14:53:02 METAR KSEA 042253Z 27004KT 10SM FEW008 OVC027 14/12 A3017 RMK AO2 SLP223 T01440122 $ (TL)","FM-15","7",,,,,,,,,,,,,,,,,,,,,,,,,,,"2007-05-17"
"72793024233","2020-10-04T15:51:00","FM-16","6",,,,,,,,,,,,,,,,,,,,,,,,,,,,,,,,,,,,,,,"30.18","54","59",,,,,"82",,"FEW:02 8 OVC:08 30","29.71","10.00","56","310",,"3",,,,,,,,,,,,,,,,,,,,,,,,,,,,,,,,,,,,,"MET09510/04/20 15:51:02 SPECI KSEA 042351Z 31003KT 10SM FEW008 OVC030 15/12 A3018 RMK AO2 $ FIBI (TL)","FM-16","6",,,,,,,,,,,,,,,,,,,,,,,,,,,"2007-05-17"
"72793024233","2020-10-04T15:53:00","FM-15","7",,,,,,,,,,,,,,,,,,,,,,,,,,,,,,,,,,,,,,,"30.17","54","59","0.00",,"-0.02","1","83","30.19","FEW:02 8 OVC:08 30","29.70","10.00","56","310",,"3",,,,,,,,,,,,,,,,,,,,,,,,,,,,,,,,,,,,,"MET12510/04/20 15:53:02 METAR KSEA 042353Z 31003KT 10SM FEW008 OVC030 15/12 A3017 RMK AO2 SLP224 T01500122 10150 20133 51007 $ (TL)","FM-15","7",,,,,,,,,,,,,,,,,,,,,,,,,,,"2007-05-17"
"72793024233","2020-10-04T16:00:00","FM-12","4",,,,,,,,,,,,,,,,,,,,,,,,,,,,,,,,,,,,,,,,"54","59",,,"-0.02","1","83","30.19","8","29.69","9.94","56","310",,"3",,,,,,,,,,,,,,,,,,,,,,,,,,,,,,,,,,,,,"SYN08072793 32366 83103 10150 20122 30053 40224 51007 92353 333 10150 20122 555 90500=","FM-12","4",,,,,,,,,,,,,,,,,,,,,,,,,,,"2007-05-17"
"72793024233","2020-10-04T16:51:00","FM-16","6",,,,,,,,,,,,,,,,,,,,,,,,,,,,,,,,,,,,,,,"30.18","54","59",,,,,"82",,"FEW:02 19 OVC:08 28","29.71","10.00","56","000",,"0",,,,,,,,,,,,,,,,,,,,,,,,,,,,,,,,,,,,,"MET09510/04/20 16:51:03 SPECI KSEA 050051Z 00000KT 10SM FEW019 OVC028 15/12 A3018 RMK AO2 $ FIBI (TL)","FM-16","6",,,,,,,,,,,,,,,,,,,,,,,,,,,"2007-05-17"
"72793024233","2020-10-04T16:53:00","FM-15","7",,,,,,,,,,,,,,,,,,,,,,,,,,,,,,,,,,,,,,,"30.18","53","59","0.00",,,,"81","30.19","FEW:02 19 OVC:08 28","29.71","10.00","56","000",,"0",,,,,,,,,,,,,,,,,,,,,,,,,,,,,,,,,,,,,"MET10210/04/20 16:53:01 METAR KSEA 050053Z 00000KT 10SM FEW019 OVC028 15/12 A3018 RMK AO2 SLP225 T01500117 $","FM-15","7",,,,,,,,,,,,,,,,,,,,,,,,,,,"2007-05-17"
"72793024233","2020-10-04T17:53:00","FM-15","7",,,,,,,,,,,,,,,,,,,,,,,,,,,,,,,,,,,,,,,"30.18","55","58","0.00",,,,"90","30.20","FEW:02 19 OVC:08 29","29.71","10.00","56","280",,"3",,,,,,,,,,,,,,,,,,,,,,,,,,,,,,,,,,,,,"MET10210/04/20 17:53:01 METAR KSEA 050153Z 28003KT 10SM FEW019 OVC029 14/13 A3018 RMK AO2 SLP227 T01440128 $","FM-15","7",,,,,,,,,,,,,,,,,,,,,,,,,,,"2007-05-17"
"72793024233","2020-10-04T18:51:00","FM-16","6",,,,,,,,,,,,,,,,,,,,,,,,,,,,,,,,,,,,,,,"30.19","54","57",,,,,"88",,"OVC:08 34","29.72","10.00","55","000",,"0",,,,,,,,,,,,,,,,,,,,,,,,,,,,,,,,,,,,,"MET08810/04/20 18:51:03 SPECI KSEA 050251Z 00000KT 10SM OVC034 14/12 A3019 RMK AO2 $ FIBI (TL)","FM-16","6",,,,,,,,,,,,,,,,,,,,,,,,,,,"2007-05-17"
"72793024233","2020-10-04T18:53:00","FM-15","7",,,,,,,,,,,,,,,,,,,,,,,,,,,,,,,,,,,,,,,"30.19","54","58","0.00",,"-0.02","3","87","30.21","OVC:08 34","29.72","10.00","56","000",,"0",,,,,,,,,,,,,,,,,,,,,,,,,,,,,,,,,,,,,"MET10110/04/20 18:53:01 METAR KSEA 050253Z 00000KT 10SM OVC034 14/12 A3019 RMK AO2 SLP231 T01440122 53006 $","FM-15","7",,,,,,,,,,,,,,,,,,,,,,,,,,,"2007-05-17"
"72793024233","2020-10-04T19:53:00","FM-15","7",,,,,,,,,,,,,,,,,,,,,,,,,,,,,,,,,,,,,,,"30.20","54","58","0.00",,,,"87","30.22","OVC:08 32","29.73","10.00","56","300",,"3",,,,,,,,,,,,,,,,,,,,,,,,,,,,,,,,,,,,,"MET09510/04/20 19:53:02 METAR KSEA 050353Z 30003KT 10SM OVC032 14/12 A3020 RMK AO2 SLP234 T01440122 $","FM-15","7",,,,,,,,,,,,,,,,,,,,,,,,,,,"2007-05-17"
"72793024233","2020-10-04T20:53:00","FM-15","7",,,,,,,,,,,,,,,,,,,,,,,,,,,,,,,,,,,,,,,"30.21","55","58","0.00",,,,"90","30.23","OVC:08 31","29.74","10.00","56","000",,"0",,,,,,,,,,,,,,,,,,,,,,,,,,,,,,,,,,,,,"MET09510/04/20 20:53:02 METAR KSEA 050453Z 00000KT 10SM OVC031 14/13 A3021 RMK AO2 SLP237 T01440128 $","FM-15","7",,,,,,,,,,,,,,,,,,,,,,,,,,,"2007-05-17"
"72793024233","2020-10-04T21:53:00","FM-15","7",,,,,,,,,,,,,,,,,,,,,,,,,,,,,,,,,,,,,,,"30.23","54","58","0.00",,"-0.03","3","87","30.24","BKN:07 33 OVC:08 39","29.76","10.00","56","010",,"3",,,,,,,,,,,,,,,,,,,,,,,,,,,,,,,,,,,,,"MET12010/04/20 21:53:02 METAR KSEA 050553Z 01003KT 10SM BKN033 OVC039 14/12 A3023 RMK AO2 SLP242 T01440122 10150 20144 53011 $","FM-15","7",,,,,,,,,,,,,,,,,,,,,,,,,,,"2007-05-17"
"72793024233","2020-10-04T22:00:00","FM-12","4",,,,,,,,,,,,,,,,,,,,,,,,,,,,,,,,,,,,,,,,"54","58",,,"-0.03","3","87","30.24","26","29.75","9.94","56","010",,"3",,,,,,,,,,,,,,,,,,,,,,,,,,,,,,,,,,,,,"SYN08072793 32566 80103 10144 20122 30073 40242 53011 90553 333 10150 20122 555 90506=","FM-12","4",,,,,,,,,,,,,,,,,,,,,,,,,,,"2007-05-17"
"72793024233","2020-10-04T22:53:00","FM-15","7",,,,,,,,,,,,,,,,,,,,,,,,,,,,,,,,,,,,,,,"30.24","54","58","0.00",,,,"87","30.25","SCT:04 23 OVC:08 30","29.77","10.00","56","350",,"3",,,,,,,,,,,,,,,,,,,,,,,,,,,,,,,,,,,,,"MET10210/04/20 22:53:02 METAR KSEA 050653Z 35003KT 10SM SCT023 OVC030 14/12 A3024 RMK AO2 SLP245 T01440122 $","FM-15","7",,,,,,,,,,,,,,,,,,,,,,,,,,,"2007-05-17"
"72793024233","2020-10-04T23:53:00","FM-15","7",,,,,,,,,,,,,,,,,,,,,,,,,,,,,,,,,,,,,,,"30.24","55","58","0.00",,,,"90","30.26","SCT:04 27 OVC:08 43","29.77","10.00","56","000",,"0",,,,,,,,,,,,,,,,,,,,,,,,,,,,,,,,,,,,,"MET11210/04/20 23:53:02 METAR KSEA 050753Z 00000KT 10SM SCT027 OVC043 14/13 A3024 RMK AO2 SLP247 T01440128 401500122 $","FM-15","7",,,,,,,,,,,,,,,,,,,,,,,,,,,"2007-05-17"
"72793024233","2020-10-04T23:59:00","SOD  ","6",,,,,,,,,,,,,,,,,"55","57","93","30.17","29.68","56","2.1","0","0.9","8","59","54","190","7","0.00","0","0.0","190","7","BR DZ",,,,,,,,,,,,,,,,,,,,,,,,,,,,,,,,,,,,,,,,,,,,,,,,,,,,,,,"SOD70424 HR PRECIPITATION (IN): 0.00 SNOW DEPTH (IN):0     24 HR SNOWFALL (IN):0.0  WEATHER(CODE):18  24 HR MAX TEMP (F): 5924 HR MIN TEMP (F): 54AVERAGE STATION PRESSURE:29.685 MINIMUM SEA LEVEL PRESSURE:30.10 TIME OF OCCURRENCE:0408 PEAK WIND SPEED (MPH):  7 PEAK WIND DIR (DEG):190 PEAK WIND TIME (LST):      FASTEST 2MIN SPEED (MPH):  7FASTEST 2MIN DIR (DEG):190 FASTEST 2MIN TIME (LST):     AVERAGE WIND SPEED (MPH): 2.1 24 HR AVG TEMP (F): 57DEPART FROM NORMAL:  1  SKY COVER SR-SS (TENTHS): 1HEATING DEGREE DAYS:  8 COOLING DEGREE DAYS:  0 HOURLY INCREMENTAL PRECIPITATION VALUES (IN):    M    M    M    0.00 0.00 0.00 0.00 0.00 0.00 0.00 0.00 0.00 0.00 0.00 0.00 0.00 0.00 0.00 0.00 0.00 0.00 0.00 0.00","SOD  ","6",,,,,,,,,,,,,,,,,,,,,,,,,"0614","1741","2007-05-17"
"72793024233","2020-10-05T00:53:00","FM-15","7",,,,,,,,,,,,,,,,,,,,,,,,,,,,,,,,,,,,,,,"30.25","54","56","0.00",,"-0.02","1","93","30.27","FEW:02 25 SCT:04 42","29.78","7.00","55","020",,"5",,,,,,,,,,,,,,,,,,,,,,,,,,,,,,,,,,,,,"MET11210/05/20 00:53:02 METAR KSEA 050853Z 02004KT 7SM FEW025 SCT042 13/12 A3025 RMK AO2 SLP249 T01330122 51007 $ (LC)","FM-15","7",,,,,,,,,,,,,,,,,,,,,,,,,,,"2007-05-17"
"72793024233","2020-10-05T01:53:00","FM-15","7",,,,,,,,,,,,,,,,,,,,,,,,,,,,,,,,,,,,,,,"30.24","54","55","0.00",,,,"96","30.26","SCT:04 20 BKN:07 42","29.77","7.00","54","010",,"5",,,,,,,,,,,,,,,,,,,,,,,,,,,,,,,,,,,,,"MET10610/05/20 01:53:02 METAR KSEA 050953Z 01004KT 7SM SCT020 BKN042 13/12 A3024 RMK AO2 SLP247 T01280122 $ (LC)","FM-15","7",,,,,,,,,,,,,,,,,,,,,,,,,,,"2007-05-17"
"72793024233","2020-10-05T02:46:00","FM-16","7",,,,,,,,,,,,,,,,,,,,,,,,,,,,,,,,,,,,,,,"30.25","54","55",,,,,"96",,"OVC:08 16","29.78","7.00","54","360",,"5",,,,,,,,,,,,,,,,,,,,,,,,,,,,,,,,,,,,,"MET09210/05/20 02:46:02 SPECI KSEA 051046Z 36004KT 7SM OVC016 13/12 A3025 RMK AO2 T01280122 $ (LC)","FM-16","7",,,,,,,,,,,,,,,,,,,,,,,,,,,"2007-05-17"
"72793024233","2020-10-05T02:53:00","FM-15","7",,,,,,,,,,,,,,,,,,,,,,,,,,,,,,,,,,,,,,,"30.25","54","55","0.00",,,,"96","30.27","BKN:07 16","29.78","7.00","54","360",,"5",,,,,,,,,,,,,,,,,,,,,,,,,,,,,,,,,,,,,"MET09910/05/20 02:53:02 METAR KSEA 051053Z 36004KT 7SM BKN016 13/12 A3025 RMK AO2 SLP249 T01280122 $ (LC)","FM-15","7",,,,,,,,,,,,,,,,,,,,,,,,,,,"2007-05-17"
"72793024233","2020-10-05T03:53:00","FM-15","7",,,,,,,,,,,,,,,,,,,,,,,,,,,,,,,,,,,,,,,"30.25","56","57","0.00",,"-0.00","3","96","30.27","BKN:07 16 OVC:08 40","29.78","7.00","56","030",,"7",,,,,,,,,,,,,,,,,,,,,,,,,,,,,,,,,,,,,"MET12410/05/20 03:53:02 METAR KSEA 051153Z 03006KT 7SM BKN016 OVC040 14/13 A3025 RMK AO2 SLP249 T01390133 10144 20128 53001 $ (LC)","FM-15","7",,,,,,,,,,,,,,,,,,,,,,,,,,,"2007-05-17"
"72793024233","2020-10-05T04:00:00","FM-12","4",,,,,,,,,,,,,,,,,,,,,,,,,,,,,,,,,,,,,,,,"56","57",,,"-0.00","3","96","30.27","15","29.77","6.84","56","030",,"7",,,,,,,,,,,,,,,,,,,,,,,,,,,,,,,,,,,,,"SYN08072793 32461 80306 10139 20133 30080 40249 53001 91153 333 10150 20128 555 90512=","FM-12","4",,,,,,,,,,,,,,,,,,,,,,,,,,,"2007-05-17"
"72793024233","2020-10-05T04:19:00","FM-16","7",,,,,,,,,,,,,,,,,,,,,,,,,,,,,,,,,,,,,,,"30.25","55","57",,,,,"93",,"BKN:07 14","29.78","10.00","56","030",,"5",,,,,,,,,,,,,,,,,,,,,,,,,,,,,,,,,,,,,"MET09310/05/20 04:19:02 SPECI KSEA 051219Z 03004KT 10SM BKN014 14/13 A3025 RMK AO2 T01390128 $ (LC)","FM-16","7",,,,,,,,,,,,,,,,,,,,,,,,,,,"2007-05-17"
"72793024233","2020-10-05T04:53:00","FM-15","7",,,,,,,,,,,,,,,,,,,,,,,,,,,,,,,,,,,,,,,"30.25","55","57","0.00",,,,"93","30.27","BKN:07 14","29.78","10.00","56","000",,"0",,,,,,,,,,,,,,,,,,,,,,,,,,,,,,,,,,,,,"MET10010/05/20 04:53:02 METAR KSEA 051253Z 00000KT 10SM BKN014 14/13 A3025 RMK AO2 SLP249 T01390128 $ (LC)","FM-15","7",,,,,,,,,,,,,,,,,,,,,,,,,,,"2007-05-17"
"72793024233","2020-10-05T05:46:00","FM-16","7",,,,,,,,,,,,,,,,,,,,,,,,,,,,,,,,,,,,,,,"30.25","55","57",,,,,"93",,"SCT:04 14","29.78","10.00","56","000",,"0",,,,,,,,,,,,,,,,,,,,,,,,,,,,,,,,,,,,,"MET09310/05/20 05:46:02 SPECI KSEA 051346Z 00000KT 10SM SCT014 14/13 A3025 RMK AO2 T01390128 $ (JC)","FM-16","7",,,,,,,,,,,,,,,,,,,,,,,,,,,"2007-05-17"
"72793024233","2020-10-05T05:53:00","FM-15","7",,,,,,,,,,,,,,,,,,,,,,,,,,,,,,,,,,,,,,,"30.25","54","55","0.00",,,,"96","30.27","SCT:04 14","29.78","10.00","54","340",,"6",,,,,,,,,,,,,,,,,,,,,,,,,,,,,,,,,,,,,"MET10010/05/20 05:53:02 METAR KSEA 051353Z 34005KT 10SM SCT014 13/12 A3025 RMK AO2 SLP249 T01280122 $ (JC)","FM-15","7",,,,,,,,,,,,,,,,,,,,,,,,,,,"2007-05-17"
"72793024233","2020-10-05T06:15:00","FM-16","7",,,,,,,,,,,,,,,,,,,,,,,,,,,,,,,,,,,,,,,"30.25","54","55",,,,,"96",,"BKN:07 14","29.78","10.00","54","340",,"6",,,,,,,,,,,,,,,,,,,,,,,,,,,,,,,,,,,,,"MET09310/05/20 06:15:02 SPECI KSEA 051415Z 34005KT 10SM BKN014 13/12 A3025 RMK AO2 T01280122 $ (JC)","FM-16","7",,,,,,,,,,,,,,,,,,,,,,,,,,,"2007-05-17"
"72793024233","2020-10-05T06:42:00","FM-16","7",,,,,,,,,,,,,,,,,,,,,,,,,,,,,,,,,,,,,,,"30.26","55","56",,,,,"97",,"BKN:07 8 BKN:07 12","29.79","10.00","55","340",,"7",,,,,,,,,,,,,,,,,,,,,,,,,,,,,,,,,,,,,"MET10010/05/20 06:42:02 SPECI KSEA 051442Z 34006KT 10SM BKN008 BKN012 13/13 A3026 RMK AO2 T01330128 $ (JC)","FM-16","7",,,,,,,,,,,,,,,,,,,,,,,,,,,"2007-05-17"
"72793024233","2020-10-05T06:53:00","FM-15","7",,,,,,,,,,,,,,,,,,,,,,,,,,,,,,,,,,,,,,,"30.26","55","56","0.00",,"-0.01","3","97","30.27","BKN:07 8 BKN:07 12","29.79","10.00","55","340",,"7",,,,,,,,,,,,,,,,,,,,,,,,,,,,,,,,,,,,,"MET11310/05/20 06:53:02 METAR KSEA 051453Z 34006KT 10SM BKN008 BKN012 13/13 A3026 RMK AO2 SLP252 T01330128 53002 $ (JC)","FM-15","7",,,,,,,,,,,,,,,,,,,,,,,,,,,"2007-05-17"
"72793024233","2020-10-05T07:53:00","FM-15","7",,,,,,,,,,,,,,,,,,,,,,,,,,,,,,,,,,,,,,,"30.26","54","56","0.00",,,,"93","30.28","OVC:08 6","29.79","9.00","55","010",,"7",,,,,,,,,,,,,,,,,,,,,,,,,,,,,,,,,,,,,"MET09910/05/20 07:53:02 METAR KSEA 051553Z 01006KT 9SM OVC006 13/12 A3026 RMK AO2 SLP254 T01330122 $ (JC)","FM-15","7",,,,,,,,,,,,,,,,,,,,,,,,,,,"2007-05-17"
"72793024233","2020-10-05T08:53:00","FM-15","7",,,,,,,,,,,,,,,,,,,,,,,,,,,,,,,,,,,,,,,"30.27","54","58","0.00",,,,"87","30.28","OVC:08 6","29.80","10.00","56","010",,"8",,,,,,,,,,,,,,,,,,,,,,,,,,,,,,,,,,,,,"MET09810/05/20 08:53:02 METAR KSEA 051653Z 01007KT 10SM OVC006 14/12 A3027 RMK AO2 SLP255 T01440122 (JC)","FM-15","7",,,,,,,,,,,,,,,,,,,,,,,,,,,"2007-05-17"
"72793024233","2020-10-05T09:53:00","FM-15","7",,,,,,,,,,,,,,,,,,,,,,,,,,,,,,,,,,,,,,,"30.28","54","60","0.00",,"-0.02","3","80","30.29","OVC:08 7","29.81","10.00","57","360",,"7",,,,,,,,,,,,,,,,,,,,,,,,,,,,,,,,,,,,,"MET11610/05/20 09:53:02 METAR KSEA 051753Z 36006KT 10SM OVC007 16/12 A3028 RMK AO2 SLP258 T01560122 10156 20128 53007 (JC)","FM-15","7",,,,,,,,,,,,,,,,,,,,,,,,,,,"2007-05-17"
"72793024233","2020-10-05T10:00:00","FM-12","4",,,,,,,,,,,,,,,,,,,,,,,,,,,,,,,,,,,,,,,,"54","60",,,"-0.02","3","80","30.29","8","29.80","9.94","57","360",,"7",,,,,,,,,,,,,,,,,,,,,,,,,,,,,,,,,,,,,"SYN08072793 32366 83606 10156 20122 30090 40258 53007 91753 333 10156 20128 555 90518=","FM-12","4",,,,,,,,,,,,,,,,,,,,,,,,,,,"2007-05-17"
"72793024233","2020-10-05T10:41:00","FM-16","7",,,,,,,,,,,,,,,,,,,,,,,,,,,,,,,,,,,,,,,"30.28","55","59",,,,,"87",,"OVC:08 10","29.81","10.00","57","320",,"5",,,,,,,,,,,,,,,,,,,,,,,,,,,,,,,,,,,,,"MET09110/05/20 10:41:02 SPECI KSEA 051841Z 32004KT 10SM OVC010 15/13 A3028 RMK AO2 T01500128 (JC)","FM-16","7",,,,,,,,,,,,,,,,,,,,,,,,,,,"2007-05-17"
"72793024233","2020-10-05T10:53:00","FM-15","7",,,,,,,,,,,,,,,,,,,,,,,,,,,,,,,,,,,,,,,"30.28","55","61","0.00",,,,"81","30.30","OVC:08 10","29.81","10.00","58","VRB",,"6",,,,,,,,,,,,,,,,,,,,,,,,,,,,,,,,,,,,,"MET09810/05/20 10:53:02 METAR KSEA 051853Z VRB05KT 10SM OVC010 16/13 A3028 RMK AO2 SLP260 T01610128 (JC)","FM-15","7",,,,,,,,,,,,,,,,,,,,,,,,,,,"2007-05-17"
"72793024233","2020-10-05T11:53:00","FM-15","7",,,,,,,,,,,,,,,,,,,,,,,,,,,,,,,,,,,,,,,"30.28","54","63","0.00",,,,"73","30.29","BKN:07 12","29.81","10.00","58","350",,"7",,,,,,,,,,,,,,,,,,,,,,,,,,,,,,,,,,,,,"MET09810/05/20 11:53:02 METAR KSEA 051953Z 35006KT 10SM BKN012 17/12 A3028 RMK AO2 SLP258 T01720122 (JC)","FM-15","7",,,,,,,,,,,,,,,,,,,,,,,,,,,"2007-05-17"
"72793024233","2020-10-05T12:22:00","FM-16","7",,,,,,,,,,,,,,,,,,,,,,,,,,,,,,,,,,,,,,,"30.28","55","62",,,,,"78",,"SCT:04 13","29.81","10.00","58","290",,"8",,,,,,,,,,,,,,,,,,,,,,,,,,,,,,,,,,,,,"MET09110/05/20 12:22:02 SPECI KSEA 052022Z 29007KT 10SM SCT013 17/13 A3028 RMK AO2 T01670128 (JC)","FM-16","7",,,,,,,,,,,,,,,,,,,,,,,,,,,"2007-05-17"
"72793024233","2020-10-05T12:53:00","FM-15","7",,,,,,,,,,,,,,,,,,,,,,,,,,,,,,,,,,,,,,,"30.27","55","64","0.00",,"+0.00","8","73","30.29","SCT:04 14","29.80","10.00","59","290",,"8",,,,,,,,,,,,,,,,,,,,,,,,,,,,,,,,,,,,,"MET10410/05/20 12:53:02 METAR KSEA 052053Z 29007KT 10SM SCT014 18/13 A3027 RMK AO2 SLP257 T01780128 58001 (JC)","FM-15","7",,,,,,,,,,,,,,,,,,,,,,,,,,,"2007-05-17"
"72793024233","2020-10-05T13:53:00","FM-15","7",,,,,,,,,,,,,,,,,,,,,,,,,,,,,,,,,,,,,,,"30.26","55","65","0.00",,,,"70","30.27","FEW:02 15","29.79","10.00","59","280",,"7",,,,,,,,,,,,,,,,,,,,,,,,,,,,,,,,,,,,,"MET09810/05/20 13:53:02 METAR KSEA 052153Z 28006KT 10SM FEW015 18/13 A3026 RMK AO2 SLP251 T01830128 (RS)","FM-15","7",,,,,,,,,,,,,,,,,,,,,,,,,,,"2007-05-17"
"72793024233","2020-10-05T14:53:00","FM-15","7",,,,,,,,,,,,,,,,,,,,,,,,,,,,,,,,,,,,,,,"30.24","55","66","0.00",,,,"68","30.26","CLR:00","29.77","10.00","60","300",,"8",,,,,,,,,,,,,,,,,,,,,,,,,,,,,,,,,,,,,"MET09510/05/20 14:53:02 METAR KSEA 052253Z 30007KT 10SM CLR 19/13 A3024 RMK AO2 SLP246 T01890128 (RS)","FM-15","7",,,,,,,,,,,,,,,,,,,,,,,,,,,"2007-05-17"
"72793024233","2020-10-05T15:53:00","FM-15","7",,,,,,,,,,,,,,,,,,,,,,,,,,,,,,,,,,,,,,,"30.23","55","67","0.00",,"+0.04","6","66","30.24","CLR:00","29.76","10.00","60","310",,"6",,,,,,,,,,,,,,,,,,,,,,,,,,,,,,,,,,,,,"MET11310/05/20 15:53:02 METAR KSEA 052353Z 31005KT 10SM CLR 19/13 A3023 RMK AO2 SLP241 T01940128 10194 20150 56015 (RS)","FM-15","7",,,,,,,,,,,,,,,,,,,,,,,,,,,"2007-05-17"
"72793024233","2020-10-05T16:00:00","FM-12","4",,,,,,,,,,,,,,,,,,,,,,,,,,,,,,,,,,,,,,,,"55","67",,,"+0.04","6","66","30.24",,"29.75","9.94","60","310",,"6",,,,,,,,,,,,,,,,,,,,,,,,,,,,,,,,,,,,,"SYN08072793 32966 03105 10194 20128 30073 40241 56015 92353 333 10194 20128 555 90600=","FM-12","4",,,,,,,,,,,,,,,,,,,,,,,,,,,"2007-05-17"
"72793024233","2020-10-05T16:53:00","FM-15","7",,,,,,,,,,,,,,,,,,,,,,,,,,,,,,,,,,,,,,,"30.21","54","66","0.00",,,,"65","30.23","FEW:02 250","29.74","10.00","59","340",,"5",,,,,,,,,,,,,,,,,,,,,,,,,,,,,,,,,,,,,"MET09310/05/20 16:53:01 METAR KSEA 060053Z 34004KT 10SM FEW250 19/12 A3021 RMK AO2 SLP237 T01890122","FM-15","7",,,,,,,,,,,,,,,,,,,,,,,,,,,"2007-05-17"
"72793024233","2020-10-05T17:53:00","FM-15","7",,,,,,,,,,,,,,,,,,,,,,,,,,,,,,,,,,,,,,,"30.21","54","61","0.00",,,,"78","30.22","FEW:02 250","29.74","10.00","57","300",,"5",,,,,,,,,,,,,,,,,,,,,,,,,,,,,,,,,,,,,"MET09310/05/20 17:53:01 METAR KSEA 060153Z 30004KT 10SM FEW250 16/12 A3021 RMK AO2 SLP234 T01610122","FM-15","7",,,,,,,,,,,,,,,,,,,,,,,,,,,"2007-05-17"
"72793024233","2020-10-05T18:53:00","FM-15","7",,,,,,,,,,,,,,,,,,,,,,,,,,,,,,,,,,,,,,,"30.21","53","60","0.00",,"+0.02","5","78","30.22","CLR:00","29.74","10.00","56","360",,"6",,,,,,,,,,,,,,,,,,,,,,,,,,,,,,,,,,,,,"MET09610/05/20 18:53:01 METAR KSEA 060253Z 36005KT 10SM CLR 16/12 A3021 RMK AO2 SLP235 T01560117 55006","FM-15","7",,,,,,,,,,,,,,,,,,,,,,,,,,,"2007-05-17"
"72793024233","2020-10-05T19:53:00","FM-15","7",,,,,,,,,,,,,,,,,,,,,,,,,,,,,,,,,,,,,,,"30.21","52","56","0.00",,,,"87","30.23","CLR:00","29.74","10.00","54","010",,"6",,,,,,,,,,,,,,,,,,,,,,,,,,,,,,,,,,,,,"MET09010/05/20 19:53:02 METAR KSEA 060353Z 01005KT 10SM CLR 13/11 A3021 RMK AO2 SLP236 T01330111","FM-15","7",,,,,,,,,,,,,,,,,,,,,,,,,,,"2007-05-17"
"72793024233","2020-10-05T20:53:00","FM-15","7",,,,,,,,,,,,,,,,,,,,,,,,,,,,,,,,,,,,,,,"30.20","52","55","0.00",,,,"90","30.22","CLR:00","29.73","10.00","53","340",,"7",,,,,,,,,,,,,,,,,,,,,,,,,,,,,,,,,,,,,"MET09010/05/20 20:53:02 METAR KSEA 060453Z 34006KT 10SM CLR 13/11 A3020 RMK AO2 SLP234 T01280111","FM-15","7",,,,,,,,,,,,,,,,,,,,,,,,,,,"2007-05-17"
"72793024233","2020-10-05T21:53:00","FM-15","7",,,,,,,,,,,,,,,,,,,,,,,,,,,,,,,,,,,,,,,"30.20","53","57","0.00",,"+0.01","8","87","30.22","CLR:00","29.73","10.00","55","010",,"7",,,,,,,,,,,,,,,,,,,,,,,,,,,,,,,,,,,,,"MET10810/05/20 21:53:02 METAR KSEA 060553Z 01006KT 10SM CLR 14/12 A3020 RMK AO2 SLP232 T01390117 10200 20128 58003","FM-15","7",,,,,,,,,,,,,,,,,,,,,,,,,,,"2007-05-17"
"72793024233","2020-10-05T22:00:00","FM-12","4",,,,,,,,,,,,,,,,,,,,,,,,,,,,,,,,,,,,,,,,"53","57",,,"+0.01","8","87","30.22",,"29.72","9.94","55","010",,"7",,,,,,,,,,,,,,,,,,,,,,,,,,,,,,,,,,,,,"SYN08072793 32966 00106 10139 20117 30063 40232 58003 90553 333 10200 20128 555 90606=","FM-12","4",,,,,,,,,,,,,,,,,,,,,,,,,,,"2007-05-17"
"72793024233","2020-10-05T22:53:00","FM-15","7",,,,,,,,,,,,,,,,,,,,,,,,,,,,,,,,,,,,,,,"30.20","53","56","0.00",,,,"90","30.21","CLR:00","29.73","7.00","54","000",,"0",,,,,,,,,,,,,,,,,,,,,,,,,,,,,,,,,,,,,"MET08910/05/20 22:53:02 METAR KSEA 060653Z 00000KT 7SM CLR 13/12 A3020 RMK AO2 SLP231 T01330117","FM-15","7",,,,,,,,,,,,,,,,,,,,,,,,,,,"2007-05-17"
"72793024233","2020-10-05T23:53:00","FM-15","7",,,,,,,,,,,,,,,,,,,,,,,,,,,,,,,,,,,,,,,"30.19","53","56","0.00",,,,"90","30.21","CLR:00","29.72","7.00","54","360",,"6",,,,,,,,,,,,,,,,,,,,,,,,,,,,,,,,,,,,,"MET09910/05/20 23:53:02 METAR KSEA 060753Z 36005KT 7SM CLR 13/12 A3019 RMK AO2 SLP229 T01330117 402000128","FM-15","7",,,,,,,,,,,,,,,,,,,,,,,,,,,"2007-05-17"
"72793024233","2020-10-05T23:59:00","SOD  ","6",,,,,,,,,,,,,,,,,"54","62","84","30.26","29.77","56","5.7","0","6.2","3","68","55","340","15","0.00","0","0.0","280","10",,,,,,,,,,,,,,,,,,,,,,,,,,,,,,,,,,,,,,,,,,,,,,,,,,,,,,,,"SOD69924 HR PRECIPITATION (IN): 0.00 SNOW DEPTH (IN):0     24 HR SNOWFALL (IN):0.0  24 HR MAX TEMP (F): 6824 HR MIN TEMP (F): 55AVERAGE STATION PRESSURE:29.765 MINIMUM SEA LEVEL PRESSURE:30.20 TIME OF OCCURRENCE:2359 PEAK WIND SPEED (MPH): 15 PEAK WIND DIR (DEG):340 PEAK WIND TIME (LST):      FASTEST 2MIN SPEED (MPH): 10FASTEST 2MIN DIR (DEG):280 FASTEST 2MIN TIME (LST):     AVERAGE WIND SPEED (MPH): 5.7 24 HR AVG TEMP (F): 62DEPART FROM NORMAL:  6  HEATING DEGREE DAYS:  3 COOLING DEGREE DAYS:  0 LATEST DAY MAX TEMP (0700-1900 LST):68  HOURLY INCREMENTAL PRECIPITATION VALUES (IN):.00 0.00 0.00 0.00 0.00 0.00 0.00 0.00 0.00 0.00 0.00 0.00 0.00 0.00 0.00 0.00 0.00 0.00 0.00 0.00 0.00 0.00 0.00 0.00","SOD  ","6",,,,,,,,,,,,,,,,,,,,,,,,,"0615","1739","2007-05-17"
"72793024233","2020-10-06T00:53:00","FM-15","7",,,,,,,,,,,,,,,,,,,,,,,,,,,,,,,,,,,,,,,"30.18","53","55","0.00",,"+0.02","8","93","30.20","CLR:00","29.71","7.00","54","360",,"5",,,,,,,,,,,,,,,,,,,,,,,,,,,,,,,,,,,,,"MET10010/06/20 00:53:02 METAR KSEA 060853Z 36004KT 7SM CLR 13/12 A3018 RMK AO2 SLP226 T01280117 58006 (LC)","FM-15","7",,,,,,,,,,,,,,,,,,,,,,,,,,,"2007-05-17"
"72793024233","2020-10-06T01:53:00","FM-15","7",,,,,,,,,,,,,,,,,,,,,,,,,,,,,,,,,,,,,,,"30.17","52","54","0.00",,,,"93","30.19","CLR:00","29.70","7.00","53","010",,"5",,,,,,,,,,,,,,,,,,,,,,,,,,,,,,,,,,,,,"MET09410/06/20 01:53:02 METAR KSEA 060953Z 01004KT 7SM CLR 12/11 A3017 RMK AO2 SLP223 T01220111 (LC)","FM-15","7",,,,,,,,,,,,,,,,,,,,,,,,,,,"2007-05-17"
"72793024233","2020-10-06T02:02:00","FM-16","7",,,,,,,,,,,,,,,,,,,,,,,,,,,,,,,,,,,,,,,"30.17","53","55",,"BR:1 ||",,,"93",,"SCT:04 3","29.70","6.00","54","010",,"6",,,,,,,,,,,,,,,,,,,,,,,,,,,,,,,,,,,,,"MET09310/06/20 02:02:02 SPECI KSEA 061002Z 01005KT 6SM BR SCT003 13/12 A3017 RMK AO2 T01280117 (LC)","FM-16","7",,,,,,,,,,,,,,,,,,,,,,,,,,,"2007-05-17"
"72793024233","2020-10-06T02:13:00","FM-16","7",,,,,,,,,,,,,,,,,,,,,,,,,,,,,,,,,,,,,,,"30.17","52","54",,"BR:1 ||",,,"93",,"BKN:07 4","29.70","6.00","53","010",,"6",,,,,,,,,,,,,,,,,,,,,,,,,,,,,,,,,,,,,"MET09310/06/20 02:13:02 SPECI KSEA 061013Z 01005KT 6SM BR BKN004 12/11 A3017 RMK AO2 T01220111 (LC)","FM-16","7",,,,,,,,,,,,,,,,,,,,,,,,,,,"2007-05-17"
"72793024233","2020-10-06T02:53:00","FM-15","7",,,,,,,,,,,,,,,,,,,,,,,,,,,,,,,,,,,,,,,"30.17","54","56","0.00","BR:1 ||",,,"93","30.18","OVC:08 3","29.70","5.00","55","010",,"6",,,,,,,,,,,,,,,,,,,,,,,,,,,,,,,,,,,,,"MET10010/06/20 02:53:02 METAR KSEA 061053Z 01005KT 5SM BR OVC003 13/12 A3017 RMK AO2 SLP221 T01330122 (LC)","FM-15","7",,,,,,,,,,,,,,,,,,,,,,,,,,,"2007-05-17"
"72793024233","2020-10-06T03:53:00","FM-15","7",,,,,,,,,,,,,,,,,,,,,,,,,,,,,,,,,,,,,,,"30.16","53","55","0.00","BR:1 ||","+0.03","8","93","30.17","BKN:07 2","29.69","5.00","54","000",,"0",,,,,,,,,,,,,,,,,,,,,,,,,,,,,,,,,,,,,"MET11810/06/20 03:53:02 METAR KSEA 061153Z 00000KT 5SM BR BKN002 13/12 A3016 RMK AO2 SLP217 T01280117 10139 20122 58009 (LC)","FM-15","7",,,,,,,,,,,,,,,,,,,,,,,,,,,"2007-05-17"
"72793024233","2020-10-06T04:00:00","FM-12","4",,,,,,,,,,,,,,,,,,,,,,,,,,,,,,,,,,,,,,,,"53","55",,,"+0.03","8","93","30.17","2","29.68","4.97","54","000",,"0",,,,,,,,,,,,,,,,,,,,,,,,,,,,,,,,,,,,,"SYN08672793 31158 60000 10128 20117 30050 40217 58009 710// 91153 333 10200 20122 555 90612=","FM-12","4",,,,,,,,,,,,,,,,,,,,,,,,,,,"2007-05-17"
"72793024233","2020-10-06T04:53:00","FM-15","7",,,,,,,,,,,,,,,,,,,,,,,,,,,,,,,,,,,,,,,"30.15","53","55","0.00","BR:1 ||",,,"93","30.17","OVC:08 3","29.68","5.00","54","360",,"5",,,,,,,,,,,,,,,,,,,,,,,,,,,,,,,,,,,,,"MET10010/06/20 04:53:02 METAR KSEA 061253Z 36004KT 5SM BR OVC003 13/12 A3015 RMK AO2 SLP216 T01280117 (LC)","FM-15","7",,,,,,,,,,,,,,,,,,,,,,,,,,,"2007-05-17"
"72793024233","2020-10-06T05:01:00","FM-16","7",,,,,,,,,,,,,,,,,,,,,,,,,,,,,,,,,,,,,,,"30.16","53","55",,"BR:1 ||",,,"93",,"OVC:08 3","29.69","1.00","54","360",,"6",,,,,,,,,,,,,,,,,,,,,,,,,,,,,,,,,,,,,"MET11610/06/20 05:01:02 SPECI KSEA 061301Z 36005KT 1SM R16L/P6000FT BR OVC003 13/12 A3016 RMK AO2 SFC VIS 2 T01280117 (JC)","FM-16","7",,,,,,,,,,,,,,,,,,,,,,,,,,,"2007-05-17"
"72793024233","2020-10-06T05:50:00","FM-16","7",,,,,,,,,,,,,,,,,,,,,,,,,,,,,,,,,,,,,,,"30.15","54","55",,"BR:1 ||",,,"94",,"OVC:08 1","29.68","1.00","54","360",,"6",,,,,,,,,,,,,,,,,,,,,,,,,,,,,,,,,,,,,"MET09610/06/20 05:50:02 SPECI KSEA 061350Z 36005KT 1SM R16L/P6000FT BR OVC001 13/12 A3015 RMK AO2 (JC)","FM-16","7",,,,,,,,,,,,,,,,,,,,,,,,,,,"2007-05-17"
"72793024233","2020-10-06T05:53:00","FM-15","7",,,,,,,,,,,,,,,,,,,,,,,,,,,,,,,,,,,,,,,"30.15","53","55","0.00","BR:1 ||",,,"93","30.16","OVC:08 1","29.68","1.00","54","360",,"5",,,,,,,,,,,,,,,,,,,,,,,,,,,,,,,,,,,,,"MET11310/06/20 05:53:02 METAR KSEA 061353Z 36004KT 1SM R16L/P6000FT BR OVC001 13/12 A3015 RMK AO2 SLP215 T01280117 (JC)","FM-15","7",,,,,,,,,,,,,,,,,,,,,,,,,,,"2007-05-17"
"72793024233","2020-10-06T06:03:00","FM-16","7",,,,,,,,,,,,,,,,,,,,,,,,,,,,,,,,,,,,,,,"30.15","53","55",,"FG:2 |FG |",,,"93",,"OVC:08 1","29.68","0.50","54","020",,"7",,,,,,,,,,,,,,,,,,,,,,,,,,,,,,,,,,,,,"MET11310/06/20 06:03:02 SPECI KSEA 061403Z 02006KT 1/2SM R16L/3000VP6000FT FG OVC001 13/12 A3015 RMK AO2 T01280117 (JC)","FM-16","7",,,,,,,,,,,,,,,,,,,,,,,,,,,"2007-05-17"
"72793024233","2020-10-06T06:51:00","FM-16","6",,,,,,,,,,,,,,,,,,,,,,,,,,,,,,,,,,,,,,,"30.15","54","54",,"FG:2 |FG |",,,"100",,"VV:09 1","29.68","0.25","54","010",,"5",,,,,,,,,,,,,,,,,,,,,,,,,,,,,,,,,,,,,"MET10610/06/20 06:51:02 SPECI KSEA 061451Z 01004KT 1/4SM R16L/1000V1600FT FG VV001 12/12 A3015 RMK AO2 FIBI (JC)","FM-16","6",,,,,,,,,,,,,,,,,,,,,,,,,,,"2007-05-17"
"72793024233","2020-10-06T06:53:00","FM-15","7",,,,,,,,,,,,,,,,,,,,,,,,,,,,,,,,,,,,,,,"30.15","54","54","0.00","FG:2 |FG |","+0.01","8","100","30.16","VV:09 1","29.68","0.12","54","010",,"5",,,,,,,,,,,,,,,,,,,,,,,,,,,,,,,,,,,,,"MET13610/06/20 06:53:02 METAR KSEA 061453Z 01004KT 1/8SM R16L/1000V1400FT FG VV001 12/12 A3015 RMK AO2 SFC VIS 1/4 SLP215 T01220122 58003 (JC)","FM-15","7",,,,,,,,,,,,,,,,,,,,,,,,,,,"2007-05-17"
"72793024233","2020-10-06T07:17:00","FM-16","7",,,,,,,,,,,,,,,,,,,,,,,,,,,,,,,,,,,,,,,"30.15","54","55",,"FG:2 |FG |",,,"96",,"VV:09 1","29.68","0.12","54","360",,"5",,,,,,,,,,,,,,,,,,,,,,,,,,,,,,,,,,,,,"MET12310/06/20 07:17:02 SPECI KSEA 061517Z 36004KT 1/8SM R16L/0700V2400FT FG VV001 13/12 A3015 RMK AO2 SFC VIS 1/4 T01280122 (JC)","FM-16","7",,,,,,,,,,,,,,,,,,,,,,,,,,,"2007-05-17"
"72793024233","2020-10-06T07:27:00","FM-16","7",,,,,,,,,,,,,,,,,,,,,,,,,,,,,,,,,,,,,,,"30.15","54","55",,"FG:2 |FG |",,,"96",,"VV:09 1","29.68","0.12","54","350",,"6",,,,,,,,,,,,,,,,,,,,,,,,,,,,,,,,,,,,,"MET11110/06/20 07:27:02 SPECI KSEA 061527Z 35005KT 1/8SM R16L/0500V1000FT FG VV001 13/12 A3015 RMK AO2 T01280122 (JC)","FM-16","7",,,,,,,,,,,,,,,,,,,,,,,,,,,"2007-05-17"
"72793024233","2020-10-06T07:53:00","FM-15","7",,,,,,,,,,,,,,,,,,,,,,,,,,,,,,,,,,,,,,,"30.15","54","55","0.00","FG:2 |FG |",,,"96","30.17","VV:09 1","29.68","0.12","54","030",,"3",,,,,,,,,,,,,,,,,,,,,,,,,,,,,,,,,,,,,"MET11810/06/20 07:53:02 METAR KSEA 061553Z 03003KT 1/8SM R16L/0700V2000FT FG VV001 13/12 A3015 RMK AO2 SLP217 T01280122 (JC)","FM-15","7",,,,,,,,,,,,,,,,,,,,,,,,,,,"2007-05-17"
"72793024233","2020-10-06T08:02:00","FM-16","7",,,,,,,,,,,,,,,,,,,,,,,,,,,,,,,,,,,,,,,"30.15","54","55",,"FG:2 |FG |",,,"96",,"VV:09 1","29.68","0.12","54","020",,"5",,,,,,,,,,,,,,,,,,,,,,,,,,,,,,,,,,,,,"MET11110/06/20 08:02:02 SPECI KSEA 061602Z 02004KT 1/8SM R16L/0800V2400FT FG VV001 13/12 A3015 RMK AO2 T01280122 (JC)","FM-16","7",,,,,,,,,,,,,,,,,,,,,,,,,,,"2007-05-17"
"72793024233","2020-10-06T08:21:00","FM-16","7",,,,,,,,,,,,,,,,,,,,,,,,,,,,,,,,,,,,,,,"30.15","54","55",,"FG:2 |FG |",,,"96",,"VV:09 1","29.68","0.12","54","350",,"7",,,,,,,,,,,,,,,,,,,,,,,,,,,,,,,,,,,,,"MET11110/06/20 08:21:02 SPECI KSEA 061621Z 35006KT 1/8SM R16L/0800V1800FT FG VV001 13/12 A3015 RMK AO2 T01280122 (JC)","FM-16","7",,,,,,,,,,,,,,,,,,,,,,,,,,,"2007-05-17"
"72793024233","2020-10-06T08:53:00","FM-15","7",,,,,,,,,,,,,,,,,,,,,,,,,,,,,,,,,,,,,,,"30.15","55","56","0.00","FG:2 |FG |",,,"97","30.17","VV:09 1","29.68","0.12","55","010",,"3",,,,,,,,,,,,,,,,,,,,,,,,,,,,,,,,,,,,,"MET13010/06/20 08:53:02 METAR KSEA 061653Z 01003KT 1/8SM R16L/1400V2000FT FG VV001 13/13 A3015 RMK AO2 SFC VIS 1/4 SLP217 T01330128 (JC)","FM-15","7",,,,,,,,,,,,,,,,,,,,,,,,,,,"2007-05-17"
"72793024233","2020-10-06T09:01:00","FM-16","7",,,,,,,,,,,,,,,,,,,,,,,,,,,,,,,,,,,,,,,"30.15","55","56",,"FG:2 |FG |",,,"97",,"VV:09 1","29.68","0.12","55","340",,"3",,,,,,,,,,,,,,,,,,,,,,,,,,,,,,,,,,,,,"MET12310/06/20 09:01:02 SPECI KSEA 061701Z 34003KT 1/8SM R16L/1400V3000FT FG VV001 13/13 A3015 RMK AO2 SFC VIS 1/4 T01330128 (JC)","FM-16","7",,,,,,,,,,,,,,,,,,,,,,,,,,,"2007-05-17"
"72793024233","2020-10-06T09:36:00","FM-16","7",,,,,,,,,,,,,,,,,,,,,,,,,,,,,,,,,,,,,,,"30.14","55","58",,"BR:1 |s |",,,"90",,"OVC:08 3","29.67","0.50","56","020",,"6",,,,,,,,,,,,,,,,,,,,,,,,,,,,,,,,,,,,,"MET11810/06/20 09:36:02 SPECI KSEA 061736Z 02005KT 1/2SM R16L/P6000FT BR OVC003 14/13 A3014 RMK AO2 SFC VIS 1 T01440128 (JC)","FM-16","7",,,,,,,,,,,,,,,,,,,,,,,,,,,"2007-05-17"
"72793024233","2020-10-06T09:53:00","FM-15","7",,,,,,,,,,,,,,,,,,,,,,,,,,,,,,,,,,,,,,,"30.14","55","60","0.00","HZ:7 |FU |HZ","+0.01","8","84","30.16","BKN:07 3","29.67","2.00","57","020",,"5",,,,,,,,,,,,,,,,,,,,,,,,,,,,,,,,,,,,,"MET11810/06/20 09:53:02 METAR KSEA 061753Z 02004KT 2SM HZ BKN003 16/13 A3014 RMK AO2 SLP212 T01560128 10156 20122 58002 (JC)","FM-15","7",,,,,,,,,,,,,,,,,,,,,,,,,,,"2007-05-17"
"72793024233","2020-10-06T10:00:00","FM-12","4",,,,,,,,,,,,,,,,,,,,,,,,,,,,,,,,,,,,,,,,"55","60",,"||HZ","+0.01","8","84","30.16","2","29.66","1.99","57","020",,"5",,,,,,,,,,,,,,,,,,,,,,,,,,,,,,,,,,,,,"SYN08672793 31132 60204 10156 20128 30043 40212 58002 705// 91753 333 10156 20122 555 90618=","FM-12","4",,,,,,,,,,,,,,,,,,,,,,,,,,,"2007-05-17"
"72793024233","2020-10-06T10:04:00","FM-16","7",,,,,,,,,,,,,,,,,,,,,,,,,,,,,,,,,,,,,,,"30.14","55","61",,"HZ:7 |FU |HZ",,,"81",,"SCT:04 3","29.67","2.50","58","030",,"5",,,,,,,,,,,,,,,,,,,,,,,,,,,,,,,,,,,,,"MET09710/06/20 10:04:02 SPECI KSEA 061804Z 03004KT 2 1/2SM HZ SCT003 16/13 A3014 RMK AO2 T01610128 (JC)","FM-16","7",,,,,,,,,,,,,,,,,,,,,,,,,,,"2007-05-17"
"72793024233","2020-10-06T10:35:00","FM-16","7",,,,,,,,,,,,,,,,,,,,,,,,,,,,,,,,,,,,,,,"30.13","55","60",,"HZ:7 |FU |HZ",,,"84",,"FEW:02 3","29.66","4.00","57","230",,"7",,,,,,,,,,,,,,,,,,,,,,,,,,,,,,,,,,,,,"MET09310/06/20 10:35:02 SPECI KSEA 061835Z 23006KT 4SM HZ FEW003 16/13 A3013 RMK AO2 T01560128 (JC)","FM-16","7",,,,,,,,,,,,,,,,,,,,,,,,,,,"2007-05-17"
"72793024233","2020-10-06T10:53:00","FM-15","7",,,,,,,,,,,,,,,,,,,,,,,,,,,,,,,,,,,,,,,"30.13","55","62","0.00","HZ:7 |FU |HZ",,,"78","30.14","FEW:02 3","29.66","5.00","58","270",,"6",,,,,,,,,,,,,,,,,,,,,,,,,,,,,,,,,,,,,"MET10010/06/20 10:53:02 METAR KSEA 061853Z 27005KT 5SM HZ FEW003 17/13 A3013 RMK AO2 SLP208 T01670128 (JC)","FM-15","7",,,,,,,,,,,,,,,,,,,,,,,,,,,"2007-05-17"
"72793024233","2020-10-06T11:53:00","FM-15","7",,,,,,,,,,,,,,,,,,,,,,,,,,,,,,,,,,,,,,,"30.11","56","65","0.00",,,,"73","30.13","CLR:00","29.64","10.00","60","000",,"0",,,,,,,,,,,,,,,,,,,,,,,,,,,,,,,,,,,,,"MET09510/06/20 11:53:02 METAR KSEA 061953Z 00000KT 10SM CLR 18/13 A3011 RMK AO2 SLP203 T01830133 (JC)","FM-15","7",,,,,,,,,,,,,,,,,,,,,,,,,,,"2007-05-17"
"72793024233","2020-10-06T12:53:00","FM-15","7",,,,,,,,,,,,,,,,,,,,,,,,,,,,,,,,,,,,,,,"30.09","56","70","0.00",,"+0.05","8","61","30.11","CLR:00","29.62","10.00","62","010",,"8",,,,,,,,,,,,,,,,,,,,,,,,,,,,,,,,,,,,,"MET10110/06/20 12:53:02 METAR KSEA 062053Z 01007KT 10SM CLR 21/13 A3009 RMK AO2 SLP196 T02110133 58016 (JC)","FM-15","7",,,,,,,,,,,,,,,,,,,,,,,,,,,"2007-05-17"
"72793024233","2020-10-06T13:53:00","FM-15","7",,,,,,,,,,,,,,,,,,,,,,,,,,,,,,,,,,,,,,,"30.07","56","71","0.00",,,,"59","30.09","CLR:00","29.60","10.00","62","340",,"7",,,,,,,,,,,,,,,,,,,,,,,,,,,,,,,,,,,,,"MET09510/06/20 13:53:02 METAR KSEA 062153Z 34006KT 10SM CLR 22/13 A3007 RMK AO2 SLP188 T02170133 (RS)","FM-15","7",,,,,,,,,,,,,,,,,,,,,,,,,,,"2007-05-17"
"72793024233","2020-10-06T14:53:00","FM-15","7",,,,,,,,,,,,,,,,,,,,,,,,,,,,,,,,,,,,,,,"30.05","56","72","0.00",,,,"57","30.06","CLR:00","29.58","10.00","63","010",,"7",,,,,,,,,,,,,,,,,,,,,,,,,,,,,,,,,,,,,"MET09510/06/20 14:53:02 METAR KSEA 062253Z 01006KT 10SM CLR 22/13 A3005 RMK AO2 SLP179 T02220133 (RS)","FM-15","7",,,,,,,,,,,,,,,,,,,,,,,,,,,"2007-05-17"
"72793024233","2020-10-06T15:53:00","FM-15","7",,,,,,,,,,,,,,,,,,,,,,,,,,,,,,,,,,,,,,,"30.02","56","70","0.00",,"+0.07","6","61","30.04","CLR:00","29.55","10.00","62","290",,"7",,,,,,,,,,,,,,,,,,,,,,,,,,,,,,,,,,,,,"MET11310/06/20 15:53:02 METAR KSEA 062353Z 29006KT 10SM CLR 21/13 A3002 RMK AO2 SLP173 T02110133 10228 20150 56023 (RS)","FM-15","7",,,,,,,,,,,,,,,,,,,,,,,,,,,"2007-05-17"
"72793024233","2020-10-06T16:00:00","FM-12","4",,,,,,,,,,,,,,,,,,,,,,,,,,,,,,,,,,,,,,,,"56","70",,,"+0.07","6","61","30.04",,"29.54","9.94","62","290",,"7",,,,,,,,,,,,,,,,,,,,,,,,,,,,,,,,,,,,,"SYN08072793 32966 02906 10211 20133 30003 40173 56023 92353 333 10228 20122 555 90700=","FM-12","4",,,,,,,,,,,,,,,,,,,,,,,,,,,"2007-05-17"
"72793024233","2020-10-06T16:53:00","FM-15","7",,,,,,,,,,,,,,,,,,,,,,,,,,,,,,,,,,,,,,,"30.02","56","68","0.00",,,,"65","30.03","CLR:00","29.55","10.00","61","350",,"10",,,,,,,,,,,,,,,,,,,,,,,,,,,,,,,,,,,,,"MET09010/06/20 16:53:01 METAR KSEA 070053Z 35009KT 10SM CLR 20/13 A3002 RMK AO2 SLP170 T02000133","FM-15","7",,,,,,,,,,,,,,,,,,,,,,,,,,,"2007-05-17"
"72793024233","2020-10-06T17:53:00","FM-15","7",,,,,,,,,,,,,,,,,,,,,,,,,,,,,,,,,,,,,,,"30.01","55","64","0.00",,,,"73","30.02","CLR:00","29.54","10.00","59","350",,"6",,,,,,,,,,,,,,,,,,,,,,,,,,,,,,,,,,,,,"MET09010/06/20 17:53:01 METAR KSEA 070153Z 35005KT 10SM CLR 18/13 A3001 RMK AO2 SLP167 T01780128","FM-15","7",,,,,,,,,,,,,,,,,,,,,,,,,,,"2007-05-17"
"72793024233","2020-10-06T18:53:00","FM-15","7",,,,,,,,,,,,,,,,,,,,,,,,,,,,,,,,,,,,,,,"30.01","55","65","0.00",,"+0.01","5","70","30.03","CLR:00","29.54","10.00","59","020",,"9",,,,,,,,,,,,,,,,,,,,,,,,,,,,,,,,,,,,,"MET09610/06/20 18:53:01 METAR KSEA 070253Z 02008KT 10SM CLR 18/13 A3001 RMK AO2 SLP168 T01830128 55005","FM-15","7",,,,,,,,,,,,,,,,,,,,,,,,,,,"2007-05-17"
"72793024233","2020-10-06T19:53:00","FM-15","7",,,,,,,,,,,,,,,,,,,,,,,,,,,,,,,,,,,,,,,"30.01","55","62","0.00",,,,"78","30.02","CLR:00","29.54","10.00","58","020",,"6",,,,,,,,,,,,,,,,,,,,,,,,,,,,,,,,,,,,,"MET09010/06/20 19:53:02 METAR KSEA 070353Z 02005KT 10SM CLR 17/13 A3001 RMK AO2 SLP166 T01670128","FM-15","7",,,,,,,,,,,,,,,,,,,,,,,,,,,"2007-05-17"
"72793024233","2020-10-06T20:53:00","FM-15","7",,,,,,,,,,,,,,,,,,,,,,,,,,,,,,,,,,,,,,,"30.01","54","60","0.00",,,,"80","30.02","CLR:00","29.54","10.00","57","360",,"7",,,,,,,,,,,,,,,,,,,,,,,,,,,,,,,,,,,,,"MET09010/06/20 20:53:02 METAR KSEA 070453Z 36006KT 10SM CLR 16/12 A3001 RMK AO2 SLP166 T01560122","FM-15","7",,,,,,,,,,,,,,,,,,,,,,,,,,,"2007-05-17"
"72793024233","2020-10-06T21:53:00","FM-15","7",,,,,,,,,,,,,,,,,,,,,,,,,,,,,,,,,,,,,,,"30.00","54","61","0.00",,"+0.01","6","78","30.02","CLR:00","29.53","10.00","57","020",,"11",,,,,,,,,,,,,,,,,,,,,,,,,,,,,,,,,,,,,"MET10810/06/20 21:53:02 METAR KSEA 070553Z 02010KT 10SM CLR 16/12 A3000 RMK AO2 SLP165 T01610122 10217 20156 56002","FM-15","7",,,,,,,,,,,,,,,,,,,,,,,,,,,"2007-05-17"
"72793024233","2020-10-06T22:00:00","FM-12","4",,,,,,,,,,,,,,,,,,,,,,,,,,,,,,,,,,,,,,,,"54","61",,,"+0.01","6","78","30.02",,"29.52","9.94","57","020",,"11",,,,,,,,,,,,,,,,,,,,,,,,,,,,,,,,,,,,,"SYN08072793 32966 00210 10161 20122 39996 40165 56002 90553 333 10217 20122 555 90706=","FM-12","4",,,,,,,,,,,,,,,,,,,,,,,,,,,"2007-05-17"
"72793024233","2020-10-06T22:53:00","FM-15","7",,,,,,,,,,,,,,,,,,,,,,,,,,,,,,,,,,,,,,,"30.00","54","60","0.00",,,,"80","30.01","CLR:00","29.53","10.00","57","020",,"7",,,,,,,,,,,,,,,,,,,,,,,,,,,,,,,,,,,,,"MET09010/06/20 22:53:02 METAR KSEA 070653Z 02006KT 10SM CLR 16/12 A3000 RMK AO2 SLP163 T01560122","FM-15","7",,,,,,,,,,,,,,,,,,,,,,,,,,,"2007-05-17"
"72793024233","2020-10-06T23:53:00","FM-15","7",,,,,,,,,,,,,,,,,,,,,,,,,,,,,,,,,,,,,,,"29.99","54","59","0.00",,,,"83","30.00","CLR:00","29.52","10.00","56","010",,"8",,,,,,,,,,,,,,,,,,,,,,,,,,,,,,,,,,,,,"MET10010/06/20 23:53:02 METAR KSEA 070753Z 01007KT 10SM CLR 15/12 A2999 RMK AO2 SLP159 T01500122 402280122","FM-15","7",,,,,,,,,,,,,,,,,,,,,,,,,,,"2007-05-17"
"72793024233","2020-10-06T23:59:00","SOD  ","6",,,,,,,,,,,,,,,,,"55","64","80","30.10","29.61","57","5.8","0","8.5","1","73","54","010","16","0.00","0","0.0","020","13","FG BR HZ",,,,,,,,,,,,,,,,,,,,,,,,,,,,,,,,,,,,,,,,,,,,,,,,,,,,,,,"SOD75724 HR PRECIPITATION (IN): 0.00 SNOW DEPTH (IN):0     24 HR SNOWFALL (IN):0.0  WEATHER(CODE):12  24 HR MAX TEMP (F): 7324 HR MIN TEMP (F): 54AVERAGE STATION PRESSURE:29.610 MINIMUM SEA LEVEL PRESSURE:30.00 TIME OF OCCURRENCE:2359 PEAK WIND SPEED (MPH): 16 PEAK WIND DIR (DEG): 10 PEAK WIND TIME (LST):      FASTEST 2MIN SPEED (MPH): 13FASTEST 2MIN DIR (DEG): 20 FASTEST 2MIN TIME (LST):     AVERAGE WIND SPEED (MPH): 5.8 24 HR AVG TEMP (F): 64DEPART FROM NORMAL:  8  HEATING DEGREE DAYS:  1 COOLING DEGREE DAYS:  0 LATEST DAY MAX TEMP (0700-1900 LST):73  LATEST NIGHT MIN TEMP(1900-0800 LST):54 HOURLY INCREMENTAL PRECIPITATION VALUES (IN):.00 0.00 0.00 0.00 0.00 0.00 0.00 0.00 0.00 0.00 0.00 0.00 0.00 0.00 0.00 0.00 0.00 0.00 0.00 0.00 0.00 0.00 0.00 0.00","SOD  ","6",,,,,,,,,,,,,,,,,,,,,,,,,"0616","1737","2007-05-17"
"72793024233","2020-10-07T00:53:00","FM-15","7",,,,,,,,,,,,,,,,,,,,,,,,,,,,,,,,,,,,,,,"29.98","53","57","0.00",,"+0.03","8","87","29.99","CLR:00","29.51","10.00","55","360",,"6",,,,,,,,,,,,,,,,,,,,,,,,,,,,,,,,,,,,,"MET10110/07/20 00:53:02 METAR KSEA 070853Z 36005KT 10SM CLR 14/12 A2998 RMK AO2 SLP155 T01390117 58009 (TL)","FM-15","7",,,,,,,,,,,,,,,,,,,,,,,,,,,"2007-05-17"
"72793024233","2020-10-07T01:53:00","FM-15","7",,,,,,,,,,,,,,,,,,,,,,,,,,,,,,,,,,,,,,,"29.97","54","56","0.00",,,,"93","29.98","CLR:00","29.50","10.00","55","010",,"6",,,,,,,,,,,,,,,,,,,,,,,,,,,,,,,,,,,,,"MET09510/07/20 01:53:02 METAR KSEA 070953Z 01005KT 10SM CLR 13/12 A2997 RMK AO2 SLP153 T01330122 (TL)","FM-15","7",,,,,,,,,,,,,,,,,,,,,,,,,,,"2007-05-17"
"72793024233","2020-10-07T02:53:00","FM-15","7",,,,,,,,,,,,,,,,,,,,,,,,,,,,,,,,,,,,,,,"29.96","54","57","0.00",,,,"90","29.97","CLR:00","29.49","10.00","55","020",,"5",,,,,,,,,,,,,,,,,,,,,,,,,,,,,,,,,,,,,"MET09510/07/20 02:53:02 METAR KSEA 071053Z 02004KT 10SM CLR 14/12 A2996 RMK AO2 SLP148 T01390122 (TL)","FM-15","7",,,,,,,,,,,,,,,,,,,,,,,,,,,"2007-05-17"
"72793024233","2020-10-07T03:51:00","FM-16","6",,,,,,,,,,,,,,,,,,,,,,,,,,,,,,,,,,,,,,,"29.95","54","55",,,,,"94",,"FEW:02 3","29.48","9.00","54","030",,"5",,,,,,,,,,,,,,,,,,,,,,,,,,,,,,,,,,,,,"MET08510/07/20 03:51:02 SPECI KSEA 071151Z 03004KT 9SM FEW003 13/12 A2995 RMK AO2 FIBI (TL)","FM-16","6",,,,,,,,,,,,,,,,,,,,,,,,,,,"2007-05-17"
"72793024233","2020-10-07T03:53:00","FM-15","7",,,,,,,,,,,,,,,,,,,,,,,,,,,,,,,,,,,,,,,"29.95","54","56","0.00",,"+0.03","7","93","29.96","FEW:02 3","29.48","9.00","55","030",,"5",,,,,,,,,,,,,,,,,,,,,,,,,,,,,,,,,,,,,"MET11510/07/20 03:53:02 METAR KSEA 071153Z 03004KT 9SM FEW003 13/12 A2995 RMK AO2 SLP147 T01330122 10161 20133 57009 (TL)","FM-15","7",,,,,,,,,,,,,,,,,,,,,,,,,,,"2007-05-17"
"72793024233","2020-10-07T04:00:00","FM-12","4",,,,,,,,,,,,,,,,,,,,,,,,,,,,,,,,,,,,,,,,"54","56",,,"+0.03","7","93","29.96","2","29.47","8.70","55","030",,"5",,,,,,,,,,,,,,,,,,,,,,,,,,,,,,,,,,,,,"SYN08072793 32164 20304 10133 20122 39979 40147 57009 91153 333 10228 20133 555 90712=","FM-12","4",,,,,,,,,,,,,,,,,,,,,,,,,,,"2007-05-17"
"72793024233","2020-10-07T04:19:00","FM-16","7",,,,,,,,,,,,,,,,,,,,,,,,,,,,,,,,,,,,,,,"29.94","54","56",,,,,"93",,"BKN:07 6","29.47","9.00","55","070",,"5",,,,,,,,,,,,,,,,,,,,,,,,,,,,,,,,,,,,,"MET09010/07/20 04:19:02 SPECI KSEA 071219Z 07004KT 9SM BKN006 13/12 A2994 RMK AO2 T01330122 (TL)","FM-16","7",,,,,,,,,,,,,,,,,,,,,,,,,,,"2007-05-17"
"72793024233","2020-10-07T04:42:00","FM-16","7",,,,,,,,,,,,,,,,,,,,,,,,,,,,,,,,,,,,,,,"29.94","55","57",,,,,"93",,"OVC:08 4","29.47","8.00","56","070",,"5",,,,,,,,,,,,,,,,,,,,,,,,,,,,,,,,,,,,,"MET09010/07/20 04:42:02 SPECI KSEA 071242Z 07004KT 8SM OVC004 14/13 A2994 RMK AO2 T01390128 (TL)","FM-16","7",,,,,,,,,,,,,,,,,,,,,,,,,,,"2007-05-17"
"72793024233","2020-10-07T04:51:00","FM-16","6",,,,,,,,,,,,,,,,,,,,,,,,,,,,,,,,,,,,,,,"29.94","55","57",,,,,"94",,"OVC:08 4","29.47","2.00","56","050",,"6",,,,,,,,,,,,,,,,,,,,,,,,,,,,,,,,,,,,,"MET09510/07/20 04:51:02 SPECI KSEA 071251Z 05005KT 2SM OVC004 14/13 A2994 RMK AO2 SFC VIS 7 FIBI (TL)","FM-16","6",,,,,,,,,,,,,,,,,,,,,,,,,,,"2007-05-17"
"72793024233","2020-10-07T04:53:00","FM-15","7",,,,,,,,,,,,,,,,,,,,,,,,,,,,,,,,,,,,,,,"29.94","55","57","0.00",,,,"93","29.96","OVC:08 4","29.47","2.00","56","050",,"5",,,,,,,,,,,,,,,,,,,,,,,,,,,,,,,,,,,,,"MET10710/07/20 04:53:02 METAR KSEA 071253Z 05004KT 2SM OVC004 14/13 A2994 RMK AO2 SFC VIS 7 SLP144 T01390128 (TL)","FM-15","7",,,,,,,,,,,,,,,,,,,,,,,,,,,"2007-05-17"
"72793024233","2020-10-07T05:53:00","FM-15","7",,,,,,,,,,,,,,,,,,,,,,,,,,,,,,,,,,,,,,,"29.93","56","58","0.00","BR:1 ||",,,"93","29.95","OVC:08 2","29.47","0.75","57","020",,"5",,,,,,,,,,,,,,,,,,,,,,,,,,,,,,,,,,,,,"MET12910/07/20 05:53:02 METAR KSEA 071353Z 02004KT 3/4SM R16L/P6000FT BR OVC002 14/13 A2993 RMK AO2 SFC VIS 1 1/2 SLP142 T01440133 (JC)","FM-15","7",,,,,,,,,,,,,,,,,,,,,,,,,,,"2007-05-17"
"72793024233","2020-10-07T06:53:00","FM-15","7",,,,,,,,,,,,,,,,,,,,,,,,,,,,,,,,,,,,,,,"29.94","55","57","0.00","BR:1 |s |","+0.01","5","93","29.95","OVC:08 2","29.47","0.50","56","060",,"6",,,,,,,,,,,,,,,,,,,,,,,,,,,,,,,,,,,,,"MET13810/07/20 06:53:02 METAR KSEA 071453Z 06005KT 1/2SM R16L/5000VP6000FT BR OVC002 14/13 A2994 RMK AO2 SFC VIS 3/4 SLP143 T01390128 55004 (JC)","FM-15","7",,,,,,,,,,,,,,,,,,,,,,,,,,,"2007-05-17"
"72793024233","2020-10-07T07:53:00","FM-15","7",,,,,,,,,,,,,,,,,,,,,,,,,,,,,,,,,,,,,,,"29.94","56","58","0.00","BR:1 |s |",,,"93","29.96","OVC:08 2","29.47","0.50","57","050",,"9",,,,,,,,,,,,,,,,,,,,,,,,,,,,,,,,,,,,,"MET13210/07/20 07:53:02 METAR KSEA 071553Z 05008KT 1/2SM R16L/6000VP6000FT BR OVC002 14/13 A2994 RMK AO2 SFC VIS 3/4 SLP145 T01440133 (JC)","FM-15","7",,,,,,,,,,,,,,,,,,,,,,,,,,,"2007-05-17"
"72793024233","2020-10-07T08:53:00","FM-15","7",,,,,,,,,,,,,,,,,,,,,,,,,,,,,,,,,,,,,,,"29.94","56","58","0.00","BR:1 |s |",,,"93","29.96","OVC:08 2","29.47","0.50","57","020",,"6",,,,,,,,,,,,,,,,,,,,,,,,,,,,,,,,,,,,,"MET13210/07/20 08:53:02 METAR KSEA 071653Z 02005KT 1/2SM R16L/2600VP6000FT BR OVC002 14/13 A2994 RMK AO2 SFC VIS 3/4 SLP145 T01440133 (JC)","FM-15","7",,,,,,,,,,,,,,,,,,,,,,,,,,,"2007-05-17"
"72793024233","2020-10-07T09:53:00","FM-15","7",,,,,,,,,,,,,,,,,,,,,,,,,,,,,,,,,,,,,,,"29.94","56","59","0.00","BR:1 ||","+0.00","8","90","29.95","OVC:08 2","29.47","1.50","57","010",,"6",,,,,,,,,,,,,,,,,,,,,,,,,,,,,,,,,,,,,"MET12210/07/20 09:53:02 METAR KSEA 071753Z 01005KT 1 1/2SM BR OVC002 15/13 A2994 RMK AO2 SLP143 T01500133 10156 20133 58000 (JC)","FM-15","7",,,,,,,,,,,,,,,,,,,,,,,,,,,"2007-05-17"
"72793024233","2020-10-07T10:00:00","FM-12","4",,,,,,,,,,,,,,,,,,,,,,,,,,,,,,,,,,,,,,,,"56","59",,,,,"90","29.95","2","29.46","1.49","57","010",,"6",,,,,,,,,,,,,,,,,,,,,,,,,,,,,,,,,,,,,"SYN08672793 31124 80105 10150 20133 39976 40143 58000 710// 91753 333 10161 20133 555 90718=","FM-12","4",,,,,,,,,,,,,,,,,,,,,,,,,,,"2007-05-17"
"72793024233","2020-10-07T10:48:00","FM-16","7",,,,,,,,,,,,,,,,,,,,,,,,,,,,,,,,,,,,,,,"29.93","55","59",,"BR:1 ||",,,"88",,"OVC:08 4","29.47","3.00","57","300",,"3",,,,,,,,,,,,,,,,,,,,,,,,,,,,,,,,,,,,,"MET08310/07/20 10:48:02 SPECI KSEA 071848Z 30003KT 3SM BR OVC004 15/13 A2993 RMK AO2 (JC)","FM-16","7",,,,,,,,,,,,,,,,,,,,,,,,,,,"2007-05-17"
"72793024233","2020-10-07T10:53:00","FM-15","7",,,,,,,,,,,,,,,,,,,,,,,,,,,,,,,,,,,,,,,"29.93","56","60","0.00","BR:1 ||",,,"86","29.94","OVC:08 4","29.47","3.00","58","310",,"3",,,,,,,,,,,,,,,,,,,,,,,,,,,,,,,,,,,,,"MET10010/07/20 10:53:02 METAR KSEA 071853Z 31003KT 3SM BR OVC004 16/13 A2993 RMK AO2 SLP139 T01560133 (JC)","FM-15","7",,,,,,,,,,,,,,,,,,,,,,,,,,,"2007-05-17"
"72793024233","2020-10-07T11:13:00","FM-16","7",,,,,,,,,,,,,,,,,,,,,,,,,,,,,,,,,,,,,,,"29.92","56","60",,"BR:1 ||",,,"86",,"OVC:08 5","29.45","4.00","58","250",,"5",,,,,,,,,,,,,,,,,,,,,,,,,,,,,,,,,,,,,"MET09310/07/20 11:13:02 SPECI KSEA 071913Z 25004KT 4SM BR OVC005 16/13 A2992 RMK AO2 T01560133 (JC)","FM-16","7",,,,,,,,,,,,,,,,,,,,,,,,,,,"2007-05-17"
"72793024233","2020-10-07T11:53:00","FM-15","7",,,,,,,,,,,,,,,,,,,,,,,,,,,,,,,,,,,,,,,"29.92","56","60","0.00","BR:1 ||",,,"86","29.93","OVC:08 5","29.45","3.00","58","000",,"0",,,,,,,,,,,,,,,,,,,,,,,,,,,,,,,,,,,,,"MET11010/07/20 11:53:02 METAR KSEA 071953Z 00000KT 3SM BR OVC005 16/13 A2992 RMK AO2 SFC VIS 4 SLP135 T01560133 (JC)","FM-15","7",,,,,,,,,,,,,,,,,,,,,,,,,,,"2007-05-17"
"72793024233","2020-10-07T12:53:00","FM-15","7",,,,,,,,,,,,,,,,,,,,,,,,,,,,,,,,,,,,,,,"29.90","56","60","0.00","BR:1 ||","+0.04","8","86","29.91","OVC:08 7","29.44","5.00","58","240",,"5",,,,,,,,,,,,,,,,,,,,,,,,,,,,,,,,,,,,,"MET10610/07/20 12:53:02 METAR KSEA 072053Z 24004KT 5SM BR OVC007 16/13 A2990 RMK AO2 SLP130 T01560133 58012 (JC)","FM-15","7",,,,,,,,,,,,,,,,,,,,,,,,,,,"2007-05-17"
"72793024233","2020-10-07T13:53:00","FM-15","7",,,,,,,,,,,,,,,,,,,,,,,,,,,,,,,,,,,,,,,"29.88","56","60","0.00","BR:1 ||",,,"86","29.90","OVC:08 8","29.41","6.00","58","230",,"5",,,,,,,,,,,,,,,,,,,,,,,,,,,,,,,,,,,,,"MET10010/07/20 13:53:02 METAR KSEA 072153Z 23004KT 6SM BR OVC008 16/13 A2988 RMK AO2 SLP124 T01560133 (RS)","FM-15","7",,,,,,,,,,,,,,,,,,,,,,,,,,,"2007-05-17"
"72793024233","2020-10-07T14:53:00","FM-15","7",,,,,,,,,,,,,,,,,,,,,,,,,,,,,,,,,,,,,,,"29.87","57","60","0.00","BR:1 ||",,,"90","29.89","OVC:08 7","29.41","6.00","58","170",,"5",,,,,,,,,,,,,,,,,,,,,,,,,,,,,,,,,,,,,"MET10010/07/20 14:53:02 METAR KSEA 072253Z 17004KT 6SM BR OVC007 16/14 A2987 RMK AO2 SLP121 T01560139 (RS)","FM-15","7",,,,,,,,,,,,,,,,,,,,,,,,,,,"2007-05-17"
"72793024233","2020-10-07T15:53:00","FM-15","7",,,,,,,,,,,,,,,,,,,,,,,,,,,,,,,,,,,,,,,"29.86","57","60","0.00","BR:1 ||","+0.04","6","90","29.88","OVC:08 6","29.39","5.00","58","000",,"0",,,,,,,,,,,,,,,,,,,,,,,,,,,,,,,,,,,,,"MET11810/07/20 15:53:02 METAR KSEA 072353Z 00000KT 5SM BR OVC006 16/14 A2986 RMK AO2 SLP117 T01560139 10161 20150 56013 (RS)","FM-15","7",,,,,,,,,,,,,,,,,,,,,,,,,,,"2007-05-17"
"72793024233","2020-10-07T16:00:00","FM-12","4",,,,,,,,,,,,,,,,,,,,,,,,,,,,,,,,,,,,,,,,"57","60",,,"+0.04","6","90","29.88","5","29.38","4.97","58","000",,"0",,,,,,,,,,,,,,,,,,,,,,,,,,,,,,,,,,,,,"SYN08672793 31258 80000 10156 20139 39949 40117 56013 710// 92353 333 10161 20133 555 90800=","FM-12","4",,,,,,,,,,,,,,,,,,,,,,,,,,,"2007-05-17"
"72793024233","2020-10-07T16:39:00","FM-16","7",,,,,,,,,,,,,,,,,,,,,,,,,,,,,,,,,,,,,,,"29.86","57","60",,"BR:1 ||",,,"90",,"SCT:04 7 BKN:07 250","29.39","5.00","58","200",,"3",,,,,,,,,,,,,,,,,,,,,,,,,,,,,,,,,,,,,"MET09510/07/20 16:39:01 SPECI KSEA 080039Z 20003KT 5SM BR SCT007 BKN250 16/14 A2986 RMK AO2 T01560139","FM-16","7",,,,,,,,,,,,,,,,,,,,,,,,,,,"2007-05-17"
"72793024233","2020-10-07T16:53:00","FM-15","7",,,,,,,,,,,,,,,,,,,,,,,,,,,,,,,,,,,,,,,"29.86","57","60","0.00","BR:1 ||",,,"90","29.87","SCT:04 8 BKN:07 250","29.39","5.00","58","000",,"0",,,,,,,,,,,,,,,,,,,,,,,,,,,,,,,,,,,,,"MET10210/07/20 16:53:01 METAR KSEA 080053Z 00000KT 5SM BR SCT008 BKN250 16/14 A2986 RMK AO2 SLP115 T01560139","FM-15","7",,,,,,,,,,,,,,,,,,,,,,,,,,,"2007-05-17"
"72793024233","2020-10-07T17:53:00","FM-15","7",,,,,,,,,,,,,,,,,,,,,,,,,,,,,,,,,,,,,,,"29.85","56","59","0.00","BR:1 ||",,,"90","29.86","FEW:02 10 FEW:02 40 SCT:04 250","29.39","6.00","57","130",,"7",,,,,,,,,,,,,,,,,,,,,,,,,,,,,,,,,,,,,"MET10910/07/20 17:53:01 METAR KSEA 080153Z 13006KT 6SM BR FEW010 FEW040 SCT250 15/13 A2985 RMK AO2 SLP112 T01500133","FM-15","7",,,,,,,,,,,,,,,,,,,,,,,,,,,"2007-05-17"
"72793024233","2020-10-07T18:53:00","FM-15","7",,,,,,,,,,,,,,,,,,,,,,,,,,,,,,,,,,,,,,,"29.85","57","60","0.00",,"+0.01","5","90","29.86","FEW:02 250","29.39","7.00","58","140",,"5",,,,,,,,,,,,,,,,,,,,,,,,,,,,,,,,,,,,,"MET09810/07/20 18:53:01 METAR KSEA 080253Z 14004KT 7SM FEW250 16/14 A2985 RMK AO2 SLP113 T01560139 55005","FM-15","7",,,,,,,,,,,,,,,,,,,,,,,,,,,"2007-05-17"
"72793024233","2020-10-07T19:53:00","FM-15","7",,,,,,,,,,,,,,,,,,,,,,,,,,,,,,,,,,,,,,,"29.85","55","57","0.00","BR:1 ||",,,"93","29.86","CLR:00","29.39","5.00","56","270",,"3",,,,,,,,,,,,,,,,,,,,,,,,,,,,,,,,,,,,,"MET09210/07/20 19:53:02 METAR KSEA 080353Z 27003KT 5SM BR CLR 14/13 A2985 RMK AO2 SLP113 T01390128","FM-15","7",,,,,,,,,,,,,,,,,,,,,,,,,,,"2007-05-17"
"72793024233","2020-10-07T20:53:00","FM-15","7",,,,,,,,,,,,,,,,,,,,,,,,,,,,,,,,,,,,,,,"29.85","55","58","0.00",,,,"90","29.86","SCT:04 23","29.39","7.00","56","130",,"5",,,,,,,,,,,,,,,,,,,,,,,,,,,,,,,,,,,,,"MET09210/07/20 20:53:02 METAR KSEA 080453Z 13004KT 7SM SCT023 14/13 A2985 RMK AO2 SLP113 T01440128","FM-15","7",,,,,,,,,,,,,,,,,,,,,,,,,,,"2007-05-17"
"72793024233","2020-10-07T21:53:00","FM-15","7",,,,,,,,,,,,,,,,,,,,,,,,,,,,,,,,,,,,,,,"29.85","55","57","0.00",,"-0.00","1","93","29.86","FEW:02 23 SCT:04 45","29.39","7.00","56","150",,"6",,,,,,,,,,,,,,,,,,,,,,,,,,,,,,,,,,,,,"MET11710/07/20 21:53:02 METAR KSEA 080553Z 15005KT 7SM FEW023 SCT045 14/13 A2985 RMK AO2 SLP113 T01390128 10161 20133 51000","FM-15","7",,,,,,,,,,,,,,,,,,,,,,,,,,,"2007-05-17"
"72793024233","2020-10-07T22:00:00","FM-12","4",,,,,,,,,,,,,,,,,,,,,,,,,,,,,,,,,,,,,,,,"55","57",,,,,"93","29.86","26","29.37","6.84","56","150",,"6",,,,,,,,,,,,,,,,,,,,,,,,,,,,,,,,,,,,,"SYN08072793 32561 41505 10139 20128 39946 40113 51000 90553 333 10161 20133 555 90806=","FM-12","4",,,,,,,,,,,,,,,,,,,,,,,,,,,"2007-05-17"
"72793024233","2020-10-07T22:53:00","FM-15","7",,,,,,,,,,,,,,,,,,,,,,,,,,,,,,,,,,,,,,,"29.85","57","60","0.00",,,,"90","29.87","FEW:02 23 BKN:07 40","29.39","7.00","58","140",,"6",,,,,,,,,,,,,,,,,,,,,,,,,,,,,,,,,,,,,"MET09910/07/20 22:53:02 METAR KSEA 080653Z 14005KT 7SM FEW023 BKN040 16/14 A2985 RMK AO2 SLP114 T01560139","FM-15","7",,,,,,,,,,,,,,,,,,,,,,,,,,,"2007-05-17"
"72793024233","2020-10-07T23:53:00","FM-15","7",,,,,,,,,,,,,,,,,,,,,,,,,,,,,,,,,,,,,,,"29.86","56","57","0.00",,,,"96","29.87","FEW:02 23 SCT:04 40","29.39","9.00","56","190",,"5",,,,,,,,,,,,,,,,,,,,,,,,,,,,,,,,,,,,,"MET10910/07/20 23:53:02 METAR KSEA 080753Z 19004KT 9SM FEW023 SCT040 14/13 A2986 RMK AO2 SLP115 T01390133 401610133","FM-15","7",,,,,,,,,,,,,,,,,,,,,,,,,,,"2007-05-17"
"72793024233","2020-10-07T23:59:00","SOD  ","6",,,,,,,,,,,,,,,,,"56","59","91","29.92","29.43","57","4.6","0","3.8","6","61","56","040","12","0.00","0","0.0","030","10","BR",,,,,,,,,,,,,,,,,,,,,,,,,,,,,,,,,,,,,,,,,,,,,,,,,,,,,,,"SOD75824 HR PRECIPITATION (IN): 0.00 SNOW DEPTH (IN):0     24 HR SNOWFALL (IN):0.0  WEATHER(CODE):128  24 HR MAX TEMP (F): 6124 HR MIN TEMP (F): 56AVERAGE STATION PRESSURE:29.430 MINIMUM SEA LEVEL PRESSURE:29.86 TIME OF OCCURRENCE:2232 PEAK WIND SPEED (MPH): 12 PEAK WIND DIR (DEG): 40 PEAK WIND TIME (LST):      FASTEST 2MIN SPEED (MPH): 10FASTEST 2MIN DIR (DEG): 30 FASTEST 2MIN TIME (LST):     AVERAGE WIND SPEED (MPH): 4.6 24 HR AVG TEMP (F): 59DEPART FROM NORMAL:  4  HEATING DEGREE DAYS:  6 COOLING DEGREE DAYS:  0 LATEST DAY MAX TEMP (0700-1900 LST):61  LATEST NIGHT MIN TEMP(1900-0800 LST):56 HOURLY INCREMENTAL PRECIPITATION VALUES (IN):.00 0.00 0.00 0.00 0.00 0.00 0.00 0.00 0.00 0.00 0.00 0.00 0.00 0.00 0.00 0.00 0.00 0.00 0.00 0.00 0.00 0.00 0.00 0.00","SOD  ","6",,,,,,,,,,,,,,,,,,,,,,,,,"0618","1735","2007-05-17"
"72793024233","2020-10-08T00:39:00","FM-16","7",,,,,,,,,,,,,,,,,,,,,,,,,,,,,,,,,,,,,,,"29.86","55","57",,,,,"93",,"FEW:02 8 BKN:07 37","29.39","9.00","56","200",,"5",,,,,,,,,,,,,,,,,,,,,,,,,,,,,,,,,,,,,"MET09710/08/20 00:39:02 SPECI KSEA 080839Z 20004KT 9SM FEW008 BKN037 14/13 A2986 RMK AO2 T01390128 (TL)","FM-16","7",,,,,,,,,,,,,,,,,,,,,,,,,,,"2007-05-17"
"72793024233","2020-10-08T00:46:00","FM-16","7",,,,,,,,,,,,,,,,,,,,,,,,,,,,,,,,,,,,,,,"29.86","56","58",,,,,"93",,"BKN:07 8","29.39","8.00","57","190",,"7",,,,,,,,,,,,,,,,,,,,,,,,,,,,,,,,,,,,,"MET09010/08/20 00:46:02 SPECI KSEA 080846Z 19006KT 8SM BKN008 14/13 A2986 RMK AO2 T01440133 (TL)","FM-16","7",,,,,,,,,,,,,,,,,,,,,,,,,,,"2007-05-17"
"72793024233","2020-10-08T00:53:00","FM-15","7",,,,,,,,,,,,,,,,,,,,,,,,,,,,,,,,,,,,,,,"29.86","56","58","0.00",,"-0.01","1","93","29.87","BKN:07 8","29.39","8.00","57","210",,"7",,,,,,,,,,,,,,,,,,,,,,,,,,,,,,,,,,,,,"MET10310/08/20 00:53:02 METAR KSEA 080853Z 21006KT 8SM BKN008 14/13 A2986 RMK AO2 SLP116 T01440133 51003 (TL)","FM-15","7",,,,,,,,,,,,,,,,,,,,,,,,,,,"2007-05-17"
"72793024233","2020-10-08T01:29:00","FM-16","7",,,,,,,,,,,,,,,,,,,,,,,,,,,,,,,,,,,,,,,"29.86","56","58",,,,,"93",,"OVC:08 4","29.39","9.00","57","240",,"6",,,,,,,,,,,,,,,,,,,,,,,,,,,,,,,,,,,,,"MET09010/08/20 01:29:02 SPECI KSEA 080929Z 24005KT 9SM OVC004 14/13 A2986 RMK AO2 T01440133 (TL)","FM-16","7",,,,,,,,,,,,,,,,,,,,,,,,,,,"2007-05-17"
"72793024233","2020-10-08T01:51:00","FM-16","6",,,,,,,,,,,,,,,,,,,,,,,,,,,,,,,,,,,,,,,"29.86","55","57",,,,,"94",,"OVC:08 3","29.39","2.00","56","220",,"8",,,,,,,,,,,,,,,,,,,,,,,,,,,,,,,,,,,,,"MET09510/08/20 01:51:02 SPECI KSEA 080951Z 22007KT 2SM OVC003 14/13 A2986 RMK AO2 SFC VIS 7 FIBI (TL)","FM-16","6",,,,,,,,,,,,,,,,,,,,,,,,,,,"2007-05-17"
"72793024233","2020-10-08T01:53:00","FM-15","7",,,,,,,,,,,,,,,,,,,,,,,,,,,,,,,,,,,,,,,"29.86","56","57","0.00",,,,"96","29.88","OVC:08 3","29.39","2.00","56","220",,"7",,,,,,,,,,,,,,,,,,,,,,,,,,,,,,,,,,,,,"MET10710/08/20 01:53:02 METAR KSEA 080953Z 22006KT 2SM OVC003 14/13 A2986 RMK AO2 SFC VIS 7 SLP117 T01390133 (TL)","FM-15","7",,,,,,,,,,,,,,,,,,,,,,,,,,,"2007-05-17"
"72793024233","2020-10-08T02:53:00","FM-15","7",,,,,,,,,,,,,,,,,,,,,,,,,,,,,,,,,,,,,,,"29.86","55","57","0.00",,,,"93","29.87","OVC:08 3","29.39","3.00","56","220",,"6",,,,,,,,,,,,,,,,,,,,,,,,,,,,,,,,,,,,,"MET10710/08/20 02:53:02 METAR KSEA 081053Z 22005KT 3SM OVC003 14/13 A2986 RMK AO2 SFC VIS 7 SLP116 T01390128 (TL)","FM-15","7",,,,,,,,,,,,,,,,,,,,,,,,,,,"2007-05-17"
"72793024233","2020-10-08T03:53:00","FM-15","7",,,,,,,,,,,,,,,,,,,,,,,,,,,,,,,,,,,,,,,"29.87","54","57","0.00",,"-0.01","3","90","29.88","OVC:08 4","29.41","3.00","55","230",,"9",,,,,,,,,,,,,,,,,,,,,,,,,,,,,,,,,,,,,"MET12610/08/20 03:53:02 METAR KSEA 081153Z 23008KT 3SM OVC004 14/12 A2987 RMK AO2 SFC VIS 10 SLP120 T01390122 10156 20139 53004 (TL)","FM-15","7",,,,,,,,,,,,,,,,,,,,,,,,,,,"2007-05-17"
"72793024233","2020-10-08T04:00:00","FM-12","4",,,,,,,,,,,,,,,,,,,,,,,,,,,,,,,,,,,,,,,,"54","57",,,"-0.01","3","90","29.88","5","29.39","2.98","55","230",,"9",,,,,,,,,,,,,,,,,,,,,,,,,,,,,,,,,,,,,"SYN08072793 32248 82308 10139 20122 39953 40120 53004 91153 333 10161 20133 555 90812=","FM-12","4",,,,,,,,,,,,,,,,,,,,,,,,,,,"2007-05-17"
"72793024233","2020-10-08T04:53:00","FM-15","7",,,,,,,,,,,,,,,,,,,,,,,,,,,,,,,,,,,,,,,"29.87","54","56","0.00",,,,"93","29.88","OVC:08 3","29.41","10.00","55","220",,"5",,,,,,,,,,,,,,,,,,,,,,,,,,,,,,,,,,,,,"MET09810/08/20 04:53:02 METAR KSEA 081253Z 22004KT 10SM OVC003 13/12 A2987 RMK AO2 SLP118 T01330122 (TL)","FM-15","7",,,,,,,,,,,,,,,,,,,,,,,,,,,"2007-05-17"
"72793024233","2020-10-08T05:18:00","FM-16","7",,,,,,,,,,,,,,,,,,,,,,,,,,,,,,,,,,,,,,,"29.87","54","57",,,,,"90",,"OVC:08 5","29.41","10.00","55","230",,"7",,,,,,,,,,,,,,,,,,,,,,,,,,,,,,,,,,,,,"MET09110/08/20 05:18:02 SPECI KSEA 081318Z 23006KT 10SM OVC005 14/12 A2987 RMK AO2 T01390122 (LC)","FM-16","7",,,,,,,,,,,,,,,,,,,,,,,,,,,"2007-05-17"
"72793024233","2020-10-08T05:53:00","FM-15","7",,,,,,,,,,,,,,,,,,,,,,,,,,,,,,,,,,,,,,,"29.87","54","57","0.00",,,,"90","29.89","OVC:08 6","29.41","10.00","55","210",,"6",,,,,,,,,,,,,,,,,,,,,,,,,,,,,,,,,,,,,"MET09810/08/20 05:53:02 METAR KSEA 081353Z 21005KT 10SM OVC006 14/12 A2987 RMK AO2 SLP121 T01390122 (LC)","FM-15","7",,,,,,,,,,,,,,,,,,,,,,,,,,,"2007-05-17"
"72793024233","2020-10-08T06:53:00","FM-15","7",,,,,,,,,,,,,,,,,,,,,,,,,,,,,,,,,,,,,,,"29.88","54","56","0.00",,"-0.01","3","93","29.89","OVC:08 5","29.41","7.00","55","200",,"8",,,,,,,,,,,,,,,,,,,,,,,,,,,,,,,,,,,,,"MET10310/08/20 06:53:02 METAR KSEA 081453Z 20007KT 7SM OVC005 13/12 A2988 RMK AO2 SLP123 T01330122 53003 (LC)","FM-15","7",,,,,,,,,,,,,,,,,,,,,,,,,,,"2007-05-17"
"72793024233","2020-10-08T07:42:00","FM-16","7",,,,,,,,,,,,,,,,,,,,,,,,,,,,,,,,,,,,,,,"29.89","54","57",,,,,"90",,"SCT:04 5 OVC:08 11","29.42","7.00","55","210",,"8",,,,,,,,,,,,,,,,,,,,,,,,,,,,,,,,,,,,,"MET09710/08/20 07:42:02 SPECI KSEA 081542Z 21007KT 7SM SCT005 OVC011 14/12 A2989 RMK AO2 T01390122 (LC)","FM-16","7",,,,,,,,,,,,,,,,,,,,,,,,,,,"2007-05-17"
"72793024233","2020-10-08T07:53:00","FM-15","7",,,,,,,,,,,,,,,,,,,,,,,,,,,,,,,,,,,,,,,"29.90","54","57","0.00",,,,"90","29.91","SCT:04 5 OVC:08 11","29.44","7.00","55","220",,"7",,,,,,,,,,,,,,,,,,,,,,,,,,,,,,,,,,,,,"MET10410/08/20 07:53:02 METAR KSEA 081553Z 22006KT 7SM SCT005 OVC011 14/12 A2990 RMK AO2 SLP130 T01390122 (LC)","FM-15","7",,,,,,,,,,,,,,,,,,,,,,,,,,,"2007-05-17"
"72793024233","2020-10-08T08:30:00","FM-16","7",,,,,,,,,,,,,,,,,,,,,,,,,,,,,,,,,,,,,,,"29.90","52","57",,,,,"83",,"SCT:04 11 BKN:07 47 BKN:07 65","29.44","10.00","54","220",,"10",,,,,,,,,,,,,,,,,,,,,,,,,,,,,,,,,,,,,"MET10510/08/20 08:30:02 SPECI KSEA 081630Z 22009KT 10SM SCT011 BKN047 BKN065 14/11 A2990 RMK AO2 T01390111 (LC)","FM-16","7",,,,,,,,,,,,,,,,,,,,,,,,,,,"2007-05-17"
"72793024233","2020-10-08T08:53:00","FM-15","7",,,,,,,,,,,,,,,,,,,,,,,,,,,,,,,,,,,,,,,"29.90","53","57","0.00",,,,"87","29.92","SCT:04 11 BKN:07 47 BKN:07 65","29.44","10.00","55","190",,"10",,,,,,,,,,,,,,,,,,,,,,,,,,,,,,,,,,,,,"MET11210/08/20 08:53:02 METAR KSEA 081653Z 19009KT 10SM SCT011 BKN047 BKN065 14/12 A2990 RMK AO2 SLP131 T01390117 (LC)","FM-15","7",,,,,,,,,,,,,,,,,,,,,,,,,,,"2007-05-17"
"72793024233","2020-10-08T09:53:00","FM-15","7",,,,,,,,,,,,,,,,,,,,,,,,,,,,,,,,,,,,,,,"29.91","53","61","0.00",,"-0.03","1","75","29.92","SCT:04 11 SCT:04 50 BKN:07 70","29.44","10.00","57","180",,"10",,,,,,,,,,,,,,,,,,,,,,,,,,,,,,,,,,,,,"MET13010/08/20 09:53:02 METAR KSEA 081753Z 18009KT 10SM SCT011 SCT050 BKN070 16/12 A2991 RMK AO2 SLP133 T01610117 10161 20133 51009 (LC)","FM-15","7",,,,,,,,,,,,,,,,,,,,,,,,,,,"2007-05-17"
"72793024233","2020-10-08T10:00:00","FM-12","4",,,,,,,,,,,,,,,,,,,,,,,,,,,,,,,,,,,,,,,,"53","61",,,"-0.03","1","75","29.92","15","29.43","9.94","57","180",,"10",,,,,,,,,,,,,,,,,,,,,,,,,,,,,,,,,,,,,"SYN08072793 32466 61809 10161 20117 39966 40133 51009 91753 333 10161 20133 555 90818=","FM-12","4",,,,,,,,,,,,,,,,,,,,,,,,,,,"2007-05-17"
"72793024233","2020-10-08T10:53:00","FM-15","7",,,,,,,,,,,,,,,,,,,,,,,,,,,,,,,,,,,,,,,"29.92","53","63","0.00",,,,"70","29.93","SCT:04 20 BKN:07 70 BKN:07 250","29.45","10.00","57","210",,"14",,,,,,,,,,,,,,,,,,,,,,,,,,,,,,,,,,,,,"MET11210/08/20 10:53:02 METAR KSEA 081853Z 21012KT 10SM SCT020 BKN070 BKN250 17/12 A2992 RMK AO2 SLP136 T01720117 (LC)","FM-15","7",,,,,,,,,,,,,,,,,,,,,,,,,,,"2007-05-17"
"72793024233","2020-10-08T11:53:00","FM-15","7",,,,,,,,,,,,,,,,,,,,,,,,,,,,,,,,,,,,,,,"29.92","51","64","0.00",,,,"63","29.93","FEW:02 25 BKN:07 70 BKN:07 250","29.45","10.00","57","190",,"8",,,,,,,,,,,,,,,,,,,,,,,,,,,,,,,,,,,,,"MET11210/08/20 11:53:02 METAR KSEA 081953Z 19007KT 10SM FEW025 BKN070 BKN250 18/11 A2992 RMK AO2 SLP136 T01780106 (LC)","FM-15","7",,,,,,,,,,,,,,,,,,,,,,,,,,,"2007-05-17"
"72793024233","2020-10-08T12:53:00","FM-15","7",,,,,,,,,,,,,,,,,,,,,,,,,,,,,,,,,,,,,,,"29.92","50","64","0.00",,"-0.01","1","60","29.93","SCT:04 30 BKN:07 70 BKN:07 200","29.45","10.00","56","230",,"9",,,,,,,,,,,,,,,,,,,,,,,,,,,,,,,,,,,,,"MET11810/08/20 12:53:02 METAR KSEA 082053Z 23008KT 10SM SCT030 BKN070 BKN200 18/10 A2992 RMK AO2 SLP136 T01780100 51003 (LC)","FM-15","7",,,,,,,,,,,,,,,,,,,,,,,,,,,"2007-05-17"
"72793024233","2020-10-08T13:53:00","FM-15","7",,,,,,,,,,,,,,,,,,,,,,,,,,,,,,,,,,,,,,,"29.91","53","65","0.00",,,,"66","29.92","SCT:04 34 BKN:07 70 BKN:07 180","29.44","10.00","58","220",,"9",,,,,,,,,,,,,,,,,,,,,,,,,,,,,,,,,,,,,"MET11210/08/20 13:53:02 METAR KSEA 082153Z 22008KT 10SM SCT034 BKN070 BKN180 18/12 A2991 RMK AO2 SLP132 T01830117 (RS)","FM-15","7",,,,,,,,,,,,,,,,,,,,,,,,,,,"2007-05-17"
"72793024233","2020-10-08T14:53:00","FM-15","7",,,,,,,,,,,,,,,,,,,,,,,,,,,,,,,,,,,,,,,"29.92","53","65","0.00",,,,"66","29.93","FEW:02 33 BKN:07 55 BKN:07 180","29.45","10.00","58","240",,"7",,,,,,,,,,,,,,,,,,,,,,,,,,,,,,,,,,,,,"MET11210/08/20 14:53:02 METAR KSEA 082253Z 24006KT 10SM FEW033 BKN055 BKN180 18/12 A2992 RMK AO2 SLP136 T01830117 (RS)","FM-15","7",,,,,,,,,,,,,,,,,,,,,,,,,,,"2007-05-17"
"72793024233","2020-10-08T15:53:00","FM-15","7",,,,,,,,,,,,,,,,,,,,,,,,,,,,,,,,,,,,,,,"29.90","53","65","0.00",,"+0.01","6","66","29.92","FEW:02 32 SCT:04 39 BKN:07 55","29.44","10.00","58","240",,"8",,,,,,,,,,,,,,,,,,,,,,,,,,,,,,,,,,,,,"MET13010/08/20 15:53:02 METAR KSEA 082353Z 24007KT 10SM FEW032 SCT039 BKN055 18/12 A2990 RMK AO2 SLP132 T01830117 10194 20156 56004 (RS)","FM-15","7",,,,,,,,,,,,,,,,,,,,,,,,,,,"2007-05-17"
"72793024233","2020-10-08T16:00:00","FM-12","4",,,,,,,,,,,,,,,,,,,,,,,,,,,,,,,,,,,,,,,,"53","65",,,"+0.01","6","66","29.92","26","29.42","9.94","58","240",,"8",,,,,,,,,,,,,,,,,,,,,,,,,,,,,,,,,,,,,"SYN08072793 32566 62407 10183 20117 39963 40132 56004 92353 333 10194 20139 555 90900=","FM-12","4",,,,,,,,,,,,,,,,,,,,,,,,,,,"2007-05-17"
"72793024233","2020-10-08T16:53:00","FM-15","7",,,,,,,,,,,,,,,,,,,,,,,,,,,,,,,,,,,,,,,"29.90","52","63","0.00",,,,"68","29.92","FEW:02 32 BKN:07 50 BKN:07 200","29.44","10.00","57","240",,"10",,,,,,,,,,,,,,,,,,,,,,,,,,,,,,,,,,,,,"MET10710/08/20 16:53:01 METAR KSEA 090053Z 24009KT 10SM FEW032 BKN050 BKN200 17/11 A2990 RMK AO2 SLP131 T01720111","FM-15","7",,,,,,,,,,,,,,,,,,,,,,,,,,,"2007-05-17"
"72793024233","2020-10-08T17:53:00","FM-15","7",,,,,,,,,,,,,,,,,,,,,,,,,,,,,,,,,,,,,,,"29.91","53","62","0.00",,,,"73","29.92","FEW:02 20 BKN:07 39 BKN:07 180","29.44","10.00","57","220",,"7",,,,,,,,,,,,,,,,,,,,,,,,,,,,,,,,,,,,,"MET10710/08/20 17:53:01 METAR KSEA 090153Z 22006KT 10SM FEW020 BKN039 BKN180 17/12 A2991 RMK AO2 SLP132 T01670117","FM-15","7",,,,,,,,,,,,,,,,,,,,,,,,,,,"2007-05-17"
"72793024233","2020-10-08T18:53:00","FM-15","7",,,,,,,,,,,,,,,,,,,,,,,,,,,,,,,,,,,,,,,"29.91","53","61","0.00",,"-0.01","3","75","29.93","FEW:02 40 BKN:07 140 BKN:07 200","29.44","10.00","57","210",,"7",,,,,,,,,,,,,,,,,,,,,,,,,,,,,,,,,,,,,"MET11310/08/20 18:53:01 METAR KSEA 090253Z 21006KT 10SM FEW040 BKN140 BKN200 16/12 A2991 RMK AO2 SLP134 T01610117 53002","FM-15","7",,,,,,,,,,,,,,,,,,,,,,,,,,,"2007-05-17"
"72793024233","2020-10-08T19:53:00","FM-15","7",,,,,,,,,,,,,,,,,,,,,,,,,,,,,,,,,,,,,,,"29.92","53","59","0.00",,,,"81","29.93","SCT:04 44 BKN:07 140","29.45","10.00","56","190",,"5",,,,,,,,,,,,,,,,,,,,,,,,,,,,,,,,,,,,,"MET10010/08/20 19:53:02 METAR KSEA 090353Z 19004KT 10SM SCT044 BKN140 15/12 A2992 RMK AO2 SLP137 T01500117","FM-15","7",,,,,,,,,,,,,,,,,,,,,,,,,,,"2007-05-17"
"72793024233","2020-10-08T20:53:00","FM-15","7",,,,,,,,,,,,,,,,,,,,,,,,,,,,,,,,,,,,,,,"29.92","53","58","0.00",,,,"84","29.93","SCT:04 37 BKN:07 130","29.45","10.00","55","210",,"3",,,,,,,,,,,,,,,,,,,,,,,,,,,,,,,,,,,,,"MET10010/08/20 20:53:02 METAR KSEA 090453Z 21003KT 10SM SCT037 BKN130 14/12 A2992 RMK AO2 SLP137 T01440117","FM-15","7",,,,,,,,,,,,,,,,,,,,,,,,,,,"2007-05-17"
"72793024233","2020-10-08T21:53:00","FM-15","7",,,,,,,,,,,,,,,,,,,,,,,,,,,,,,,,,,,,,,,"29.92","54","58","0.00",,"-0.01","0","87","29.93","SCT:04 21 BKN:07 120","29.45","10.00","56","180",,"6",,,,,,,,,,,,,,,,,,,,,,,,,,,,,,,,,,,,,"MET11810/08/20 21:53:02 METAR KSEA 090553Z 18005KT 10SM SCT021 BKN120 14/12 A2992 RMK AO2 SLP136 T01440122 10189 20139 50002","FM-15","7",,,,,,,,,,,,,,,,,,,,,,,,,,,"2007-05-17"
"72793024233","2020-10-08T22:00:00","FM-12","4",,,,,,,,,,,,,,,,,,,,,,,,,,,,,,,,,,,,,,,,"54","58",,,"0.01","9","87","29.93","26","29.44","9.94","56","180",,"6",,,,,,,,,,,,,,,,,,,,,,,,,,,,,,,,,,,,,"SYN08072793 32566 61805 10144 20122 39969 40136 50002 90553 333 10189 20139 555 90906=","FM-12","4",,,,,,,,,,,,,,,,,,,,,,,,,,,"2007-05-17"
"72793024233","2020-10-08T22:09:00","FM-16","7",,,,,,,,,,,,,,,,,,,,,,,,,,,,,,,,,,,,,,,"29.91","53","58",,,,,"84",,"BKN:07 21","29.44","10.00","55","160",,"6",,,,,,,,,,,,,,,,,,,,,,,,,,,,,,,,,,,,,"MET08610/08/20 22:09:02 SPECI KSEA 090609Z 16005KT 10SM BKN021 14/12 A2991 RMK AO2 T01440117","FM-16","7",,,,,,,,,,,,,,,,,,,,,,,,,,,"2007-05-17"
"72793024233","2020-10-08T22:53:00","FM-15","7",,,,,,,,,,,,,,,,,,,,,,,,,,,,,,,,,,,,,,,"29.91","54","58","0.00",,,,"87","29.93","OVC:08 20","29.44","10.00","56","200",,"5",,,,,,,,,,,,,,,,,,,,,,,,,,,,,,,,,,,,,"MET09310/08/20 22:53:02 METAR KSEA 090653Z 20004KT 10SM OVC020 14/12 A2991 RMK AO2 SLP135 T01440122","FM-15","7",,,,,,,,,,,,,,,,,,,,,,,,,,,"2007-05-17"
"72793024233","2020-10-08T23:53:00","FM-15","7",,,,,,,,,,,,,,,,,,,,,,,,,,,,,,,,,,,,,,,"29.91","54","58","0.00",,,,"87","29.92","OVC:08 19","29.44","10.00","56","160",,"3",,,,,,,,,,,,,,,,,,,,,,,,,,,,,,,,,,,,,"MET10310/08/20 23:53:02 METAR KSEA 090753Z 16003KT 10SM OVC019 14/12 A2991 RMK AO2 SLP132 T01440122 401940133","FM-15","7",,,,,,,,,,,,,,,,,,,,,,,,,,,"2007-05-17"
"72793024233","2020-10-08T23:59:00","SOD  ","6",,,,,,,,,,,,,,,,,"53","62","80","29.91","29.43","56","7.3","0","7.1","3","67","56","220","19","0.00","0","0.0","220","14",,,,,,,,,,,,,,,,,,,,,,,,,,,,,,,,,,,,,,,,,,,,,,,,,,,,,,,,"SOD75624 HR PRECIPITATION (IN): 0.00 SNOW DEPTH (IN):0     24 HR SNOWFALL (IN):0.0  WEATHER(CODE):1  24 HR MAX TEMP (F): 6724 HR MIN TEMP (F): 56AVERAGE STATION PRESSURE:29.430 MINIMUM SEA LEVEL PRESSURE:29.87 TIME OF OCCURRENCE:0308 PEAK WIND SPEED (MPH): 19 PEAK WIND DIR (DEG):220 PEAK WIND TIME (LST):      FASTEST 2MIN SPEED (MPH): 14FASTEST 2MIN DIR (DEG):220 FASTEST 2MIN TIME (LST):     AVERAGE WIND SPEED (MPH): 7.3 24 HR AVG TEMP (F): 62DEPART FROM NORMAL:  7  HEATING DEGREE DAYS:  3 COOLING DEGREE DAYS:  0 LATEST DAY MAX TEMP (0700-1900 LST):67  LATEST NIGHT MIN TEMP(1900-0800 LST):56 HOURLY INCREMENTAL PRECIPITATION VALUES (IN):.00 0.00 0.00 0.00 0.00 0.00 0.00 0.00 0.00 0.00 0.00 0.00 0.00 0.00 0.00 0.00 0.00 0.00 0.00 0.00 0.00 0.00 0.00 0.00","SOD  ","6",,,,,,,,,,,,,,,,,,,,,,,,,"0619","1733","2007-05-17"
"72793024233","2020-10-09T00:53:00","FM-15","7",,,,,,,,,,,,,,,,,,,,,,,,,,,,,,,,,,,,,,,"29.90","56","58","0.00",,"+0.01","8","93","29.92","OVC:08 17","29.44","10.00","57","000",,"0",,,,,,,,,,,,,,,,,,,,,,,,,,,,,,,,,,,,,"MET10410/09/20 00:53:02 METAR KSEA 090853Z 00000KT 10SM OVC017 14/13 A2990 RMK AO2 SLP131 T01440133 58005 (TL)","FM-15","7",,,,,,,,,,,,,,,,,,,,,,,,,,,"2007-05-17"
"72793024233","2020-10-09T01:01:00","FM-16","7",,,,,,,,,,,,,,,,,,,,,,,,,,,,,,,,,,,,,,,"29.90","55","58",,,,,"90",,"FEW:02 6 OVC:08 17","29.44","10.00","56","170",,"3",,,,,,,,,,,,,,,,,,,,,,,,,,,,,,,,,,,,,"MET09810/09/20 01:01:02 SPECI KSEA 090901Z 17003KT 10SM FEW006 OVC017 14/13 A2990 RMK AO2 T01440128 (TL)","FM-16","7",,,,,,,,,,,,,,,,,,,,,,,,,,,"2007-05-17"
"72793024233","2020-10-09T01:33:00","FM-16","7",,,,,,,,,,,,,,,,,,,,,,,,,,,,,,,,,,,,,,,"29.90","55","58",,,,,"90",,"FEW:02 8 SCT:04 17 BKN:07 40","29.44","10.00","56","160",,"8",,,,,,,,,,,,,,,,,,,,,,,,,,,,,,,,,,,,,"MET10510/09/20 01:33:02 SPECI KSEA 090933Z 16007KT 10SM FEW008 SCT017 BKN040 14/13 A2990 RMK AO2 T01440128 (TL)","FM-16","7",,,,,,,,,,,,,,,,,,,,,,,,,,,"2007-05-17"
"72793024233","2020-10-09T01:51:00","FM-16","6",,,,,,,,,,,,,,,,,,,,,,,,,,,,,,,,,,,,,,,"29.90","55","57",,,,,"94",,"FEW:02 17 BKN:07 24 OVC:08 40","29.44","10.00","56","190",,"3",,,,,,,,,,,,,,,,,,,,,,,,,,,,,,,,,,,,,"MET10010/09/20 01:51:02 SPECI KSEA 090951Z 19003KT 10SM FEW017 BKN024 OVC040 14/13 A2990 RMK AO2 FIBI (TL)","FM-16","6",,,,,,,,,,,,,,,,,,,,,,,,,,,"2007-05-17"
"72793024233","2020-10-09T01:53:00","FM-15","7",,,,,,,,,,,,,,,,,,,,,,,,,,,,,,,,,,,,,,,"29.90","55","58","0.00",,,,"90","29.92","FEW:02 17 SCT:04 23 BKN:07 40","29.44","10.00","56","000",,"0",,,,,,,,,,,,,,,,,,,,,,,,,,,,,,,,,,,,,"MET11210/09/20 01:53:02 METAR KSEA 090953Z 00000KT 10SM FEW017 SCT023 BKN040 14/13 A2990 RMK AO2 SLP131 T01440128 (TL)","FM-15","7",,,,,,,,,,,,,,,,,,,,,,,,,,,"2007-05-17"
"72793024233","2020-10-09T02:04:00","FM-16","7",,,,,,,,,,,,,,,,,,,,,,,,,,,,,,,,,,,,,,,"29.90","55","58",,,,,"90",,"SCT:04 17 BKN:07 23 OVC:08 40","29.44","10.00","56","180",,"3",,,,,,,,,,,,,,,,,,,,,,,,,,,,,,,,,,,,,"MET10510/09/20 02:04:02 SPECI KSEA 091004Z 18003KT 10SM SCT017 BKN023 OVC040 14/13 A2990 RMK AO2 T01440128 (TL)","FM-16","7",,,,,,,,,,,,,,,,,,,,,,,,,,,"2007-05-17"
"72793024233","2020-10-09T02:41:00","FM-16","7",,,,,,,,,,,,,,,,,,,,,,,,,,,,,,,,,,,,,,,"29.90","55","58",,,,,"90",,"OVC:08 13","29.44","10.00","56","200",,"3",,,,,,,,,,,,,,,,,,,,,,,,,,,,,,,,,,,,,"MET09110/09/20 02:41:02 SPECI KSEA 091041Z 20003KT 10SM OVC013 14/13 A2990 RMK AO2 T01440128 (TL)","FM-16","7",,,,,,,,,,,,,,,,,,,,,,,,,,,"2007-05-17"
"72793024233","2020-10-09T02:51:00","FM-16","6",,,,,,,,,,,,,,,,,,,,,,,,,,,,,,,,,,,,,,,"29.91","55","57",,,,,"94",,"FEW:02 8 OVC:08 13","29.44","10.00","56","000",,"0",,,,,,,,,,,,,,,,,,,,,,,,,,,,,,,,,,,,,"MET09310/09/20 02:51:02 SPECI KSEA 091051Z 00000KT 10SM FEW008 OVC013 14/13 A2991 RMK AO2 FIBI (TL)","FM-16","6",,,,,,,,,,,,,,,,,,,,,,,,,,,"2007-05-17"
"72793024233","2020-10-09T02:53:00","FM-15","7",,,,,,,,,,,,,,,,,,,,,,,,,,,,,,,,,,,,,,,"29.91","55","58","0.00",,,,"90","29.92","FEW:02 8 OVC:08 13","29.44","10.00","56","000",,"0",,,,,,,,,,,,,,,,,,,,,,,,,,,,,,,,,,,,,"MET10510/09/20 02:53:02 METAR KSEA 091053Z 00000KT 10SM FEW008 OVC013 14/13 A2991 RMK AO2 SLP133 T01440128 (TL)","FM-15","7",,,,,,,,,,,,,,,,,,,,,,,,,,,"2007-05-17"
"72793024233","2020-10-09T03:45:00","FM-16","7",,,,,,,,,,,,,,,,,,,,,,,,,,,,,,,,,,,,,,,"29.89","54","58",,,,,"87",,"FEW:02 13 BKN:07 22 OVC:08 38","29.42","10.00","56","140",,"7",,,,,,,,,,,,,,,,,,,,,,,,,,,,,,,,,,,,,"MET10510/09/20 03:45:02 SPECI KSEA 091145Z 14006KT 10SM FEW013 BKN022 OVC038 14/12 A2989 RMK AO2 T01440122 (TL)","FM-16","7",,,,,,,,,,,,,,,,,,,,,,,,,,,"2007-05-17"
"72793024233","2020-10-09T03:53:00","FM-15","7",,,,,,,,,,,,,,,,,,,,,,,,,,,,,,,,,,,,,,,"29.89","54","58","0.00",,"+0.01","8","87","29.90","FEW:02 13 BKN:07 22 OVC:08 38","29.42","10.00","56","140",,"8",,,,,,,,,,,,,,,,,,,,,,,,,,,,,,,,,,,,,"MET13010/09/20 03:53:02 METAR KSEA 091153Z 14007KT 10SM FEW013 BKN022 OVC038 14/12 A2989 RMK AO2 SLP126 T01440122 10150 20139 58004 (TL)","FM-15","7",,,,,,,,,,,,,,,,,,,,,,,,,,,"2007-05-17"
"72793024233","2020-10-09T04:00:00","FM-12","4",,,,,,,,,,,,,,,,,,,,,,,,,,,,,,,,,,,,,,,,"54","58",,,"+0.01","8","87","29.90","15","29.41","9.94","56","140",,"8",,,,,,,,,,,,,,,,,,,,,,,,,,,,,,,,,,,,,"SYN08072793 32466 81407 10144 20122 39959 40126 58004 91153 333 10194 20139 555 90912=","FM-12","4",,,,,,,,,,,,,,,,,,,,,,,,,,,"2007-05-17"
"72793024233","2020-10-09T04:29:00","FM-16","7",,,,,,,,,,,,,,,,,,,,,,,,,,,,,,,,,,,,,,,"29.90","55","58",,,,,"90",,"FEW:02 8 BKN:07 12 OVC:08 19","29.44","10.00","56","160",,"5",,,,,,,,,,,,,,,,,,,,,,,,,,,,,,,,,,,,,"MET10510/09/20 04:29:02 SPECI KSEA 091229Z 16004KT 10SM FEW008 BKN012 OVC019 14/13 A2990 RMK AO2 T01440128 (TL)","FM-16","7",,,,,,,,,,,,,,,,,,,,,,,,,,,"2007-05-17"
"72793024233","2020-10-09T04:51:00","FM-16","6",,,,,,,,,,,,,,,,,,,,,,,,,,,,,,,,,,,,,,,"29.90","55","57",,,,,"94",,"SCT:04 12 BKN:07 21 OVC:08 37","29.44","10.00","56","150",,"7",,,,,,,,,,,,,,,,,,,,,,,,,,,,,,,,,,,,,"MET10010/09/20 04:51:02 SPECI KSEA 091251Z 15006KT 10SM SCT012 BKN021 OVC037 14/13 A2990 RMK AO2 FIBI (LC)","FM-16","6",,,,,,,,,,,,,,,,,,,,,,,,,,,"2007-05-17"
"72793024233","2020-10-09T04:53:00","FM-15","7",,,,,,,,,,,,,,,,,,,,,,,,,,,,,,,,,,,,,,,"29.90","55","58","0.00",,,,"90","29.91","SCT:04 12 BKN:07 21 OVC:08 37","29.44","10.00","56","150",,"7",,,,,,,,,,,,,,,,,,,,,,,,,,,,,,,,,,,,,"MET11210/09/20 04:53:02 METAR KSEA 091253Z 15006KT 10SM SCT012 BKN021 OVC037 14/13 A2990 RMK AO2 SLP129 T01440128 (LC)","FM-15","7",,,,,,,,,,,,,,,,,,,,,,,,,,,"2007-05-17"
"72793024233","2020-10-09T05:53:00","FM-15","7",,,,,,,,,,,,,,,,,,,,,,,,,,,,,,,,,,,,,,,"29.89","55","58","0.00",,,,"90","29.90","FEW:02 13 BKN:07 21 OVC:08 40","29.42","10.00","56","150",,"8",,,,,,,,,,,,,,,,,,,,,,,,,,,,,,,,,,,,,"MET11210/09/20 05:53:02 METAR KSEA 091353Z 15007KT 10SM FEW013 BKN021 OVC040 14/13 A2989 RMK AO2 SLP126 T01440128 (LC)","FM-15","7",,,,,,,,,,,,,,,,,,,,,,,,,,,"2007-05-17"
"72793024233","2020-10-09T06:53:00","FM-15","7",,,,,,,,,,,,,,,,,,,,,,,,,,,,,,,,,,,,,,,"29.87","55","58","0.00",,"+0.01","8","90","29.89","SCT:04 16 BKN:07 25","29.41","10.00","56","160",,"5",,,,,,,,,,,,,,,,,,,,,,,,,,,,,,,,,,,,,"MET11110/09/20 06:53:02 METAR KSEA 091453Z 16004KT 10SM SCT016 BKN025 14/13 A2987 RMK AO2 SLP121 T01440128 58005 (LC)","FM-15","7",,,,,,,,,,,,,,,,,,,,,,,,,,,"2007-05-17"
"72793024233","2020-10-09T07:11:00","FM-16","7",,,,,,,,,,,,,,,,,,,,,,,,,,,,,,,,,,,,,,,"29.87","55","58",,,,,"90",,"FEW:02 9 BKN:07 16 BKN:07 26","29.41","10.00","56","150",,"6",,,,,,,,,,,,,,,,,,,,,,,,,,,,,,,,,,,,,"MET10510/09/20 07:11:02 SPECI KSEA 091511Z 15005KT 10SM FEW009 BKN016 BKN026 14/13 A2987 RMK AO2 T01440128 (LC)","FM-16","7",,,,,,,,,,,,,,,,,,,,,,,,,,,"2007-05-17"
"72793024233","2020-10-09T07:53:00","FM-15","7",,,,,,,,,,,,,,,,,,,,,,,,,,,,,,,,,,,,,,,"29.86","55","59","0.00",,,,"87","29.88","FEW:02 9 BKN:07 15 BKN:07 25","29.39","10.00","57","180",,"6",,,,,,,,,,,,,,,,,,,,,,,,,,,,,,,,,,,,,"MET11210/09/20 07:53:02 METAR KSEA 091553Z 18005KT 10SM FEW009 BKN015 BKN025 15/13 A2986 RMK AO2 SLP117 T01500128 (LC)","FM-15","7",,,,,,,,,,,,,,,,,,,,,,,,,,,"2007-05-17"
"72793024233","2020-10-09T08:26:00","FM-16","7",,,,,,,,,,,,,,,,,,,,,,,,,,,,,,,,,,,,,,,"29.86","56","60",,,,,"86",,"SCT:04 9 BKN:07 30 BKN:07 150","29.39","10.00","58","170",,"5",,,,,,,,,,,,,,,,,,,,,,,,,,,,,,,,,,,,,"MET10510/09/20 08:26:02 SPECI KSEA 091626Z 17004KT 10SM SCT009 BKN030 BKN150 16/13 A2986 RMK AO2 T01560133 (LC)","FM-16","7",,,,,,,,,,,,,,,,,,,,,,,,,,,"2007-05-17"
"72793024233","2020-10-09T08:53:00","FM-15","7",,,,,,,,,,,,,,,,,,,,,,,,,,,,,,,,,,,,,,,"29.86","55","60","0.00",,,,"84","29.88","FEW:02 9 SCT:04 23 BKN:07 34","29.39","10.00","57","190",,"5",,,,,,,,,,,,,,,,,,,,,,,,,,,,,,,,,,,,,"MET11210/09/20 08:53:02 METAR KSEA 091653Z 19004KT 10SM FEW009 SCT023 BKN034 16/13 A2986 RMK AO2 SLP117 T01560128 (LC)","FM-15","7",,,,,,,,,,,,,,,,,,,,,,,,,,,"2007-05-17"
"72793024233","2020-10-09T09:53:00","FM-15","7",,,,,,,,,,,,,,,,,,,,,,,,,,,,,,,,,,,,,,,"29.85","55","62","0.00",,"+0.02","6","78","29.87","SCT:04 12 BKN:07 35 BKN:07 150","29.39","10.00","58","210",,"9",,,,,,,,,,,,,,,,,,,,,,,,,,,,,,,,,,,,,"MET13010/09/20 09:53:02 METAR KSEA 091753Z 21008KT 10SM SCT012 BKN035 BKN150 17/13 A2985 RMK AO2 SLP115 T01670128 10167 20144 56006 (LC)","FM-15","7",,,,,,,,,,,,,,,,,,,,,,,,,,,"2007-05-17"
"72793024233","2020-10-09T10:00:00","FM-12","4",,,,,,,,,,,,,,,,,,,,,,,,,,,,,,,,,,,,,,,,"55","62",,,"+0.02","6","78","29.87","15","29.37","9.94","58","210",,"9",,,,,,,,,,,,,,,,,,,,,,,,,,,,,,,,,,,,,"SYN08072793 32466 62108 10167 20128 39946 40115 56006 91753 333 10167 20144 555 90918=","FM-12","4",,,,,,,,,,,,,,,,,,,,,,,,,,,"2007-05-17"
"72793024233","2020-10-09T10:53:00","FM-15","7",,,,,,,,,,,,,,,,,,,,,,,,,,,,,,,,,,,,,,,"29.85","55","62","0.00",,,,"78","29.86","FEW:02 12 BKN:07 30 BKN:07 50","29.39","10.00","58","190",,"9",,,,,,,,,,,,,,,,,,,,,,,,,,,,,,,,,,,,,"MET11210/09/20 10:53:02 METAR KSEA 091853Z 19008KT 10SM FEW012 BKN030 BKN050 17/13 A2985 RMK AO2 SLP113 T01670128 (LC)","FM-15","7",,,,,,,,,,,,,,,,,,,,,,,,,,,"2007-05-17"
"72793024233","2020-10-09T11:07:00","FM-16","7",,,,,,,,,,,,,,,,,,,,,,,,,,,,,,,,,,,,,,,"29.85","56","63",,,,,"78",,"FEW:02 12 BKN:07 29 BKN:07 150","29.39","10.00","59","220",,"13",,,,,,,,,,,,,,,,,,,,,,,,,,,,,,,,,,,,,"MET10510/09/20 11:07:02 SPECI KSEA 091907Z 22011KT 10SM FEW012 BKN029 BKN150 17/13 A2985 RMK AO2 T01720133 (LC)","FM-16","7",,,,,,,,,,,,,,,,,,,,,,,,,,,"2007-05-17"
"72793024233","2020-10-09T11:53:00","FM-15","7",,,,,,,,,,,,,,,,,,,,,,,,,,,,,,,,,,,,,,,"29.84","56","63","0.00",,,,"78","29.86","FEW:02 12 BKN:07 29 BKN:07 120","29.38","10.00","59","210","21","13",,,,,,,,,,,,,,,,,,,,,,,,,,,,,,,,,,,,,"MET11510/09/20 11:53:02 METAR KSEA 091953Z 21011G18KT 10SM FEW012 BKN029 BKN120 17/13 A2984 RMK AO2 SLP111 T01720133 (LC)","FM-15","7",,,,,,,,,,,,,,,,,,,,,,,,,,,"2007-05-17"
"72793024233","2020-10-09T12:18:00","FM-16","7",,,,,,,,,,,,,,,,,,,,,,,,,,,,,,,,,,,,,,,"29.84","55","66",,,,,"68",,"FEW:02 20 SCT:04 29 BKN:07 120","29.38","10.00","60","220","22","16",,,,,,,,,,,,,,,,,,,,,,,,,,,,,,,,,,,,,"MET10810/09/20 12:18:02 SPECI KSEA 092018Z 22014G19KT 10SM FEW020 SCT029 BKN120 19/13 A2984 RMK AO2 T01890128 (LC)","FM-16","7",,,,,,,,,,,,,,,,,,,,,,,,,,,"2007-05-17"
"72793024233","2020-10-09T12:53:00","FM-15","7",,,,,,,,,,,,,,,,,,,,,,,,,,,,,,,,,,,,,,,"29.82","55","66","0.00",,"+0.03","8","68","29.84","FEW:02 20 SCT:04 34 BKN:07 120","29.36","10.00","60","210","24","13",,,,,,,,,,,,,,,,,,,,,,,,,,,,,,,,,,,,,"MET12110/09/20 12:53:02 METAR KSEA 092053Z 21011G21KT 10SM FEW020 SCT034 BKN120 19/13 A2982 RMK AO2 SLP104 T01890128 58011 (LC)","FM-15","7",,,,,,,,,,,,,,,,,,,,,,,,,,,"2007-05-17"
"72793024233","2020-10-09T13:53:00","FM-15","7",,,,,,,,,,,,,,,,,,,,,,,,,,,,,,,,,,,,,,,"29.79","55","67","0.00",,,,"66","29.81","FEW:02 20 SCT:04 34 BKN:07 150","29.33","10.00","60","260",,"9",,,,,,,,,,,,,,,,,,,,,,,,,,,,,,,,,,,,,"MET11210/09/20 13:53:02 METAR KSEA 092153Z 26008KT 10SM FEW020 SCT034 BKN150 19/13 A2979 RMK AO2 SLP094 T01940128 (RS)","FM-15","7",,,,,,,,,,,,,,,,,,,,,,,,,,,"2007-05-17"
"72793024233","2020-10-09T14:53:00","FM-15","7",,,,,,,,,,,,,,,,,,,,,,,,,,,,,,,,,,,,,,,"29.77","55","67","0.00",,,,"66","29.78","FEW:02 20 FEW:02 40 SCT:04 160","29.31","10.00","60","250",,"10",,,,,,,,,,,,,,,,,,,,,,,,,,,,,,,,,,,,,"MET11210/09/20 14:53:02 METAR KSEA 092253Z 25009KT 10SM FEW020 FEW040 SCT160 19/13 A2977 RMK AO2 SLP086 T01940128 (RS)","FM-15","7",,,,,,,,,,,,,,,,,,,,,,,,,,,"2007-05-17"
"72793024233","2020-10-09T15:53:00","FM-15","7",,,,,,,,,,,,,,,,,,,,,,,,,,,,,,,,,,,,,,,"29.75","55","66","0.00",,"+0.07","6","68","29.76","FEW:02 20 SCT:04 100 BKN:07 160","29.29","10.00","60","240",,"8",,,,,,,,,,,,,,,,,,,,,,,,,,,,,,,,,,,,,"MET13010/09/20 15:53:02 METAR KSEA 092353Z 24007KT 10SM FEW020 SCT100 BKN160 19/13 A2975 RMK AO2 SLP078 T01890128 10200 20161 56025 (RS)","FM-15","7",,,,,,,,,,,,,,,,,,,,,,,,,,,"2007-05-17"
"72793024233","2020-10-09T16:00:00","FM-12","4",,,,,,,,,,,,,,,,,,,,,,,,,,,,,,,,,,,,,,,,"55","66",,,"+0.07","6","68","29.76","26","29.27","9.94","60","240",,"8",,,,,,,,,,,,,,,,,,,,,,,,,,,,,,,,,,,,,"SYN08072793 32566 62407 10189 20128 39912 40078 56025 92353 333 10200 20139 555 91000=","FM-12","4",,,,,,,,,,,,,,,,,,,,,,,,,,,"2007-05-17"
"72793024233","2020-10-09T16:53:00","FM-15","7",,,,,,,,,,,,,,,,,,,,,,,,,,,,,,,,,,,,,,,"29.74","54","64","0.00",,,,"70","29.75","FEW:02 20 BKN:07 100 OVC:08 200","29.28","10.00","58","230",,"5",,,,,,,,,,,,,,,,,,,,,,,,,,,,,,,,,,,,,"MET10710/09/20 16:53:01 METAR KSEA 100053Z 23004KT 10SM FEW020 BKN100 OVC200 18/12 A2974 RMK AO2 SLP075 T01780122","FM-15","7",,,,,,,,,,,,,,,,,,,,,,,,,,,"2007-05-17"
"72793024233","2020-10-09T17:53:00","FM-15","7",,,,,,,,,,,,,,,,,,,,,,,,,,,,,,,,,,,,,,,"29.72","54","63","0.00",,,,"73","29.73","FEW:02 35 BKN:07 110 OVC:08 160","29.26","10.00","58","240",,"9",,,,,,,,,,,,,,,,,,,,,,,,,,,,,,,,,,,,,"MET10710/09/20 17:53:01 METAR KSEA 100153Z 24008KT 10SM FEW035 BKN110 OVC160 17/12 A2972 RMK AO2 SLP067 T01720122","FM-15","7",,,,,,,,,,,,,,,,,,,,,,,,,,,"2007-05-17"
"72793024233","2020-10-09T18:53:00","FM-15","7",,,,,,,,,,,,,,,,,,,,,,,,,,,,,,,,,,,,,,,"29.70","55","63","0.00",,"+0.05","8","75","29.71","FEW:02 35 BKN:07 60 OVC:08 120","29.24","10.00","58","140",,"7",,,,,,,,,,,,,,,,,,,,,,,,,,,,,,,,,,,,,"MET11310/09/20 18:53:01 METAR KSEA 100253Z 14006KT 10SM FEW035 BKN060 OVC120 17/13 A2970 RMK AO2 SLP061 T01720128 58017","FM-15","7",,,,,,,,,,,,,,,,,,,,,,,,,,,"2007-05-17"
"72793024233","2020-10-09T19:53:00","FM-15","7",,,,,,,,,,,,,,,,,,,,,,,,,,,,,,,,,,,,,,,"29.68","55","62","0.00",,,,"78","29.70","SCT:04 55 OVC:08 110","29.22","10.00","58","000",,"0",,,,,,,,,,,,,,,,,,,,,,,,,,,,,,,,,,,,,"MET10010/09/20 19:53:02 METAR KSEA 100353Z 00000KT 10SM SCT055 OVC110 17/13 A2968 RMK AO2 SLP056 T01670128","FM-15","7",,,,,,,,,,,,,,,,,,,,,,,,,,,"2007-05-17"
"72793024233","2020-10-09T20:53:00","FM-15","7",,,,,,,,,,,,,,,,,,,,,,,,,,,,,,,,,,,,,,,"29.68","57","60","0.02","-RA:02 BR:1 |RA |RA",,,"90","29.70","SCT:04 19 BKN:07 43 OVC:08 95","29.22","6.00","58","260",,"6",,,,,,,,,,,,,,,,,,,,,,,,,,,,,,,,,,,,,"MET12510/09/20 20:53:02 METAR KSEA 100453Z 26005KT 6SM -RA BR SCT019 BKN043 OVC095 16/14 A2968 RMK AO2 RAB03 SLP056 P0001 T01560139","FM-15","7",,,,,,,,,,,,,,,,,,,,,,,,,,,"2007-05-17"
"72793024233","2020-10-09T21:06:00","FM-16","7",,,,,,,,,,,,,,,,,,,,,,,,,,,,,,,,,,,,,,,"29.68","57","59","0.01","-RA:02 |RA |RA",,,"93",,"FEW:02 13 BKN:07 19 OVC:08 45","29.22","7.00","58","240",,"5",,,,,,,,,,,,,,,,,,,,,,,,,,,,,,,,,,,,,"MET10910/09/20 21:06:02 SPECI KSEA 100506Z 24004KT 7SM -RA FEW013 BKN019 OVC045 15/14 A2968 RMK AO2 P0001 T01500139","FM-16","7",,,,,,,,,,,,,,,,,,,,,,,,,,,"2007-05-17"
"72793024233","2020-10-09T21:21:00","FM-16","7",,,,,,,,,,,,,,,,,,,,,,,,,,,,,,,,,,,,,,,"29.67","57","59","0.03","RA:02 BR:1 |RA |RA",,,"93",,"SCT:04 8 OVC:08 19","29.21","6.00","58","240",,"7",,,,,,,,,,,,,,,,,,,,,,,,,,,,,,,,,,,,,"MET10410/09/20 21:21:02 SPECI KSEA 100521Z 24006KT 6SM RA BR SCT008 OVC019 15/14 A2967 RMK AO2 P0003 T01500139","FM-16","7",,,,,,,,,,,,,,,,,,,,,,,,,,,"2007-05-17"
"72793024233","2020-10-09T21:29:00","FM-16","7",,,,,,,,,,,,,,,,,,,,,,,,,,,,,,,,,,,,,,,"29.68","57","59","0.06","RA:02 BR:1 |RA |RA",,,"93",,"BKN:07 6 BKN:07 10 OVC:08 19","29.22","3.00","58","230",,"8",,,,,,,,,,,,,,,,,,,,,,,,,,,,,,,,,,,,,"MET11110/09/20 21:29:02 SPECI KSEA 100529Z 23007KT 3SM RA BR BKN006 BKN010 OVC019 15/14 A2968 RMK AO2 P0006 T01500139","FM-16","7",,,,,,,,,,,,,,,,,,,,,,,,,,,"2007-05-17"
"72793024233","2020-10-09T21:38:00","FM-16","7",,,,,,,,,,,,,,,,,,,,,,,,,,,,,,,,,,,,,,,"29.67","57","59","0.11","+RA:02 BR:1 |RA |RA",,,"93",,"BKN:07 4 OVC:08 10","29.21","2.00","58","230",,"9",,,,,,,,,,,,,,,,,,,,,,,,,,,,,,,,,,,,,"MET10510/09/20 21:38:02 SPECI KSEA 100538Z 23008KT 2SM +RA BR BKN004 OVC010 15/14 A2967 RMK AO2 P0011 T01500139","FM-16","7",,,,,,,,,,,,,,,,,,,,,,,,,,,"2007-05-17"
"72793024233","2020-10-09T21:53:00","FM-15","7",,,,,,,,,,,,,,,,,,,,,,,,,,,,,,,,,,,,,,,"29.67","57","58","0.18","RA:02 BR:1 |RA |RA","+0.02","6","97","29.69","BKN:07 4 OVC:08 19","29.21","2.50","57","220",,"8",,,,,,,,,,,,,,,,,,,,,,,,,,,,,,,,,,,,,"MET13910/09/20 21:53:02 METAR KSEA 100553Z 22007KT 2 1/2SM RA BR BKN004 OVC019 14/14 A2967 RMK AO2 SLP053 P0017 60018 T01440139 10189 20144 56007","FM-15","7",,,,,,,,,,,,,,,,,,,,,,,,,,,"2007-05-17"
"72793024233","2020-10-09T22:00:00","FM-12","4",,,,,,,,,,,,,,,,,,,,,,,,,,,,,,,,,,,,,,,,"57","58",,"||RA","+0.02","6","97","29.69","5","29.19","2.49","57","220",,"8",,,,,,,,,,,,,,,,,,,,,,,,,,,,,,,,,,,,,"SYN09872793 11240 82207 10144 20139 39886 40053 56007 60051 763// 90553 333 10189 20139 96010 555 91006=","FM-12","4",,,,,,,,,,,,,,,,,,,,,,,,,,,"2007-05-17"
"72793024233","2020-10-09T22:11:00","FM-16","7",,,,,,,,,,,,,,,,,,,,,,,,,,,,,,,,,,,,,,,"29.67","57","59","0.06","RA:02 BR:1 |RA |RA",,,"93",,"SCT:04 3 BKN:07 8 OVC:08 40","29.21","4.00","58","210",,"11",,,,,,,,,,,,,,,,,,,,,,,,,,,,,,,,,,,,,"MET11110/09/20 22:11:02 SPECI KSEA 100611Z 21010KT 4SM RA BR SCT003 BKN008 OVC040 15/14 A2967 RMK AO2 P0006 T01500139","FM-16","7",,,,,,,,,,,,,,,,,,,,,,,,,,,"2007-05-17"
"72793024233","2020-10-09T22:53:00","FM-15","7",,,,,,,,,,,,,,,,,,,,,,,,,,,,,,,,,,,,,,,"29.67","57","58","0.21","RA:02 BR:1 |RA |RA",,,"97","29.69","BKN:07 6 BKN:07 13 OVC:08 23","29.21","4.00","57","220",,"13",,,,,,,,,,,,,,,,,,,,,,,,,,,,,,,,,,,,,"MET11810/09/20 22:53:02 METAR KSEA 100653Z 22011KT 4SM RA BR BKN006 BKN013 OVC023 14/14 A2967 RMK AO2 SLP053 P0022 T01440139","FM-15","7",,,,,,,,,,,,,,,,,,,,,,,,,,,"2007-05-17"
"72793024233","2020-10-09T23:47:00","FM-16","7",,,,,,,,,,,,,,,,,,,,,,,,,,,,,,,,,,,,,,,"29.66","55","57","0.10","-RA:02 BR:1 |RA |RA",,,"94",,"SCT:04 7 BKN:07 55 OVC:08 65","29.20","6.00","56","210",,"13",,,,,,,,,,,,,,,,,,,,,,,,,,,,,,,,,,,,,"MET10210/09/20 23:47:02 SPECI KSEA 100747Z 21011KT 6SM -RA BR SCT007 BKN055 OVC065 14/13 A2966 RMK AO2 P0010","FM-16","7",,,,,,,,,,,,,,,,,,,,,,,,,,,"2007-05-17"
"72793024233","2020-10-09T23:53:00","FM-15","7",,,,,,,,,,,,,,,,,,,,,,,,,,,,,,,,,,,,,,,"29.66","56","58","0.11","-RA:02 |RA |RA",,,"93","29.67","SCT:04 7 BKN:07 55 OVC:08 65","29.20","7.00","57","200",,"11",,,,,,,,,,,,,,,,,,,,,,,,,,,,,,,,,,,,,"MET12610/09/20 23:53:02 METAR KSEA 100753Z 20010KT 7SM -RA SCT007 BKN055 OVC065 14/13 A2966 RMK AO2 SLP048 P0010 T01440133 402000139","FM-15","7",,,,,,,,,,,,,,,,,,,,,,,,,,,"2007-05-17"
"72793024233","2020-10-09T23:59:00","SOD  ","6",,,,,,,,,,,,,,,,,"55","63","82","29.81","29.32","58","7.0","0","8.4","2","68","57","220","24","0.52","0","0.0","220","17","RA BR",,,,,,,,,,,,,,,,,,,,,,,,,,,,,,,,,,,,,,,,,,,,,,,,,,,,,,,"SOD75624 HR PRECIPITATION (IN): 0.52 SNOW DEPTH (IN):0     24 HR SNOWFALL (IN):0.0  WEATHER(CODE):1  24 HR MAX TEMP (F): 6824 HR MIN TEMP (F): 57AVERAGE STATION PRESSURE:29.320 MINIMUM SEA LEVEL PRESSURE:29.67 TIME OF OCCURRENCE:2359 PEAK WIND SPEED (MPH): 24 PEAK WIND DIR (DEG):220 PEAK WIND TIME (LST):      FASTEST 2MIN SPEED (MPH): 17FASTEST 2MIN DIR (DEG):220 FASTEST 2MIN TIME (LST):     AVERAGE WIND SPEED (MPH): 7.0 24 HR AVG TEMP (F): 63DEPART FROM NORMAL:  8  HEATING DEGREE DAYS:  2 COOLING DEGREE DAYS:  0 LATEST DAY MAX TEMP (0700-1900 LST):68  LATEST NIGHT MIN TEMP(1900-0800 LST):57 HOURLY INCREMENTAL PRECIPITATION VALUES (IN):.00 0.00 0.00 0.00 0.00 0.00 0.00 0.00 0.00 0.00 0.00 0.00 0.00 0.00 0.00 0.00 0.00 0.00 0.00 0.00 0.02 0.18 0.21 0.11","SOD  ","6",,,,,,,,,,,,,,,,,,,,,,,,,"0621","1731","2007-05-17"
"72793024233","2020-10-10T00:30:00","FM-16","7",,,,,,,,,,,,,,,,,,,,,,,,,,,,,,,,,,,,,,,"29.65","56","58","0.04","-RA:02 |RA |RA",,,"93",,"BKN:07 7 BKN:07 30 OVC:08 37","29.19","7.00","57","190",,"8",,,,,,,,,,,,,,,,,,,,,,,,,,,,,,,,,,,,,"MET12710/10/20 00:30:02 SPECI KSEA 100830Z 19007KT 7SM -RA BKN007 BKN030 OVC037 14/13 A2965 RMK AO2 BKN007 V SCT P0004 T01440133 (MR)","FM-16","7",,,,,,,,,,,,,,,,,,,,,,,,,,,"2007-05-17"
"72793024233","2020-10-10T00:53:00","FM-15","7",,,,,,,,,,,,,,,,,,,,,,,,,,,,,,,,,,,,,,,"29.64","56","58","0.04","-RA:02 |RA |RA","+0.03","8","93","29.66","BKN:07 5 BKN:07 35 OVC:08 85","29.18","10.00","57","180",,"9",,,,,,,,,,,,,,,,,,,,,,,,,,,,,,,,,,,,,"MET14710/10/20 00:53:02 METAR KSEA 100853Z 18008KT 10SM -RA BKN005 BKN035 OVC085 14/13 A2964 RMK AO2 SLP043 BKN005 V SCT P0005 60037 T01440133 58010 (MR)","FM-15","7",,,,,,,,,,,,,,,,,,,,,,,,,,,"2007-05-17"
"72793024233","2020-10-10T01:17:00","FM-16","7",,,,,,,,,,,,,,,,,,,,,,,,,,,,,,,,,,,,,,,"29.63","56","58","0.02","-RA:02 |RA |RA",,,"93",,"SCT:04 6 SCT:04 27 OVC:08 65","29.17","8.00","57","190",,"9",,,,,,,,,,,,,,,,,,,,,,,,,,,,,,,,,,,,,"MET11410/10/20 01:17:02 SPECI KSEA 100917Z 19008KT 8SM -RA SCT006 SCT027 OVC065 14/13 A2963 RMK AO2 P0002 T01440133 (MR)","FM-16","7",,,,,,,,,,,,,,,,,,,,,,,,,,,"2007-05-17"
"72793024233","2020-10-10T01:53:00","FM-15","7",,,,,,,,,,,,,,,,,,,,,,,,,,,,,,,,,,,,,,,"29.62","56","58","0.08","-RA:02 |RA |RA",,,"93","29.63","FEW:02 6 SCT:04 33 OVC:08 70","29.16","7.00","57","190",,"11",,,,,,,,,,,,,,,,,,,,,,,,,,,,,,,,,,,,,"MET12110/10/20 01:53:02 METAR KSEA 100953Z 19010KT 7SM -RA FEW006 SCT033 OVC070 14/13 A2962 RMK AO2 SLP034 P0008 T01440133 (MR)","FM-15","7",,,,,,,,,,,,,,,,,,,,,,,,,,,"2007-05-17"
"72793024233","2020-10-10T02:53:00","FM-15","7",,,,,,,,,,,,,,,,,,,,,,,,,,,,,,,,,,,,,,,"29.58","55","57","0.11","RA:02 BR:1 |RA |RA",,,"93","29.59","FEW:02 7 BKN:07 49 OVC:08 70","29.12","5.00","56","160","23","18",,,,,,,,,,,,,,,,,,,,,,,,,,,,,,,,,,,,,"MET13310/10/20 02:53:02 METAR KSEA 101053Z 16016G20KT 5SM RA BR FEW007 BKN049 OVC070 14/13 A2958 RMK AO2 PRESFR SLP021 P0011 T01390128 (MR)","FM-15","7",,,,,,,,,,,,,,,,,,,,,,,,,,,"2007-05-17"
"72793024233","2020-10-10T03:53:00","FM-15","7",,,,,,,,,,,,,,,,,,,,,,,,,,,,,,,,,,,,,,,"29.55","53","57","0.08","-RA:02 |RA |RA","+0.09","8","87","29.57","SCT:04 55 OVC:08 75","29.09","10.00","55","170",,"10",,,,,,,,,,,,,,,,,,,,,,,,,,,,,,,,,,,,,"MET14510/10/20 03:53:02 METAR KSEA 101153Z 17009KT 10SM -RA SCT055 OVC075 14/12 A2955 RMK AO2 SLP012 P0009 60065 70083 T01390117 10150 20139 58030 (MR)","FM-15","7",,,,,,,,,,,,,,,,,,,,,,,,,,,"2007-05-17"
"72793024233","2020-10-10T04:00:00","FM-12","4",,,,,,,,,,,,,,,,,,,,,,,,,,,,,,,,,,,,,,,,"53","57",,"||RA","+0.09","8","87","29.57","57","29.08","9.94","55","170",,"10",,,,,,,,,,,,,,,,,,,,,,,,,,,,,,,,,,,,,"SYN09872793 11766 81709 10139 20117 39846 40012 58030 60171 761// 91153 333 10200 20139 70211 555 91012=","FM-12","4",,,,,,,,,,,,,,,,,,,,,,,,,,,"2007-05-17"
"72793024233","2020-10-10T04:53:00","FM-15","7",,,,,,,,,,,,,,,,,,,,,,,,,,,,,,,,,,,,,,,"29.55","54","57","0.08","-RA:02 BR:1 |RA |RA",,,"90","29.56","SCT:04 20 BKN:07 35 OVC:08 46","29.09","5.00","55","190",,"15",,,,,,,,,,,,,,,,,,,,,,,,,,,,,,,,,,,,,"MET12410/10/20 04:53:02 METAR KSEA 101253Z 19013KT 5SM -RA BR SCT020 BKN035 OVC046 14/12 A2955 RMK AO2 SLP010 P0007 T01390122 (MR)","FM-15","7",,,,,,,,,,,,,,,,,,,,,,,,,,,"2007-05-17"
"72793024233","2020-10-10T05:53:00","FM-15","7",,,,,,,,,,,,,,,,,,,,,,,,,,,,,,,,,,,,,,,"29.55","54","57","0.09","RA:02 |RA |RA",,,"90","29.56","SCT:04 13 BKN:07 31 OVC:08 55","29.09","7.00","55","200","24","20",,,,,,,,,,,,,,,,,,,,,,,,,,,,,,,,,,,,,"MET12310/10/20 05:53:02 METAR KSEA 101353Z 20017G21KT 7SM RA SCT013 BKN031 OVC055 14/12 A2955 RMK AO2 SLP010 P0009 T01390122 (TL)","FM-15","7",,,,,,,,,,,,,,,,,,,,,,,,,,,"2007-05-17"
"72793024233","2020-10-10T06:53:00","FM-15","7",,,,,,,,,,,,,,,,,,,,,,,,,,,,,,,,,,,,,,,"29.57","53","56","0.01","-RA:02 |RA |RA","-0.02","3","90","29.59","SCT:04 15 BKN:07 65 OVC:08 85","29.11","10.00","54","200",,"17",,,,,,,,,,,,,,,,,,,,,,,,,,,,,,,,,,,,,"MET14310/10/20 06:53:02 METAR KSEA 101453Z 20015KT 10SM -RA SCT015 BKN065 OVC085 13/12 A2957 RMK AO2 RAE08B35 SLP019 P0002 60018 T01330117 53007 (TL)","FM-15","7",,,,,,,,,,,,,,,,,,,,,,,,,,,"2007-05-17"
"72793024233","2020-10-10T07:27:00","FM-16","7",,,,,,,,,,,,,,,,,,,,,,,,,,,,,,,,,,,,,,,"29.58","53","56","T","-RA:02 |RA |RA",,,"90",,"FEW:02 15 BKN:07 20 OVC:08 80","29.12","10.00","54","190",,"16",,,,,,,,,,,,,,,,,,,,,,,,,,,,,,,,,,,,,"MET12410/10/20 07:27:02 SPECI KSEA 101527Z 19014KT 10SM -RA FEW015 BKN020 OVC080 13/12 A2958 RMK AO2 RAE05B26 P0000 T01330117 (TL)","FM-16","7",,,,,,,,,,,,,,,,,,,,,,,,,,,"2007-05-17"
"72793024233","2020-10-10T07:51:00","FM-16","7",,,,,,,,,,,,,,,,,,,,,,,,,,,,,,,,,,,,,,,"29.58","52","55","T",,,,"88",,"SCT:04 20 BKN:07 70 OVC:08 90","29.12","10.00","53","190","26","20",,,,,,,,,,,,,,,,,,,,,,,,,,,,,,,,,,,,,"MET11610/10/20 07:51:02 SPECI KSEA 101551Z 19017G23KT 10SM SCT020 BKN070 OVC090 13/11 A2958 RMK AO2 RAE05B26E39 P0000 (TL)","FM-16","7",,,,,,,,,,,,,,,,,,,,,,,,,,,"2007-05-17"
"72793024233","2020-10-10T07:53:00","FM-15","7",,,,,,,,,,,,,,,,,,,,,,,,,,,,,,,,,,,,,,,"29.58","52","55","T",,,,"90","29.60","SCT:04 18 BKN:07 70 OVC:08 90","29.12","10.00","53","190","26","20",,,,,,,,,,,,,,,,,,,,,,,,,,,,,,,,,,,,,"MET13310/10/20 07:53:02 METAR KSEA 101553Z 19017G23KT 10SM SCT018 BKN070 OVC090 13/11 A2958 RMK AO2 RAE05B26E39 SLP023 P0000 T01280111 (TL)","FM-15","7",,,,,,,,,,,,,,,,,,,,,,,,,,,"2007-05-17"
"72793024233","2020-10-10T08:53:00","FM-15","7",,,,,,,,,,,,,,,,,,,,,,,,,,,,,,,,,,,,,,,"29.60","51","55","0.00",,,,"87","29.61","FEW:02 18 OVC:08 110","29.14","10.00","53","190",,"14",,,,,,,,,,,,,,,,,,,,,,,,,,,,,,,,,,,,,"MET10510/10/20 08:53:02 METAR KSEA 101653Z 19012KT 10SM FEW018 OVC110 13/11 A2960 RMK AO2 SLP028 T01280106 (TL)","FM-15","7",,,,,,,,,,,,,,,,,,,,,,,,,,,"2007-05-17"
"72793024233","2020-10-10T09:53:00","FM-15","7",,,,,,,,,,,,,,,,,,,,,,,,,,,,,,,,,,,,,,,"29.63","50","55","0.00",,"-0.04","3","83","29.65","SCT:04 13 BKN:07 85 OVC:08 110","29.17","10.00","52","200","25","17",,,,,,,,,,,,,,,,,,,,,,,,,,,,,,,,,,,,,"MET13610/10/20 09:53:02 METAR KSEA 101753Z 20015G22KT 10SM SCT013 BKN085 OVC110 13/10 A2963 RMK AO2 SLP039 60018 T01280100 10139 20128 53015 $","FM-15","7",,,,,,,,,,,,,,,,,,,,,,,,,,,"2007-05-17"
"72793024233","2020-10-10T10:00:00","FM-12","4",,,,,,,,,,,,,,,,,,,,,,,,,,,,,,,,,,,,,,,,"50","55",,,"-0.04","3","83","29.65","15","29.15","9.94","52","200",,"17",,,,,,,,,,,,,,,,,,,,,,,,,,,,,,,,,,,,,"SYN09272793 12466 82015 10128 20100 39872 40039 53015 60051 91753 333 10150 20128 91022 555 91018=","FM-12","4",,,,,,,,,,,,,,,,,,,,,,,,,,,"2007-05-17"
"72793024233","2020-10-10T10:28:00","FM-16","7",,,,,,,,,,,,,,,,,,,,,,,,,,,,,,,,,,,,,,,"29.65","51","56",,,,,"84",,"BKN:07 19 OVC:08 110","29.19","10.00","53","210","24","14",,,,,,,,,,,,,,,,,,,,,,,,,,,,,,,,,,,,,"MET09810/10/20 10:28:02 SPECI KSEA 101828Z 21012G21KT 10SM BKN019 OVC110 13/11 A2965 RMK AO2 T01330106 $","FM-16","7",,,,,,,,,,,,,,,,,,,,,,,,,,,"2007-05-17"
"72793024233","2020-10-10T10:53:00","FM-15","7",,,,,,,,,,,,,,,,,,,,,,,,,,,,,,,,,,,,,,,"29.65","50","57","0.00",,,,"78","29.66","BKN:07 18 BKN:07 110","29.19","10.00","53","200","32","21",,,,,,,,,,,,,,,,,,,,,,,,,,,,,,,,,,,,,"MET12310/10/20 10:53:02 METAR KSEA 101853Z 20018G28KT 10SM BKN018 BKN110 14/10 A2965 RMK AO2 PK WND 19028/1852 SLP045 T01390100 $","FM-15","7",,,,,,,,,,,,,,,,,,,,,,,,,,,"2007-05-17"
"72793024233","2020-10-10T11:23:00","FM-16","7",,,,,,,,,,,,,,,,,,,,,,,,,,,,,,,,,,,,,,,"29.65","48","56",,,,,"75",,"SCT:04 19 OVC:08 100","29.19","10.00","52","VRB","18","9",,,,,,,,,,,,,,,,,,,,,,,,,,,,,,,,,,,,,"MET11610/10/20 11:23:02 SPECI KSEA 101923Z 19008G16KT 10SM SCT019 OVC100 13/09 A2965 RMK AO2 PK WND 19026/1854 T01330089 $","FM-16","7",,,,,,,,,,,,,,,,,,,,,,,,,,,"2007-05-17"
"72793024233","2020-10-10T11:53:00","FM-15","7",,,,,,,,,,,,,,,,,,,,,,,,,,,,,,,,,,,,,,,"29.66","47","58","0.00",,,,"67","29.67","FEW:02 20 FEW:02 40 SCT:04 100","29.20","10.00","52","210","31","18",,,,,,,,,,,,,,,,,,,,,,,,,,,,,,,,,,,,,"MET13010/10/20 11:53:02 METAR KSEA 101953Z 21016G27KT 10SM FEW020 FEW040 SCT100 14/08 A2966 RMK AO2 PK WND 22027/1950 SLP049 T01440083 $","FM-15","7",,,,,,,,,,,,,,,,,,,,,,,,,,,"2007-05-17"
"72793024233","2020-10-10T12:53:00","FM-15","7",,,,,,,,,,,,,,,,,,,,,,,,,,,,,,,,,,,,,,,"29.69","49","59","0.00",,"-0.06","3","69","29.70","FEW:02 23 SCT:04 40 BKN:07 150","29.23","10.00","54","210","25","16",,,,,,,,,,,,,,,,,,,,,,,,,,,,,,,,,,,,,"MET15310/10/20 12:53:02 METAR KSEA 102053Z 21014G22KT 10SM FEW023 SCT040 BKN150 15/09 A2969 RMK AO2 SLP058 OCNL LTGIC DSNT N CB DSNT N SHRA S T01500094 53020 $","FM-15","7",,,,,,,,,,,,,,,,,,,,,,,,,,,"2007-05-17"
"72793024233","2020-10-10T13:53:00","FM-15","7",,,,,,,,,,,,,,,,,,,,,,,,,,,,,,,,,,,,,,,"29.72","48","61","0.00",,,,"63","29.73","FEW:02 25 SCT:04 40 BKN:07 220","29.26","10.00","54","210","23","17",,,,,,,,,,,,,,,,,,,,,,,,,,,,,,,,,,,,,"MET13710/10/20 13:53:02 METAR KSEA 102153Z 21015G20KT 10SM FEW025 SCT040 BKN220 16/09 A2972 RMK AO2 PK WND 22028/2117 SLP069 SHRA E T01610089 $","FM-15","7",,,,,,,,,,,,,,,,,,,,,,,,,,,"2007-05-17"
"72793024233","2020-10-10T14:53:00","FM-15","7",,,,,,,,,,,,,,,,,,,,,,,,,,,,,,,,,,,,,,,"29.75","47","59","0.00",,,,"64","29.76","FEW:02 25 SCT:04 90 BKN:07 200","29.29","10.00","53","210","26","17",,,,,,,,,,,,,,,,,,,,,,,,,,,,,,,,,,,,,"MET14010/10/20 14:53:02 METAR KSEA 102253Z 21015G23KT 10SM FEW025 SCT090 BKN200 15/08 A2975 RMK AO2 SLP078 OCNL LTGIC DSNT N CB DSNT N T01500083 $","FM-15","7",,,,,,,,,,,,,,,,,,,,,,,,,,,"2007-05-17"
"72793024233","2020-10-10T15:53:00","FM-15","7",,,,,,,,,,,,,,,,,,,,,,,,,,,,,,,,,,,,,,,"29.78","41","60","0.00",,"-0.09","1","50","29.79","FEW:02 30 SCT:04 50 SCT:04 170","29.32","10.00","50","230","22","14",,,,,,,,,,,,,,,,,,,,,,,,,,,,,,,,,,,,,"MET13510/10/20 15:53:02 METAR KSEA 102353Z 23012G19KT 10SM FEW030 SCT050 SCT170 16/05 A2978 RMK AO2 SLP088 VCSH T01560050 10167 20128 51030 $","FM-15","7",,,,,,,,,,,,,,,,,,,,,,,,,,,"2007-05-17"
"72793024233","2020-10-10T16:00:00","FM-12","4",,,,,,,,,,,,,,,,,,,,,,,,,,,,,,,,,,,,,,,,"41","60",,,"-0.09","1","50","29.79","26","29.30","9.94","50","230",,"14",,,,,,,,,,,,,,,,,,,,,,,,,,,,,,,,,,,,,"SYN08672793 32566 42312 10156 20050 39922 40088 51030 92353 333 10167 20128 91019 555 91100=","FM-12","4",,,,,,,,,,,,,,,,,,,,,,,,,,,"2007-05-17"
"72793024233","2020-10-10T16:53:00","FM-15","7",,,,,,,,,,,,,,,,,,,,,,,,,,,,,,,,,,,,,,,"29.81","41","58","0.00",,,,"53","29.82","FEW:02 30 SCT:04 50 SCT:04 180","29.35","10.00","50","240",,"11",,,,,,,,,,,,,,,,,,,,,,,,,,,,,,,,,,,,,"MET11410/10/20 16:53:01 METAR KSEA 110053Z 24010KT 10SM FEW030 SCT050 SCT180 14/05 A2981 RMK AO2 SLP099 VCSH T01440050 $","FM-15","7",,,,,,,,,,,,,,,,,,,,,,,,,,,"2007-05-17"
"72793024233","2020-10-10T17:53:00","FM-15","7",,,,,,,,,,,,,,,,,,,,,,,,,,,,,,,,,,,,,,,"29.83","44","54","0.00",,,,"69","29.85","FEW:02 30 SCT:04 50 SCT:04 180","29.36","10.00","49","210",,"10",,,,,,,,,,,,,,,,,,,,,,,,,,,,,,,,,,,,,"MET10910/10/20 17:53:01 METAR KSEA 110153Z 21009KT 10SM FEW030 SCT050 SCT180 12/07 A2983 RMK AO2 SLP108 T01220067 $","FM-15","7",,,,,,,,,,,,,,,,,,,,,,,,,,,"2007-05-17"
"72793024233","2020-10-10T18:53:00","FM-15","7",,,,,,,,,,,,,,,,,,,,,,,,,,,,,,,,,,,,,,,"29.85","45","54","0.00",,"-0.08","1","72","29.87","FEW:02 30 FEW:02 50 BKN:07 200","29.39","10.00","49","210",,"9",,,,,,,,,,,,,,,,,,,,,,,,,,,,,,,,,,,,,"MET11510/10/20 18:53:01 METAR KSEA 110253Z 21008KT 10SM FEW030 FEW050 BKN200 12/07 A2985 RMK AO2 SLP116 T01220072 51026 $","FM-15","7",,,,,,,,,,,,,,,,,,,,,,,,,,,"2007-05-17"
"72793024233","2020-10-10T19:53:00","FM-15","7",,,,,,,,,,,,,,,,,,,,,,,,,,,,,,,,,,,,,,,"29.87","45","54","0.00",,,,"72","29.89","FEW:02 30 BKN:07 160","29.41","10.00","49","210",,"11",,,,,,,,,,,,,,,,,,,,,,,,,,,,,,,,,,,,,"MET10210/10/20 19:53:01 METAR KSEA 110353Z 21010KT 10SM FEW030 BKN160 12/07 A2987 RMK AO2 SLP121 T01220072 $","FM-15","7",,,,,,,,,,,,,,,,,,,,,,,,,,,"2007-05-17"
"72793024233","2020-10-10T20:53:00","FM-15","7",,,,,,,,,,,,,,,,,,,,,,,,,,,,,,,,,,,,,,,"29.88","46","54","0.00",,,,"75","29.90","FEW:02 30 OVC:08 120","29.41","10.00","50","210",,"10",,,,,,,,,,,,,,,,,,,,,,,,,,,,,,,,,,,,,"MET10210/10/20 20:53:01 METAR KSEA 110453Z 21009KT 10SM FEW030 OVC120 12/08 A2988 RMK AO2 SLP126 T01220078 $","FM-15","7",,,,,,,,,,,,,,,,,,,,,,,,,,,"2007-05-17"
"72793024233","2020-10-10T21:53:00","FM-15","7",,,,,,,,,,,,,,,,,,,,,,,,,,,,,,,,,,,,,,,"29.90","46","53","0.00",,"-0.04","1","77","29.91","FEW:02 30 OVC:08 95","29.44","10.00","49","210","25","18",,,,,,,,,,,,,,,,,,,,,,,,,,,,,,,,,,,,,"MET12310/10/20 21:53:01 METAR KSEA 110553Z 21016G22KT 10SM FEW030 OVC095 12/08 A2990 RMK AO2 SLP130 T01170078 10156 20117 51014 $","FM-15","7",,,,,,,,,,,,,,,,,,,,,,,,,,,"2007-05-17"
"72793024233","2020-10-10T22:00:00","FM-12","4",,,,,,,,,,,,,,,,,,,,,,,,,,,,,,,,,,,,,,,,"46","53",,,"-0.04","1","77","29.91","26","29.42","9.94","49","210",,"18",,,,,,,,,,,,,,,,,,,,,,,,,,,,,,,,,,,,,"SYN08672793 32566 82116 10117 20078 39963 40130 51014 90553 333 10156 20117 91022 555 91106=","FM-12","4",,,,,,,,,,,,,,,,,,,,,,,,,,,"2007-05-17"
"72793024233","2020-10-10T22:53:00","FM-15","7",,,,,,,,,,,,,,,,,,,,,,,,,,,,,,,,,,,,,,,"29.92","46","52","0.00",,,,"80","29.93","FEW:02 30 BKN:07 90 OVC:08 100","29.45","10.00","49","200",,"11",,,,,,,,,,,,,,,,,,,,,,,,,,,,,,,,,,,,,"MET10910/10/20 22:53:01 METAR KSEA 110653Z 20010KT 10SM FEW030 BKN090 OVC100 11/08 A2992 RMK AO2 SLP137 T01110078 $","FM-15","7",,,,,,,,,,,,,,,,,,,,,,,,,,,"2007-05-17"
"72793024233","2020-10-10T23:53:00","FM-15","7",,,,,,,,,,,,,,,,,,,,,,,,,,,,,,,,,,,,,,,"29.94","46","52","0.00",,,,"80","29.96","SCT:04 18 OVC:08 100","29.47","10.00","49","200",,"11",,,,,,,,,,,,,,,,,,,,,,,,,,,,,,,,,,,,,"MET11210/10/20 23:53:01 METAR KSEA 110753Z 20010KT 10SM SCT018 OVC100 11/08 A2994 RMK AO2 SLP146 T01110078 401670111 $","FM-15","7",,,,,,,,,,,,,,,,,,,,,,,,,,,"2007-05-17"
"72793024233","2020-10-10T23:59:00","SOD  ","6",,,,,,,,,,,,,,,,,"49","57","77","29.73","29.24","52","14.6","0","2.7","8","62","52","220","32","0.49","0","0.0","200","24","RA BR",,,,,,,,,,,,,,,,,,,,,,,,,,,,,,,,,,,,,,,,,,,,,,,,,,,,,,,"SOD75624 HR PRECIPITATION (IN): 0.49 SNOW DEPTH (IN):0     24 HR SNOWFALL (IN):0.0  WEATHER(CODE):1  24 HR MAX TEMP (F): 6224 HR MIN TEMP (F): 52AVERAGE STATION PRESSURE:29.245 MINIMUM SEA LEVEL PRESSURE:29.55 TIME OF OCCURRENCE:0540 PEAK WIND SPEED (MPH): 32 PEAK WIND DIR (DEG):220 PEAK WIND TIME (LST):      FASTEST 2MIN SPEED (MPH): 24FASTEST 2MIN DIR (DEG):200 FASTEST 2MIN TIME (LST):     AVERAGE WIND SPEED (MPH):14.6 24 HR AVG TEMP (F): 57DEPART FROM NORMAL:  3  HEATING DEGREE DAYS:  8 COOLING DEGREE DAYS:  0 LATEST DAY MAX TEMP (0700-1900 LST):62  LATEST NIGHT MIN TEMP(1900-0800 LST):55 HOURLY INCREMENTAL PRECIPITATION VALUES (IN):.04 0.08 0.11 0.08 0.08 0.09 0.01 T    0.00 0.00 0.00 0.00 0.00 0.00 0.00 0.00 0.00 0.00 0.00 0.00 0.00 0.00 0.00 0.00","SOD  ","6",,,,,,,,,,,,,,,,,,,,,,,,,"0622","1729","2007-05-17"
"72793024233","2020-10-11T00:22:00","FM-16","7",,,,,,,,,,,,,,,,,,,,,,,,,,,,,,,,,,,,,,,"29.95","47","51","0.01","-RA:02 |RA |RA",,,"86",,"BKN:07 16 BKN:07 22 OVC:08 55","29.48","10.00","49","200",,"9",,,,,,,,,,,,,,,,,,,,,,,,,,,,,,,,,,,,,"MET12310/11/20 00:22:02 SPECI KSEA 110822Z 20008KT 10SM -RA BKN016 BKN022 OVC055 11/08 A2995 RMK AO2 RAB04 P0001 T01060083 $ (LC)","FM-16","7",,,,,,,,,,,,,,,,,,,,,,,,,,,"2007-05-17"
"72793024233","2020-10-11T00:53:00","FM-15","7",,,,,,,,,,,,,,,,,,,,,,,,,,,,,,,,,,,,,,,"29.97","48","51","0.01",,"-0.07","3","89","29.98","BKN:07 16 OVC:08 55","29.50","10.00","49","190",,"7",,,,,,,,,,,,,,,,,,,,,,,,,,,,,,,,,,,,,"MET13410/11/20 00:53:02 METAR KSEA 110853Z 19006KT 10SM BKN016 OVC055 11/09 A2997 RMK AO2 RAB04E31 SLP154 P0001 60001 T01060089 53024 $ (LC)","FM-15","7",,,,,,,,,,,,,,,,,,,,,,,,,,,"2007-05-17"
"72793024233","2020-10-11T01:53:00","FM-15","7",,,,,,,,,,,,,,,,,,,,,,,,,,,,,,,,,,,,,,,"29.98","46","51","0.00",,,,"83","30.00","BKN:07 16 OVC:08 50","29.51","10.00","48","170",,"10",,,,,,,,,,,,,,,,,,,,,,,,,,,,,,,,,,,,,"MET10710/11/20 01:53:02 METAR KSEA 110953Z 17009KT 10SM BKN016 OVC050 11/08 A2998 RMK AO2 SLP158 T01060078 $ (LC)","FM-15","7",,,,,,,,,,,,,,,,,,,,,,,,,,,"2007-05-17"
"72793024233","2020-10-11T02:53:00","FM-15","7",,,,,,,,,,,,,,,,,,,,,,,,,,,,,,,,,,,,,,,"29.99","46","50","0.00",,,,"86","30.01","BKN:07 17","29.52","10.00","48","170",,"8",,,,,,,,,,,,,,,,,,,,,,,,,,,,,,,,,,,,,"MET10010/11/20 02:53:02 METAR KSEA 111053Z 17007KT 10SM BKN017 10/08 A2999 RMK AO2 SLP163 T01000078 $ (LC)","FM-15","7",,,,,,,,,,,,,,,,,,,,,,,,,,,"2007-05-17"
"72793024233","2020-10-11T03:40:00","FM-16","7",,,,,,,,,,,,,,,,,,,,,,,,,,,,,,,,,,,,,,,"29.99","46","51",,,,,"83",,"OVC:08 14","29.52","10.00","48","180",,"10",,,,,,,,,,,,,,,,,,,,,,,,,,,,,,,,,,,,,"MET09310/11/20 03:40:02 SPECI KSEA 111140Z 18009KT 10SM OVC014 11/08 A2999 RMK AO2 T01060078 $ (LC)","FM-16","7",,,,,,,,,,,,,,,,,,,,,,,,,,,"2007-05-17"
"72793024233","2020-10-11T03:53:00","FM-15","7",,,,,,,,,,,,,,,,,,,,,,,,,,,,,,,,,,,,,,,"30.00","46","51","0.00",,"-0.03","1","83","30.01","OVC:08 14","29.53","10.00","48","180",,"10",,,,,,,,,,,,,,,,,,,,,,,,,,,,,,,,,,,,,"MET13010/11/20 03:53:02 METAR KSEA 111153Z 18009KT 10SM OVC014 11/08 A3000 RMK AO2 SLP164 60001 70019 T01060078 10117 20100 51009 $ (LC)","FM-15","7",,,,,,,,,,,,,,,,,,,,,,,,,,,"2007-05-17"
"72793024233","2020-10-11T04:00:00","FM-12","4",,,,,,,,,,,,,,,,,,,,,,,,,,,,,,,,,,,,,,,,"46","51",,,"-0.03","1","83","30.01","15","29.52","9.94","48","180",,"10",,,,,,,,,,,,,,,,,,,,,,,,,,,,,,,,,,,,,"SYN09272793 12466 81809 10106 20078 39996 40164 51009 69931 91153 333 10167 20100 70048 555 91112=","FM-12","4",,,,,,,,,,,,,,,,,,,,,,,,,,,"2007-05-17"
"72793024233","2020-10-11T04:53:00","FM-15","7",,,,,,,,,,,,,,,,,,,,,,,,,,,,,,,,,,,,,,,"30.01","46","50","0.00",,,,"86","30.03","OVC:08 13","29.54","10.00","48","200",,"7",,,,,,,,,,,,,,,,,,,,,,,,,,,,,,,,,,,,,"MET10010/11/20 04:53:02 METAR KSEA 111253Z 20006KT 10SM OVC013 10/08 A3001 RMK AO2 SLP169 T01000078 $ (LZ)","FM-15","7",,,,,,,,,,,,,,,,,,,,,,,,,,,"2007-05-17"
"72793024233","2020-10-11T05:53:00","FM-15","7",,,,,,,,,,,,,,,,,,,,,,,,,,,,,,,,,,,,,,,"30.03","46","51","0.00",,,,"83","30.04","OVC:08 18","29.56","10.00","48","200",,"9",,,,,,,,,,,,,,,,,,,,,,,,,,,,,,,,,,,,,"MET10010/11/20 05:53:02 METAR KSEA 111353Z 20008KT 10SM OVC018 11/08 A3003 RMK AO2 SLP174 T01060078 $ (LZ)","FM-15","7",,,,,,,,,,,,,,,,,,,,,,,,,,,"2007-05-17"
"72793024233","2020-10-11T06:53:00","FM-15","7",,,,,,,,,,,,,,,,,,,,,,,,,,,,,,,,,,,,,,,"30.03","45","50","0.00",,"-0.04","1","83","30.05","FEW:02 10 BKN:07 21 BKN:07 120","29.56","10.00","48","200",,"11",,,,,,,,,,,,,,,,,,,,,,,,,,,,,,,,,,,,,"MET12010/11/20 06:53:02 METAR KSEA 111453Z 20010KT 10SM FEW010 BKN021 BKN120 10/07 A3003 RMK AO2 SLP176 T01000072 51012 $ (LZ)","FM-15","7",,,,,,,,,,,,,,,,,,,,,,,,,,,"2007-05-17"
"72793024233","2020-10-11T07:53:00","FM-15","7",,,,,,,,,,,,,,,,,,,,,,,,,,,,,,,,,,,,,,,"30.04","46","52","0.00",,,,"80","30.06","FEW:02 10 SCT:04 21 BKN:07 120","29.57","10.00","49","190",,"9",,,,,,,,,,,,,,,,,,,,,,,,,,,,,,,,,,,,,"MET11410/11/20 07:53:02 METAR KSEA 111553Z 19008KT 10SM FEW010 SCT021 BKN120 11/08 A3004 RMK AO2 SLP178 T01110078 $ (LZ)","FM-15","7",,,,,,,,,,,,,,,,,,,,,,,,,,,"2007-05-17"
"72793024233","2020-10-11T08:53:00","FM-15","7",,,,,,,,,,,,,,,,,,,,,,,,,,,,,,,,,,,,,,,"30.02","45","53","0.00",,,,"74","30.04","FEW:02 10 SCT:04 30 OVC:08 100","29.55","10.00","49","180",,"8",,,,,,,,,,,,,,,,,,,,,,,,,,,,,,,,,,,,,"MET11410/11/20 08:53:02 METAR KSEA 111653Z 18007KT 10SM FEW010 SCT030 OVC100 12/07 A3002 RMK AO2 SLP173 T01170072 $ (LZ)","FM-15","7",,,,,,,,,,,,,,,,,,,,,,,,,,,"2007-05-17"
"72793024233","2020-10-11T09:53:00","FM-15","7",,,,,,,,,,,,,,,,,,,,,,,,,,,,,,,,,,,,,,,"30.01","46","54","0.00",,"+0.02","8","75","30.03","FEW:02 20 SCT:04 50 OVC:08 70","29.54","10.00","50","190",,"6",,,,,,,,,,,,,,,,,,,,,,,,,,,,,,,,,,,,,"MET13210/11/20 09:53:02 METAR KSEA 111753Z 19005KT 10SM FEW020 SCT050 OVC070 12/08 A3001 RMK AO2 SLP169 T01220078 10122 20100 58007 $ (LZ)","FM-15","7",,,,,,,,,,,,,,,,,,,,,,,,,,,"2007-05-17"
"72793024233","2020-10-11T10:00:00","FM-12","4",,,,,,,,,,,,,,,,,,,,,,,,,,,,,,,,,,,,,,,,"46","54",,,"+0.02","8","75","30.03","26","29.53","9.94","50","190",,"6",,,,,,,,,,,,,,,,,,,,,,,,,,,,,,,,,,,,,"SYN08072793 32566 81905 10122 20078 39999 40169 58007 91753 333 10122 20100 555 91118=","FM-12","4",,,,,,,,,,,,,,,,,,,,,,,,,,,"2007-05-17"
"72793024233","2020-10-11T10:53:00","FM-15","7",,,,,,,,,,,,,,,,,,,,,,,,,,,,,,,,,,,,,,,"30.00","49","54","0.01","-RA:02 |RA |RA",,,"83","30.02","FEW:02 10 SCT:04 50 OVC:08 65","29.53","10.00","51","190",,"7",,,,,,,,,,,,,,,,,,,,,,,,,,,,,,,,,,,,,"MET12510/11/20 10:53:02 METAR KSEA 111853Z 19006KT 10SM -RA FEW010 SCT050 OVC065 12/09 A3000 RMK AO2 RAB09 SLP167 P0001 T01220094 $","FM-15","7",,,,,,,,,,,,,,,,,,,,,,,,,,,"2007-05-17"
"72793024233","2020-10-11T11:53:00","FM-15","7",,,,,,,,,,,,,,,,,,,,,,,,,,,,,,,,,,,,,,,"29.95","49","54","0.03","-RA:02 |RA |RA",,,"83","29.97","FEW:02 20 BKN:07 43 OVC:08 60","29.48","9.00","51","140",,"10",,,,,,,,,,,,,,,,,,,,,,,,,,,,,,,,,,,,,"MET11810/11/20 11:53:02 METAR KSEA 111953Z 14009KT 9SM -RA FEW020 BKN043 OVC060 12/09 A2995 RMK AO2 SLP148 P0003 T01220094 $","FM-15","7",,,,,,,,,,,,,,,,,,,,,,,,,,,"2007-05-17"
"72793024233","2020-10-11T12:53:00","FM-15","7",,,,,,,,,,,,,,,,,,,,,,,,,,,,,,,,,,,,,,,"29.88","50","55","0.07","-RA:02 |RA |RA","+0.13","8","83","29.90","BKN:07 32 OVC:08 39","29.41","6.00","52","130",,"13",,,,,,,,,,,,,,,,,,,,,,,,,,,,,,,,,,,,,"MET13010/11/20 12:53:02 METAR KSEA 112053Z 13011KT 6SM -RA BKN032 OVC039 13/10 A2988 RMK AO2 PRESFR SLP125 P0006 60010 T01280100 58044 $","FM-15","7",,,,,,,,,,,,,,,,,,,,,,,,,,,"2007-05-17"
"72793024233","2020-10-11T13:53:00","FM-15","7",,,,,,,,,,,,,,,,,,,,,,,,,,,,,,,,,,,,,,,"29.83","51","54","0.11","-RA:02 BR:1 |RA |RA",,,"90","29.84","OVC:08 31","29.36","4.00","52","140",,"13",,,,,,,,,,,,,,,,,,,,,,,,,,,,,,,,,,,,,"MET10710/11/20 13:53:02 METAR KSEA 112153Z 14011KT 4SM -RA BR OVC031 12/11 A2983 RMK AO2 SLP106 P0011 T01220106 $","FM-15","7",,,,,,,,,,,,,,,,,,,,,,,,,,,"2007-05-17"
"72793024233","2020-10-11T14:53:00","FM-15","7",,,,,,,,,,,,,,,,,,,,,,,,,,,,,,,,,,,,,,,"29.77","52","54","0.11","RA:02 BR:1 |RA |RA",,,"93","29.79","BKN:07 31 OVC:08 38","29.31","3.00","53","140",,"14",,,,,,,,,,,,,,,,,,,,,,,,,,,,,,,,,,,,,"MET13110/11/20 14:53:02 METAR KSEA 112253Z 14012KT 3SM R16L/6000VP6000FT RA BR BKN031 OVC038 12/11 A2977 RMK AO2 SLP087 P0010 T01220111 $","FM-15","7",,,,,,,,,,,,,,,,,,,,,,,,,,,"2007-05-17"
"72793024233","2020-10-11T15:21:00","FM-16","7",,,,,,,,,,,,,,,,,,,,,,,,,,,,,,,,,,,,,,,"29.74","52","56","0.05","-RA:02 BR:1 |RA |RA",,,"87",,"SCT:04 21 OVC:08 27","29.28","3.00","54","160",,"15",,,,,,,,,,,,,,,,,,,,,,,,,,,,,,,,,,,,,"MET10710/11/20 15:21:02 SPECI KSEA 112321Z 16013KT 3SM -RA BR SCT021 OVC027 13/11 A2974 RMK AO2 P0005 T01330111 $","FM-16","7",,,,,,,,,,,,,,,,,,,,,,,,,,,"2007-05-17"
"72793024233","2020-10-11T15:53:00","FM-15","7",,,,,,,,,,,,,,,,,,,,,,,,,,,,,,,,,,,,,,,"29.73","53","57","0.09","RA:02 BR:1 |RA |RA","+0.15","6","87","29.75","BKN:07 18 OVC:08 22","29.27","3.00","55","200","25","16",,,,,,,,,,,,,,,,,,,,,,,,,,,,,,,,,,,,,"MET15810/11/20 15:53:02 METAR KSEA 112353Z 20014G22KT 3SM R16L/5500VP6000FT RA BR BKN018 OVC022 14/12 A2973 RMK AO2 SLP073 P0008 60039 T01390117 10139 20117 56050 $","FM-15","7",,,,,,,,,,,,,,,,,,,,,,,,,,,"2007-05-17"
"72793024233","2020-10-11T16:00:00","FM-12","4",,,,,,,,,,,,,,,,,,,,,,,,,,,,,,,,,,,,,,,,"53","57",,"||RA","+0.15","6","87","29.75","15","29.25","2.98","55","200",,"16",,,,,,,,,,,,,,,,,,,,,,,,,,,,,,,,,,,,,"SYN10472793 11448 82014 10139 20117 39906 40073 56050 60101 763// 92353 333 10139 20100 91022 96010 555 91200=","FM-12","4",,,,,,,,,,,,,,,,,,,,,,,,,,,"2007-05-17"
"72793024233","2020-10-11T16:51:00","FM-16","6",,,,,,,,,,,,,,,,,,,,,,,,,,,,,,,,,,,,,,,"29.69","55","57",,"-RA:02 BR:1 |RA |RA",,,"94",,"BKN:07 13 OVC:08 18","29.23","3.00","56","180","39","24",,,,,,,,,,,,,,,,,,,,,,,,,,,,,,,,,,,,,"MET12810/11/20 16:51:03 SPECI KSEA 120051Z 18021G34KT 3SM -RA BR BKN013 OVC018 14/13 A2969 RMK AO2 PK WND 19034/0050 P0008 $ FIBI (TL)","FM-16","6",,,,,,,,,,,,,,,,,,,,,,,,,,,"2007-05-17"
"72793024233","2020-10-11T16:53:00","FM-15","7",,,,,,,,,,,,,,,,,,,,,,,,,,,,,,,,,,,,,,,"29.69","54","57","0.06","-RA:02 BR:1 |RA |RA",,,"90","29.71","BKN:07 13 OVC:08 18","29.23","3.00","55","190","39","23",,,,,,,,,,,,,,,,,,,,,,,,,,,,,,,,,,,,,"MET13510/11/20 16:53:01 METAR KSEA 120053Z 19020G34KT 3SM -RA BR BKN013 OVC018 14/12 A2969 RMK AO2 PK WND 19034/0050 SLP060 P0009 T01390122 $","FM-15","7",,,,,,,,,,,,,,,,,,,,,,,,,,,"2007-05-17"
"72793024233","2020-10-11T17:41:00","FM-16","7",,,,,,,,,,,,,,,,,,,,,,,,,,,,,,,,,,,,,,,"29.69","55","57","0.04","RA:02 BR:1 |RA |RA",,,"93",,"BKN:07 8 OVC:08 13","29.23","6.00","56","190","25","15",,,,,,,,,,,,,,,,,,,,,,,,,,,,,,,,,,,,,"MET12710/11/20 17:41:01 SPECI KSEA 120141Z 19013G22KT 6SM RA BR BKN008 OVC013 14/13 A2969 RMK AO2 PK WND 19027/0055 P0004 T01390128 $","FM-16","7",,,,,,,,,,,,,,,,,,,,,,,,,,,"2007-05-17"
"72793024233","2020-10-11T17:51:00","FM-16","6",,,,,,,,,,,,,,,,,,,,,,,,,,,,,,,,,,,,,,,"29.69","55","57",,"-RA:02 BR:1 |RA |RA",,,"94",,"BKN:07 8 OVC:08 13","29.23","2.00","56","190",,"16",,,,,,,,,,,,,,,,,,,,,,,,,,,,,,,,,,,,,"MET12510/11/20 17:51:03 SPECI KSEA 120151Z 19014KT 2SM -RA BR BKN008 OVC013 14/13 A2969 RMK AO2 PK WND 19027/0055 P0005 $ FIBI (TL)","FM-16","6",,,,,,,,,,,,,,,,,,,,,,,,,,,"2007-05-17"
"72793024233","2020-10-11T17:53:00","FM-15","7",,,,,,,,,,,,,,,,,,,,,,,,,,,,,,,,,,,,,,,"29.68","55","57","0.06","-RA:02 BR:1 |RA |RA",,,"93","29.70","BKN:07 8 OVC:08 13","29.22","2.00","56","190",,"17",,,,,,,,,,,,,,,,,,,,,,,,,,,,,,,,,,,,,"MET13210/11/20 17:53:01 METAR KSEA 120153Z 19015KT 2SM -RA BR BKN008 OVC013 14/13 A2968 RMK AO2 PK WND 19027/0055 SLP057 P0006 T01390128 $","FM-15","7",,,,,,,,,,,,,,,,,,,,,,,,,,,"2007-05-17"
"72793024233","2020-10-11T18:39:00","FM-16","7",,,,,,,,,,,,,,,,,,,,,,,,,,,,,,,,,,,,,,,"29.68","56","58","0.03","-RA:02 |RA |RA",,,"93",,"BKN:07 6 OVC:08 12","29.22","7.00","57","190","26","18",,,,,,,,,,,,,,,,,,,,,,,,,,,,,,,,,,,,,"MET12510/11/20 18:39:01 SPECI KSEA 120239Z 19016G23KT 7SM -RA BKN006 OVC012 14/13 A2968 RMK AO2 PK WND 18026/0155 P0003 T01440133 $","FM-16","7",,,,,,,,,,,,,,,,,,,,,,,,,,,"2007-05-17"
"72793024233","2020-10-11T18:53:00","FM-15","7",,,,,,,,,,,,,,,,,,,,,,,,,,,,,,,,,,,,,,,"29.68","56","58","0.03",,"+0.05","6","93","29.69","BKN:07 7 OVC:08 11","29.22","10.00","57","190","26","18",,,,,,,,,,,,,,,,,,,,,,,,,,,,,,,,,,,,,"MET14710/11/20 18:53:01 METAR KSEA 120253Z 19016G23KT 10SM BKN007 OVC011 14/13 A2968 RMK AO2 PK WND 18026/0155 RAE46 SLP055 P0003 60018 T01440133 56018 $","FM-15","7",,,,,,,,,,,,,,,,,,,,,,,,,,,"2007-05-17"
"72793024233","2020-10-11T19:53:00","FM-15","7",,,,,,,,,,,,,,,,,,,,,,,,,,,,,,,,,,,,,,,"29.67","56","58","0.02",,,,"93","29.69","BKN:07 7 OVC:08 11","29.21","10.00","57","200","25","16",,,,,,,,,,,,,,,,,,,,,,,,,,,,,,,,,,,,,"MET12210/11/20 19:53:01 METAR KSEA 120353Z 20014G22KT 10SM BKN007 OVC011 14/13 A2967 RMK AO2 RAB0256E44 SLP054 P0002 T01440133 $","FM-15","7",,,,,,,,,,,,,,,,,,,,,,,,,,,"2007-05-17"
"72793024233","2020-10-11T20:09:00","FM-16","7",,,,,,,,,,,,,,,,,,,,,,,,,,,,,,,,,,,,,,,"29.69","56","58",,,,,"93",,"OVC:08 11","29.23","10.00","57","200","24","16",,,,,,,,,,,,,,,,,,,,,,,,,,,,,,,,,,,,,"MET09110/11/20 20:09:01 SPECI KSEA 120409Z 20014G21KT 10SM OVC011 14/13 A2969 RMK AO2 T01440133 $","FM-16","7",,,,,,,,,,,,,,,,,,,,,,,,,,,"2007-05-17"
"72793024233","2020-10-11T20:18:00","FM-16","7",,,,,,,,,,,,,,,,,,,,,,,,,,,,,,,,,,,,,,,"29.68","56","58",,,,,"93",,"SCT:04 10 OVC:08 15","29.22","10.00","57","210","23","16",,,,,,,,,,,,,,,,,,,,,,,,,,,,,,,,,,,,,"MET09810/11/20 20:18:01 SPECI KSEA 120418Z 21014G20KT 10SM SCT010 OVC015 14/13 A2968 RMK AO2 T01440133 $","FM-16","7",,,,,,,,,,,,,,,,,,,,,,,,,,,"2007-05-17"
"72793024233","2020-10-11T20:53:00","FM-15","7",,,,,,,,,,,,,,,,,,,,,,,,,,,,,,,,,,,,,,,"29.68","55","58","0.00",,,,"90","29.70","BKN:07 17 BKN:07 24","29.22","10.00","56","200","29","18",,,,,,,,,,,,,,,,,,,,,,,,,,,,,,,,,,,,,"MET10510/11/20 20:53:01 METAR KSEA 120453Z 20016G25KT 10SM BKN017 BKN024 14/13 A2968 RMK AO2 SLP057 T01440128 $","FM-15","7",,,,,,,,,,,,,,,,,,,,,,,,,,,"2007-05-17"
"72793024233","2020-10-11T21:53:00","FM-15","7",,,,,,,,,,,,,,,,,,,,,,,,,,,,,,,,,,,,,,,"29.72","55","58","0.00",,"-0.04","3","90","29.73","BKN:07 22 BKN:07 27 OVC:08 45","29.26","10.00","56","190",,"18",,,,,,,,,,,,,,,,,,,,,,,,,,,,,,,,,,,,,"MET15110/11/20 21:53:01 METAR KSEA 120553Z 19016KT 10SM BKN022 BKN027 OVC045 14/13 A2972 RMK AO2 PK WND 20029/0518 SLP069 60020 T01440128 10150 20139 53013 $","FM-15","7",,,,,,,,,,,,,,,,,,,,,,,,,,,"2007-05-17"
"72793024233","2020-10-11T22:00:00","FM-12","4",,,,,,,,,,,,,,,,,,,,,,,,,,,,,,,,,,,,,,,,"55","58",,,"-0.04","3","90","29.73","26","29.24","9.94","56","190",,"18",,,,,,,,,,,,,,,,,,,,,,,,,,,,,,,,,,,,,"SYN08672793 12566 81916 10144 20128 39902 40069 53013 60051 90553 333 10150 20100 555 91206=","FM-12","4",,,,,,,,,,,,,,,,,,,,,,,,,,,"2007-05-17"
"72793024233","2020-10-11T22:47:00","FM-16","7",,,,,,,,,,,,,,,,,,,,,,,,,,,,,,,,,,,,,,,"29.73","55","57","0.01",,,,"94",,"FEW:02 9 BKN:07 14 OVC:08 21","29.27","10.00","56","200","32","22",,,,,,,,,,,,,,,,,,,,,,,,,,,,,,,,,,,,,"MET12810/11/20 22:47:01 SPECI KSEA 120647Z 20019G28KT 10SM FEW009 BKN014 OVC021 14/13 A2973 RMK AO2 PK WND 18028/0641 RAB13E30 P0001 $","FM-16","7",,,,,,,,,,,,,,,,,,,,,,,,,,,"2007-05-17"
"72793024233","2020-10-11T22:53:00","FM-15","7",,,,,,,,,,,,,,,,,,,,,,,,,,,,,,,,,,,,,,,"29.73","55","58","0.01",,,,"90","29.75","FEW:02 9 BKN:07 14 OVC:08 21","29.27","10.00","56","200","29","17",,,,,,,,,,,,,,,,,,,,,,,,,,,,,,,,,,,,,"MET14510/11/20 22:53:01 METAR KSEA 120653Z 20015G25KT 10SM FEW009 BKN014 OVC021 14/13 A2973 RMK AO2 PK WND 18028/0641 RAB13E30 SLP073 P0001 T01440128 $","FM-15","7",,,,,,,,,,,,,,,,,,,,,,,,,,,"2007-05-17"
"72793024233","2020-10-11T23:46:00","FM-16","7",,,,,,,,,,,,,,,,,,,,,,,,,,,,,,,,,,,,,,,"29.77","51","56",,,,,"84",,"BKN:07 16 BKN:07 21","29.31","10.00","53","200","36","22",,,,,,,,,,,,,,,,,,,,,,,,,,,,,,,,,,,,,"MET11610/11/20 23:46:01 SPECI KSEA 120746Z 20019G31KT 10SM BKN016 BKN021 13/11 A2977 RMK AO2 PK WND 20032/0713 T01330106 $","FM-16","7",,,,,,,,,,,,,,,,,,,,,,,,,,,"2007-05-17"
"72793024233","2020-10-11T23:53:00","FM-15","7",,,,,,,,,,,,,,,,,,,,,,,,,,,,,,,,,,,,,,,"29.77","51","55","0.00",,,,"87","29.79","BKN:07 16 BKN:07 21","29.31","10.00","53","200","31","22",,,,,,,,,,,,,,,,,,,,,,,,,,,,,,,,,,,,,"MET13310/11/20 23:53:01 METAR KSEA 120753Z 20019G27KT 10SM BKN016 BKN021 13/11 A2977 RMK AO2 PK WND 20032/0713 SLP087 T01280106 401500100 $","FM-15","7",,,,,,,,,,,,,,,,,,,,,,,,,,,"2007-05-17"
"72793024233","2020-10-11T23:59:00","SOD  ","6",,,,,,,,,,,,,,,,,"50","55","86","29.89","29.37","52","12.9","0","1.0","10","59","50","190","39","0.61","0","0.0","190","28","RA BR",,,,,,,,,,,,,,,,,,,,,,,,,,,,,,,,,,,,,,,,,,,,,,,,,,,,,,,"SOD78724 HR PRECIPITATION (IN): 0.61 SNOW DEPTH (IN):0     24 HR SNOWFALL (IN):0.0  WEATHER(CODE):1  24 HR MAX TEMP (F): 5924 HR MIN TEMP (F): 50AVERAGE STATION PRESSURE(D):29.369 MINIMUM SEA LEVEL PRESSURE:29.68 TIME OF OCCURRENCE:1927 PEAK WIND SPEED (MPH): 39 PEAK WIND DIR (DEG):190 PEAK WIND TIME (LST):      FASTEST 2MIN SPEED (MPH): 28FASTEST 2MIN DIR (DEG):190 FASTEST 2MIN TIME (LST):     AVERAGE WIND SPEED (MPH):12.9 24 HR AVG TEMP (F): 55DEPART FROM NORMAL:  1  SKY COVER SR-SS (TENTHS): 1HEATING DEGREE DAYS: 10 COOLING DEGREE DAYS:  0 LATEST DAY MAX TEMP (0700-1900 LST): 58 LATEST NIGHT MIN TEMP(1900-0800 LST):50 HOURLY INCREMENTAL PRECIPITATION VALUES (IN):0.01 0.00 0.00 0.00 0.00 0.00 0.00 0.00 0.00 0.00 0.01 0.03 0.07 0.11 0.11 0.09 0.06 0.06 0.03 0.02 0.00 0.00 0.01 0.00","SOD  ","6",,,,,,,,,,,,,,,,,,,,,,,,,"0623","1727","2007-05-17"
"72793024233","2020-10-12T00:53:00","FM-15","7",,,,,,,,,,,,,,,,,,,,,,,,,,,,,,,,,,,,,,,"29.83","50","55","0.00",,"-0.12","3","83","29.85","BKN:07 16","29.36","10.00","52","200","32","18",,,,,,,,,,,,,,,,,,,,,,,,,,,,,,,,,,,,,"MET13310/12/20 00:53:02 METAR KSEA 120853Z 20016G28KT 10SM BKN016 13/10 A2983 RMK AO2 PK WND 20028/0846 SLP108 60001 T01280100 53039 $ (LC)","FM-15","7",,,,,,,,,,,,,,,,,,,,,,,,,,,"2007-05-17"
"72793024233","2020-10-12T01:53:00","FM-15","7",,,,,,,,,,,,,,,,,,,,,,,,,,,,,,,,,,,,,,,"29.89","49","55","0.00",,,,"80","29.91","BKN:07 18","29.42","10.00","52","200","29","22",,,,,,,,,,,,,,,,,,,,,,,,,,,,,,,,,,,,,"MET12110/12/20 01:53:02 METAR KSEA 120953Z 20019G25KT 10SM BKN018 13/09 A2989 RMK AO2 PK WND 21026/0909 SLP127 T01280094 $ (LC)","FM-15","7",,,,,,,,,,,,,,,,,,,,,,,,,,,"2007-05-17"
"72793024233","2020-10-12T02:53:00","FM-15","7",,,,,,,,,,,,,,,,,,,,,,,,,,,,,,,,,,,,,,,"29.93","49","55","0.00",,,,"80","29.95","OVC:08 18","29.47","10.00","52","200","22","15",,,,,,,,,,,,,,,,,,,,,,,,,,,,,,,,,,,,,"MET10310/12/20 02:53:02 METAR KSEA 121053Z 20013G19KT 10SM OVC018 13/09 A2993 RMK AO2 SLP143 T01280094 $ (LC)","FM-15","7",,,,,,,,,,,,,,,,,,,,,,,,,,,"2007-05-17"
"72793024233","2020-10-12T03:53:00","FM-15","7",,,,,,,,,,,,,,,,,,,,,,,,,,,,,,,,,,,,,,,"29.97","48","55","0.00",,"-0.14","1","77","29.99","OVC:08 19","29.50","10.00","51","210","24","16",,,,,,,,,,,,,,,,,,,,,,,,,,,,,,,,,,,,,"MET13310/12/20 03:53:02 METAR KSEA 121153Z 21014G21KT 10SM OVC019 13/09 A2997 RMK AO2 SLP156 60001 70060 T01280089 10144 20128 51047 $ (LC)","FM-15","7",,,,,,,,,,,,,,,,,,,,,,,,,,,"2007-05-17"
"72793024233","2020-10-12T04:00:00","FM-12","4",,,,,,,,,,,,,,,,,,,,,,,,,,,,,,,,,,,,,,,,"48","55",,,"-0.14","1","77","29.99","15","29.49","9.94","51","210",,"16",,,,,,,,,,,,,,,,,,,,,,,,,,,,,,,,,,,,,"SYN09872793 12466 82114 10128 20089 39986 40156 51047 69931 91153 333 10150 20128 70152 91021 555 91212=","FM-12","4",,,,,,,,,,,,,,,,,,,,,,,,,,,"2007-05-17"
"72793024233","2020-10-12T04:53:00","FM-15","7",,,,,,,,,,,,,,,,,,,,,,,,,,,,,,,,,,,,,,,"30.01","47","54","0.00",,,,"77","30.03","BKN:07 20","29.54","10.00","50","210","23","14",,,,,,,,,,,,,,,,,,,,,,,,,,,,,,,,,,,,,"MET10310/12/20 04:53:02 METAR KSEA 121253Z 21012G20KT 10SM BKN020 12/08 A3001 RMK AO2 SLP169 T01220083 $ (JC)","FM-15","7",,,,,,,,,,,,,,,,,,,,,,,,,,,"2007-05-17"
"72793024233","2020-10-12T05:53:00","FM-15","7",,,,,,,,,,,,,,,,,,,,,,,,,,,,,,,,,,,,,,,"30.06","46","54","0.00",,,,"75","30.08","OVC:08 19","29.59","10.00","50","210","22","13",,,,,,,,,,,,,,,,,,,,,,,,,,,,,,,,,,,,,"MET10310/12/20 05:53:02 METAR KSEA 121353Z 21011G19KT 10SM OVC019 12/08 A3006 RMK AO2 SLP187 T01220078 $ (JC)","FM-15","7",,,,,,,,,,,,,,,,,,,,,,,,,,,"2007-05-17"
"72793024233","2020-10-12T06:53:00","FM-15","7",,,,,,,,,,,,,,,,,,,,,,,,,,,,,,,,,,,,,,,"30.09","46","53","0.00",,"-0.12","1","77","30.11","OVC:08 19","29.62","10.00","49","210",,"11",,,,,,,,,,,,,,,,,,,,,,,,,,,,,,,,,,,,,"MET10610/12/20 06:53:02 METAR KSEA 121453Z 21010KT 10SM OVC019 12/08 A3009 RMK AO2 SLP195 T01170078 51039 $ (JC)","FM-15","7",,,,,,,,,,,,,,,,,,,,,,,,,,,"2007-05-17"
"72793024233","2020-10-12T07:53:00","FM-15","7",,,,,,,,,,,,,,,,,,,,,,,,,,,,,,,,,,,,,,,"30.13","46","53","0.00",,,,"77","30.14","OVC:08 19","29.66","10.00","49","210",,"13",,,,,,,,,,,,,,,,,,,,,,,,,,,,,,,,,,,,,"MET10010/12/20 07:53:02 METAR KSEA 121553Z 21011KT 10SM OVC019 12/08 A3013 RMK AO2 SLP208 T01170078 $ (JC)","FM-15","7",,,,,,,,,,,,,,,,,,,,,,,,,,,"2007-05-17"
"72793024233","2020-10-12T08:53:00","FM-15","7",,,,,,,,,,,,,,,,,,,,,,,,,,,,,,,,,,,,,,,"30.16","46","55","0.00",,,,"72","30.18","BKN:07 20 BKN:07 33","29.69","10.00","50","190",,"11",,,,,,,,,,,,,,,,,,,,,,,,,,,,,,,,,,,,,"MET10710/12/20 08:53:02 METAR KSEA 121653Z 19010KT 10SM BKN020 BKN033 13/08 A3016 RMK AO2 SLP220 T01280078 $ (JC)","FM-15","7",,,,,,,,,,,,,,,,,,,,,,,,,,,"2007-05-17"
"72793024233","2020-10-12T09:53:00","FM-15","7",,,,,,,,,,,,,,,,,,,,,,,,,,,,,,,,,,,,,,,"30.18","46","56","0.00",,"-0.09","1","70","30.20","BKN:07 22","29.71","10.00","51","210",,"11",,,,,,,,,,,,,,,,,,,,,,,,,,,,,,,,,,,,,"MET11810/12/20 09:53:02 METAR KSEA 121753Z 21010KT 10SM BKN022 13/08 A3018 RMK AO2 SLP228 T01330078 10139 20117 51032 $ (JC)","FM-15","7",,,,,,,,,,,,,,,,,,,,,,,,,,,"2007-05-17"
"72793024233","2020-10-12T10:00:00","FM-12","4",,,,,,,,,,,,,,,,,,,,,,,,,,,,,,,,,,,,,,,,"46","56",,,"-0.09","1","70","30.20","26","29.70","9.94","51","210",,"11",,,,,,,,,,,,,,,,,,,,,,,,,,,,,,,,,,,,,"SYN08072793 32566 62110 10133 20078 30056 40228 51032 91753 333 10144 20117 555 91218=","FM-12","4",,,,,,,,,,,,,,,,,,,,,,,,,,,"2007-05-17"
"72793024233","2020-10-12T10:15:00","FM-16","7",,,,,,,,,,,,,,,,,,,,,,,,,,,,,,,,,,,,,,,"30.18","46","57",,,,,"67",,"SCT:04 23 SCT:04 40","29.71","10.00","51","210",,"13",,,,,,,,,,,,,,,,,,,,,,,,,,,,,,,,,,,,,"MET09810/12/20 10:15:02 SPECI KSEA 121815Z 21011KT 10SM SCT023 SCT040 14/08 A3018 RMK AO2 T01390078 (JC)","FM-16","7",,,,,,,,,,,,,,,,,,,,,,,,,,,"2007-05-17"
"72793024233","2020-10-12T10:53:00","FM-15","7",,,,,,,,,,,,,,,,,,,,,,,,,,,,,,,,,,,,,,,"30.20","45","58","0.00",,,,"62","30.22","SCT:04 23 SCT:04 45","29.73","10.00","51","220",,"15",,,,,,,,,,,,,,,,,,,,,,,,,,,,,,,,,,,,,"MET10510/12/20 10:53:02 METAR KSEA 121853Z 22013KT 10SM SCT023 SCT045 14/07 A3020 RMK AO2 SLP232 T01440072 (JC)","FM-15","7",,,,,,,,,,,,,,,,,,,,,,,,,,,"2007-05-17"
"72793024233","2020-10-12T11:53:00","FM-15","7",,,,,,,,,,,,,,,,,,,,,,,,,,,,,,,,,,,,,,,"30.20","43","60","0.00",,,,"53","30.22","SCT:04 25 SCT:04 45","29.73","10.00","51","200",,"15",,,,,,,,,,,,,,,,,,,,,,,,,,,,,,,,,,,,,"MET10510/12/20 11:53:02 METAR KSEA 121953Z 20013KT 10SM SCT025 SCT045 16/06 A3020 RMK AO2 SLP234 T01560061 (JC)","FM-15","7",,,,,,,,,,,,,,,,,,,,,,,,,,,"2007-05-17"
"72793024233","2020-10-12T12:53:00","FM-15","7",,,,,,,,,,,,,,,,,,,,,,,,,,,,,,,,,,,,,,,"30.20","42","60","0.00",,"-0.01","0","52","30.22","SCT:04 29 SCT:04 45 SCT:04 250","29.73","10.00","51","190",,"9",,,,,,,,,,,,,,,,,,,,,,,,,,,,,,,,,,,,,"MET11810/12/20 12:53:02 METAR KSEA 122053Z 19008KT 10SM SCT029 SCT045 SCT250 16/06 A3020 RMK AO2 SLP232 T01560056 50005 (JC)","FM-15","7",,,,,,,,,,,,,,,,,,,,,,,,,,,"2007-05-17"
"72793024233","2020-10-12T13:53:00","FM-15","7",,,,,,,,,,,,,,,,,,,,,,,,,,,,,,,,,,,,,,,"30.20","41","60","0.00",,,,"50","30.22","SCT:04 44 BKN:07 250","29.73","10.00","51","230",,"7",,,,,,,,,,,,,,,,,,,,,,,,,,,,,,,,,,,,,"MET10510/12/20 13:53:02 METAR KSEA 122153Z 23006KT 10SM SCT044 BKN250 16/05 A3020 RMK AO2 SLP232 T01560050 (RS)","FM-15","7",,,,,,,,,,,,,,,,,,,,,,,,,,,"2007-05-17"
"72793024233","2020-10-12T14:53:00","FM-15","7",,,,,,,,,,,,,,,,,,,,,,,,,,,,,,,,,,,,,,,"30.19","41","60","0.00",,,,"50","30.20","SCT:04 47 BKN:07 250","29.72","10.00","51","190",,"9",,,,,,,,,,,,,,,,,,,,,,,,,,,,,,,,,,,,,"MET10510/12/20 14:53:02 METAR KSEA 122253Z 19008KT 10SM SCT047 BKN250 16/05 A3019 RMK AO2 SLP227 T01560050 (RS)","FM-15","7",,,,,,,,,,,,,,,,,,,,,,,,,,,"2007-05-17"
"72793024233","2020-10-12T15:53:00","FM-15","7",,,,,,,,,,,,,,,,,,,,,,,,,,,,,,,,,,,,,,,"30.18","40","61","0.00",,"+0.02","8","46","30.19","FEW:02 48 SCT:04 120 SCT:04 250","29.71","10.00","51","200",,"8",,,,,,,,,,,,,,,,,,,,,,,,,,,,,,,,,,,,,"MET13010/12/20 15:53:02 METAR KSEA 122353Z 20007KT 10SM FEW048 SCT120 SCT250 16/04 A3018 RMK AO2 SLP225 T01610044 10167 20133 58006 (RS)","FM-15","7",,,,,,,,,,,,,,,,,,,,,,,,,,,"2007-05-17"
"72793024233","2020-10-12T16:00:00","FM-12","4",,,,,,,,,,,,,,,,,,,,,,,,,,,,,,,,,,,,,,,,"40","61",,,"+0.02","8","46","30.19","41","29.70","9.94","51","200",,"8",,,,,,,,,,,,,,,,,,,,,,,,,,,,,,,,,,,,,"SYN08072793 32666 42007 10161 20044 30056 40225 58006 92353 333 10167 20128 555 91300=","FM-12","4",,,,,,,,,,,,,,,,,,,,,,,,,,,"2007-05-17"
"72793024233","2020-10-12T16:53:00","FM-15","7",,,,,,,,,,,,,,,,,,,,,,,,,,,,,,,,,,,,,,,"30.16","41","57","0.00",,,,"55","30.18","FEW:02 48 SCT:04 140 BKN:07 250","29.69","10.00","49","210",,"8",,,,,,,,,,,,,,,,,,,,,,,,,,,,,,,,,,,,,"MET10710/12/20 16:53:01 METAR KSEA 130053Z 21007KT 10SM FEW048 SCT140 BKN250 14/05 A3016 RMK AO2 SLP221 T01390050","FM-15","7",,,,,,,,,,,,,,,,,,,,,,,,,,,"2007-05-17"
"72793024233","2020-10-12T17:53:00","FM-15","7",,,,,,,,,,,,,,,,,,,,,,,,,,,,,,,,,,,,,,,"30.17","42","55","0.00",,,,"62","30.19","FEW:02 48 SCT:04 170 BKN:07 250","29.70","10.00","49","170",,"6",,,,,,,,,,,,,,,,,,,,,,,,,,,,,,,,,,,,,"MET10710/12/20 17:53:01 METAR KSEA 130153Z 17005KT 10SM FEW048 SCT170 BKN250 13/06 A3017 RMK AO2 SLP222 T01280056","FM-15","7",,,,,,,,,,,,,,,,,,,,,,,,,,,"2007-05-17"
"72793024233","2020-10-12T18:53:00","FM-15","7",,,,,,,,,,,,,,,,,,,,,,,,,,,,,,,,,,,,,,,"30.15","44","55","0.00",,"+0.03","8","67","30.16","FEW:02 50 BKN:07 150","29.68","10.00","49","180",,"6",,,,,,,,,,,,,,,,,,,,,,,,,,,,,,,,,,,,,"MET10610/12/20 18:53:01 METAR KSEA 130253Z 18005KT 10SM FEW050 BKN150 13/07 A3015 RMK AO2 SLP215 T01280067 58011","FM-15","7",,,,,,,,,,,,,,,,,,,,,,,,,,,"2007-05-17"
"72793024233","2020-10-12T19:53:00","FM-15","7",,,,,,,,,,,,,,,,,,,,,,,,,,,,,,,,,,,,,,,"30.14","44","55","0.00",,,,"67","30.16","FEW:02 50 BKN:07 150","29.67","10.00","49","200",,"5",,,,,,,,,,,,,,,,,,,,,,,,,,,,,,,,,,,,,"MET10010/12/20 19:53:01 METAR KSEA 130353Z 20004KT 10SM FEW050 BKN150 13/07 A3014 RMK AO2 SLP212 T01280067","FM-15","7",,,,,,,,,,,,,,,,,,,,,,,,,,,"2007-05-17"
"72793024233","2020-10-12T20:53:00","FM-15","7",,,,,,,,,,,,,,,,,,,,,,,,,,,,,,,,,,,,,,,"30.13","43","55","0.00",,,,"64","30.15","FEW:02 50 OVC:08 130","29.66","10.00","49","130",,"7",,,,,,,,,,,,,,,,,,,,,,,,,,,,,,,,,,,,,"MET10010/12/20 20:53:01 METAR KSEA 130453Z 13006KT 10SM FEW050 OVC130 13/06 A3013 RMK AO2 SLP209 T01280061","FM-15","7",,,,,,,,,,,,,,,,,,,,,,,,,,,"2007-05-17"
"72793024233","2020-10-12T21:53:00","FM-15","7",,,,,,,,,,,,,,,,,,,,,,,,,,,,,,,,,,,,,,,"30.09","43","53","0.00",,"+0.06","8","69","30.11","FEW:02 50 OVC:08 100","29.62","10.00","48","130",,"13",,,,,,,,,,,,,,,,,,,,,,,,,,,,,,,,,,,,,"MET11810/12/20 21:53:01 METAR KSEA 130553Z 13011KT 10SM FEW050 OVC100 12/06 A3009 RMK AO2 SLP195 T01170061 10161 20117 58020","FM-15","7",,,,,,,,,,,,,,,,,,,,,,,,,,,"2007-05-17"
"72793024233","2020-10-12T22:00:00","FM-12","4",,,,,,,,,,,,,,,,,,,,,,,,,,,,,,,,,,,,,,,,"43","53",,,"+0.06","8","69","30.11","57","29.61","9.94","48","130",,"13",,,,,,,,,,,,,,,,,,,,,,,,,,,,,,,,,,,,,"SYN08072793 32766 81311 10117 20061 30026 40195 58020 90553 333 10161 20117 555 91306=","FM-12","4",,,,,,,,,,,,,,,,,,,,,,,,,,,"2007-05-17"
"72793024233","2020-10-12T22:53:00","FM-15","7",,,,,,,,,,,,,,,,,,,,,,,,,,,,,,,,,,,,,,,"30.03","44","53","T","-RA:02 |RA |RA",,,"72","30.05","BKN:07 70 OVC:08 90","29.56","10.00","49","130",,"8",,,,,,,,,,,,,,,,,,,,,,,,,,,,,,,,,,,,,"MET11610/12/20 22:53:01 METAR KSEA 130653Z 13007KT 10SM -RA BKN070 OVC090 12/07 A3003 RMK AO2 RAB48 SLP175 P0000 T01170067","FM-15","7",,,,,,,,,,,,,,,,,,,,,,,,,,,"2007-05-17"
"72793024233","2020-10-12T23:53:00","FM-15","7",,,,,,,,,,,,,,,,,,,,,,,,,,,,,,,,,,,,,,,"30.00","45","52","T",,,,"77","30.01","SCT:04 60 BKN:07 80 OVC:08 100","29.53","10.00","49","140",,"3",,,,,,,,,,,,,,,,,,,,,,,,,,,,,,,,,,,,,"MET12910/12/20 23:53:01 METAR KSEA 130753Z 14003KT 10SM SCT060 BKN080 OVC100 11/07 A3000 RMK AO2 RAE39 SLP164 P0000 T01110072 401670111","FM-15","7",,,,,,,,,,,,,,,,,,,,,,,,,,,"2007-05-17"
"72793024233","2020-10-12T23:59:00","SOD  ","6",,,,,,,,,,,,,,,,,"45","57","67","30.11","29.64","50","11.0","0","3.3","8","62","52","200","32","T","0","0.0","210","23","RA",,,,,,,,,,,,,,,,,,,,,,,,,,,,,,,,,,,,,,,,,,,,,,,,,,,,,,,"SOD73624 HR PRECIPITATION (IN):    T SNOW DEPTH (IN):0     24 HR SNOWFALL (IN):0.0  24 HR MAX TEMP (F): 6224 HR MIN TEMP (F): 52AVERAGE STATION PRESSURE:29.635 MINIMUM SEA LEVEL PRESSURE:29.79 TIME OF OCCURRENCE:0001 PEAK WIND SPEED (MPH): 32 PEAK WIND DIR (DEG):200 PEAK WIND TIME (LST):      FASTEST 2MIN SPEED (MPH): 23FASTEST 2MIN DIR (DEG):210 FASTEST 2MIN TIME (LST):     AVERAGE WIND SPEED (MPH):11.0 24 HR AVG TEMP (F): 57DEPART FROM NORMAL:  3  HEATING DEGREE DAYS:  8 COOLING DEGREE DAYS:  0 LATEST DAY MAX TEMP (0700-1900 LST):62  LATEST NIGHT MIN TEMP(1900-0800 LST):53 HOURLY INCREMENTAL PRECIPITATION VALUES (IN):.00 0.00 0.00 0.00 0.00 0.00 0.00 0.00 0.00 0.00 0.00 0.00 0.00 0.00 0.00 0.00 0.00 0.00 0.00 0.00 0.00 0.00 T    T","SOD  ","6",,,,,,,,,,,,,,,,,,,,,,,,,"0625","1725","2007-05-17"
"72793024233","2020-10-13T00:53:00","FM-15","7",,,,,,,,,,,,,,,,,,,,,,,,,,,,,,,,,,,,,,,"29.99","45","51","0.02s","-RA:02 |RA |RA","+0.10","6","80","30.01","SCT:04 50 BKN:07 60 OVC:08 75","29.52","9.00","48","190",,"5",,,,,,,,,,,,,,,,,,,,,,,,,,,,,,,,,,,,,"MET13910/13/20 00:53:02 METAR KSEA 130853Z 19004KT 9SM -RA SCT050 BKN060 OVC075 11/07 A2999 RMK AO2 RAB20 SLP161 P0001 60001 T01060072 56033 (LC)","FM-15","7",,,,,,,,,,,,,,,,,,,,,,,,,,,"2007-05-17"
"72793024233","2020-10-13T01:53:00","FM-15","7",,,,,,,,,,,,,,,,,,,,,,,,,,,,,,,,,,,,,,,"29.94","43","50","0.01",,,,"77","29.96","BKN:07 40 OVC:08 50","29.47","10.00","47","140",,"10",,,,,,,,,,,,,,,,,,,,,,,,,,,,,,,,,,,,,"MET11710/13/20 01:53:02 METAR KSEA 130953Z 14009KT 10SM BKN040 OVC050 10/06 A2994 RMK AO2 RAE53 SLP146 P0002 T01000061 (LC)","FM-15","7",,,,,,,,,,,,,,,,,,,,,,,,,,,"2007-05-17"
"72793024233","2020-10-13T02:46:00","FM-16","7",,,,,,,,,,,,,,,,,,,,,,,,,,,,,,,,,,,,,,,"29.90","46","50","0.03","-RA:02 BR:1 |RA |RA",,,"86",,"BKN:07 27 OVC:08 34","29.44","5.00","48","100",,"3",,,,,,,,,,,,,,,,,,,,,,,,,,,,,,,,,,,,,"MET11610/13/20 02:46:02 SPECI KSEA 131046Z 10003KT 5SM -RA BR BKN027 OVC034 10/08 A2990 RMK AO2 RAB07 P0003 T01000078 (LC)","FM-16","7",,,,,,,,,,,,,,,,,,,,,,,,,,,"2007-05-17"
"72793024233","2020-10-13T02:53:00","FM-15","7",,,,,,,,,,,,,,,,,,,,,,,,,,,,,,,,,,,,,,,"29.89","46","50","0.05","-RA:02 BR:1 |RA |RA",,,"86","29.91","BKN:07 26 OVC:08 32","29.42","5.00","48","120",,"7",,,,,,,,,,,,,,,,,,,,,,,,,,,,,,,,,,,,,"MET12310/13/20 02:53:02 METAR KSEA 131053Z 12006KT 5SM -RA BR BKN026 OVC032 10/08 A2989 RMK AO2 RAB07 SLP127 P0004 T01000078 (LC)","FM-15","7",,,,,,,,,,,,,,,,,,,,,,,,,,,"2007-05-17"
"72793024233","2020-10-13T03:53:00","FM-15","7",,,,,,,,,,,,,,,,,,,,,,,,,,,,,,,,,,,,,,,"29.82","47","49","0.20","-RA:02 BR:1 |RA |RA","+0.17","8","93","29.84","BKN:07 21 OVC:08 28","29.36","3.00","48","120",,"11",,,,,,,,,,,,,,,,,,,,,,,,,,,,,,,,,,,,,"MET15410/13/20 03:53:02 METAR KSEA 131153Z 12010KT 3SM -RA BR BKN021 OVC028 09/08 A2982 RMK AO2 PRESFR SLP104 P0019 60026 70026 T00940083 10117 20094 58056 (LC)","FM-15","7",,,,,,,,,,,,,,,,,,,,,,,,,,,"2007-05-17"
"72793024233","2020-10-13T04:00:00","FM-12","4",,,,,,,,,,,,,,,,,,,,,,,,,,,,,,,,,,,,,,,,"47","49",,"||RA","+0.17","8","93","29.84","26","29.34","2.98","48","120",,"11",,,,,,,,,,,,,,,,,,,,,,,,,,,,,,,,,,,,,"SYN10472793 11548 81210 10094 20083 39936 40104 58056 60071 761// 91153 333 10167 20094 70066 96010 555 91312=","FM-12","4",,,,,,,,,,,,,,,,,,,,,,,,,,,"2007-05-17"
"72793024233","2020-10-13T04:38:00","FM-16","7",,,,,,,,,,,,,,,,,,,,,,,,,,,,,,,,,,,,,,,"29.79","47","49","0.09","-RA:02 BR:1 |RA |RA",,,"93",,"BKN:07 13 OVC:08 27","29.33","4.00","48","120",,"7",,,,,,,,,,,,,,,,,,,,,,,,,,,,,,,,,,,,,"MET11010/13/20 04:38:02 SPECI KSEA 131238Z 12006KT 4SM -RA BR BKN013 OVC027 09/08 A2979 RMK AO2 P0009 T00940083 (LC)","FM-16","7",,,,,,,,,,,,,,,,,,,,,,,,,,,"2007-05-17"
"72793024233","2020-10-13T04:51:00","FM-16","6",,,,,,,,,,,,,,,,,,,,,,,,,,,,,,,,,,,,,,,"29.78","48","48",,"-RA:02 BR:1 |RA |RA",,,"100",,"OVC:08 13","29.32","2.00","48","110",,"7",,,,,,,,,,,,,,,,,,,,,,,,,,,,,,,,,,,,,"MET09810/13/20 04:51:02 SPECI KSEA 131251Z 11006KT 2SM -RA BR OVC013 09/09 A2978 RMK AO2 P0010 FIBI (LC)","FM-16","6",,,,,,,,,,,,,,,,,,,,,,,,,,,"2007-05-17"
"72793024233","2020-10-13T04:53:00","FM-15","7",,,,,,,,,,,,,,,,,,,,,,,,,,,,,,,,,,,,,,,"29.78","48","49","0.09","-RA:02 BR:1 |RA |RA",,,"97","29.80","FEW:02 4 OVC:08 12","29.32","2.00","48","120",,"6",,,,,,,,,,,,,,,,,,,,,,,,,,,,,,,,,,,,,"MET11710/13/20 04:53:02 METAR KSEA 131253Z 12005KT 2SM -RA BR FEW004 OVC012 09/09 A2978 RMK AO2 SLP090 P0011 T00940089 (LC)","FM-15","7",,,,,,,,,,,,,,,,,,,,,,,,,,,"2007-05-17"
"72793024233","2020-10-13T05:51:00","FM-16","6",,,,,,,,,,,,,,,,,,,,,,,,,,,,,,,,,,,,,,,"29.71","48","50",,"-RA:02 BR:1 |RA |RA",,,"94",,"FEW:02 8 BKN:07 11 OVC:08 23","29.25","5.00","49","130",,"9",,,,,,,,,,,,,,,,,,,,,,,,,,,,,,,,,,,,,"MET11210/13/20 05:51:02 SPECI KSEA 131351Z 13008KT 5SM -RA BR FEW008 BKN011 OVC023 10/09 A2971 RMK AO2 P0009 FIBI (JC)","FM-16","6",,,,,,,,,,,,,,,,,,,,,,,,,,,"2007-05-17"
"72793024233","2020-10-13T05:53:00","FM-15","7",,,,,,,,,,,,,,,,,,,,,,,,,,,,,,,,,,,,,,,"29.71","49","51","0.09","-RA:02 BR:1 |RA |RA",,,"92","29.73","FEW:02 4 BKN:07 11 OVC:08 20","29.25","6.00","50","130",,"10",,,,,,,,,,,,,,,,,,,,,,,,,,,,,,,,,,,,,"MET12410/13/20 05:53:02 METAR KSEA 131353Z 13009KT 6SM -RA BR FEW004 BKN011 OVC020 11/09 A2971 RMK AO2 SLP068 P0009 T01060094 (JC)","FM-15","7",,,,,,,,,,,,,,,,,,,,,,,,,,,"2007-05-17"
"72793024233","2020-10-13T06:43:00","FM-16","7",,,,,,,,,,,,,,,,,,,,,,,,,,,,,,,,,,,,,,,"29.74","50","51","0.08","TS:7 RA:02 BR:1 |RA TS |RA",,,"96",,"BKN:07 4 OVC:08 16","29.28","3.00","50","VRB",,"6",,,,,,,,,,,,,,,,,,,,,,,,,,,,,,,,,,,,,"MET14610/13/20 06:43:02 SPECI KSEA 131443Z VRB05KT 3SM TSRA BR BKN004CB OVC016 11/10 A2974 RMK AO2 TSB42 OCNL LTGIC VC W TS W MOV E P0008 T01060100 (JC)","FM-16","7",,,,,,,,,,,,,,,,,,,,,,,,,,,"2007-05-17"
"72793024233","2020-10-13T06:51:00","FM-16","6",,,,,,,,,,,,,,,,,,,,,,,,,,,,,,,,,,,,,,,"29.74","52","52",,"TS:7 -RA:02 BR:1 |RA TS |RA",,,"100",,"BKN:07 4 OVC:08 16","29.28","2.00","52","VRB",,"9",,,,,,,,,,,,,,,,,,,,,,,,,,,,,,,,,,,,,"MET14210/13/20 06:51:02 SPECI KSEA 131451Z 20008KT 2SM -TSRA BR BKN004CB OVC016 11/11 A2974 RMK AO2 TSB42 OCNL LTGIC VC E TS E MOV E P0010 FIBI (JC)","FM-16","6",,,,,,,,,,,,,,,,,,,,,,,,,,,"2007-05-17"
"72793024233","2020-10-13T06:53:00","FM-15","7",,,,,,,,,,,,,,,,,,,,,,,,,,,,,,,,,,,,,,,"29.74","51","52","0.10","TS:7 -RA:02 BR:1 |RA TS |RA","+0.08","5","97","29.75","BKN:07 4 OVC:08 16","29.28","2.00","51","200",,"10",,,,,,,,,,,,,,,,,,,,,,,,,,,,,,,,,,,,,"MET16610/13/20 06:53:02 METAR KSEA 131453Z 20009KT 2SM -TSRA BR BKN004CB OVC016 11/11 A2974 RMK AO2 TSB42 SLP076 OCNL LTGIC VC E TS E MOV E P0010 60030 T01110106 55028 (JC)","FM-15","7",,,,,,,,,,,,,,,,,,,,,,,,,,,"2007-05-17"
"72793024233","2020-10-13T07:07:00","FM-16","7",,,,,,,,,,,,,,,,,,,,,,,,,,,,,,,,,,,,,,,"29.73","52","54","T","BR:1 ||",,,"93",,"SCT:04 4 BKN:07 7 OVC:08 11","29.27","2.50","53","190",,"13",,,,,,,,,,,,,,,,,,,,,,,,,,,,,,,,,,,,,"MET17510/13/20 07:07:02 SPECI KSEA 131507Z 19011KT 2 1/2SM BR SCT004 BKN007 OVC011 12/11 A2973 RMK AO2 SFC VIS 4 RAE1458 TSE06 OCNL LTGIC DSNT E-SE CB DSNT E-SE P0000 T01220111 (JC)","FM-16","7",,,,,,,,,,,,,,,,,,,,,,,,,,,"2007-05-17"
"72793024233","2020-10-13T07:51:00","FM-16","6",,,,,,,,,,,,,,,,,,,,,,,,,,,,,,,,,,,,,,,"29.72","54","57",,,,,"88",,"FEW:02 4 BKN:07 7 OVC:08 13","29.26","7.00","55","180","26","17",,,,,,,,,,,,,,,,,,,,,,,,,,,,,,,,,,,,,"MET12210/13/20 07:51:02 SPECI KSEA 131551Z 18015G23KT 7SM FEW004 BKN007 OVC013 14/12 A2972 RMK AO2 RAE1458 TSE06 P0001 FIBI (JC)","FM-16","6",,,,,,,,,,,,,,,,,,,,,,,,,,,"2007-05-17"
"72793024233","2020-10-13T07:53:00","FM-15","7",,,,,,,,,,,,,,,,,,,,,,,,,,,,,,,,,,,,,,,"29.73","55","57","0.01",,,,"93","29.74","FEW:02 4 BKN:07 7 OVC:08 13","29.27","7.00","56","180","26","18",,,,,,,,,,,,,,,,,,,,,,,,,,,,,,,,,,,,,"MET13410/13/20 07:53:02 METAR KSEA 131553Z 18016G23KT 7SM FEW004 BKN007 OVC013 14/13 A2973 RMK AO2 RAE1458 TSE06 SLP072 P0001 T01390128 (JC)","FM-15","7",,,,,,,,,,,,,,,,,,,,,,,,,,,"2007-05-17"
"72793024233","2020-10-13T08:35:00","FM-16","7",,,,,,,,,,,,,,,,,,,,,,,,,,,,,,,,,,,,,,,"29.75","55","59",,,,,"87",,"SCT:04 8 BKN:07 20 OVC:08 34","29.29","9.00","57","200","28","22",,,,,,,,,,,,,,,,,,,,,,,,,,,,,,,,,,,,,"MET12510/13/20 08:35:02 SPECI KSEA 131635Z 20019G24KT 9SM SCT008 BKN020 OVC034 15/13 A2975 RMK AO2 PK WND 21026/1608 T01500128 (JC)","FM-16","7",,,,,,,,,,,,,,,,,,,,,,,,,,,"2007-05-17"
"72793024233","2020-10-13T08:53:00","FM-15","7",,,,,,,,,,,,,,,,,,,,,,,,,,,,,,,,,,,,,,,"29.76","55","59","0.00",,,,"87","29.78","SCT:04 8 BKN:07 20 OVC:08 29","29.30","10.00","57","210","33","20",,,,,,,,,,,,,,,,,,,,,,,,,,,,,,,,,,,,,"MET13310/13/20 08:53:02 METAR KSEA 131653Z 21017G29KT 10SM SCT008 BKN020 OVC029 15/13 A2976 RMK AO2 PK WND 21029/1648 SLP084 T01500128 (JC)","FM-15","7",,,,,,,,,,,,,,,,,,,,,,,,,,,"2007-05-17"
"72793024233","2020-10-13T09:31:00","FM-16","7",,,,,,,,,,,,,,,,,,,,,,,,,,,,,,,,,,,,,,,"29.79","53","60",,,,,"78",,"FEW:02 9 SCT:04 27 OVC:08 150","29.33","10.00","56","220","30","20",,,,,,,,,,,,,,,,,,,,,,,,,,,,,,,,,,,,,"MET12610/13/20 09:31:02 SPECI KSEA 131731Z 22017G26KT 10SM FEW009 SCT027 OVC150 16/12 A2979 RMK AO2 PK WND 21027/1708 T01560117 (JC)","FM-16","7",,,,,,,,,,,,,,,,,,,,,,,,,,,"2007-05-17"
"72793024233","2020-10-13T09:53:00","FM-15","7",,,,,,,,,,,,,,,,,,,,,,,,,,,,,,,,,,,,,,,"29.78","51","60","0.00",,"-0.04","3","72","29.80","FEW:02 9 SCT:04 25 BKN:07 140","29.32","10.00","55","220","34","25",,,,,,,,,,,,,,,,,,,,,,,,,,,,,,,,,,,,,"MET15710/13/20 09:53:02 METAR KSEA 131753Z 22022G30KT 10SM FEW009 SCT025 BKN140 16/11 A2978 RMK AO2 PK WND 23032/1733 SLP091 60031 T01560106 10156 20094 53015 (JC)","FM-15","7",,,,,,,,,,,,,,,,,,,,,,,,,,,"2007-05-17"
"72793024233","2020-10-13T10:00:00","FM-12","4",,,,,,,,,,,,,,,,,,,,,,,,,,,,,,,,,,,,,,,,"51","60",,,"-0.04","3","72","29.80","8","29.30","9.94","55","220",,"25",,,,,,,,,,,,,,,,,,,,,,,,,,,,,,,,,,,,,"SYN09272793 12366 62222 10156 20106 39922 40091 53015 60081 91753 333 10156 20094 91030 555 91318=","FM-12","4",,,,,,,,,,,,,,,,,,,,,,,,,,,"2007-05-17"
"72793024233","2020-10-13T10:53:00","FM-15","7",,,,,,,,,,,,,,,,,,,,,,,,,,,,,,,,,,,,,,,"29.82","50","61","0.00",,,,"67","29.84","FEW:02 9 BKN:07 31 BKN:07 200","29.36","10.00","55","220","43","24",,,,,,,,,,,,,,,,,,,,,,,,,,,,,,,,,,,,,"MET13310/13/20 10:53:02 METAR KSEA 131853Z 22021G37KT 10SM FEW009 BKN031 BKN200 16/10 A2982 RMK AO2 PK WND 22040/1818 SLP106 T01610100 (JC)","FM-15","7",,,,,,,,,,,,,,,,,,,,,,,,,,,"2007-05-17"
"72793024233","2020-10-13T11:53:00","FM-15","7",,,,,,,,,,,,,,,,,,,,,,,,,,,,,,,,,,,,,,,"29.84","49","62","0.00",,,,"62","29.86","FEW:02 25 SCT:04 34 BKN:07 250","29.38","10.00","55","230","31","21",,,,,,,,,,,,,,,,,,,,,,,,,,,,,,,,,,,,,"MET13310/13/20 11:53:02 METAR KSEA 131953Z 23018G27KT 10SM FEW025 SCT034 BKN250 17/09 A2984 RMK AO2 PK WND 21036/1936 SLP112 T01670094 (JC)","FM-15","7",,,,,,,,,,,,,,,,,,,,,,,,,,,"2007-05-17"
"72793024233","2020-10-13T12:53:00","FM-15","7",,,,,,,,,,,,,,,,,,,,,,,,,,,,,,,,,,,,,,,"29.88","47","63","0.00",,"-0.09","1","56","29.89","FEW:02 26 BKN:07 35 BKN:07 250","29.41","10.00","54","230","33","21",,,,,,,,,,,,,,,,,,,,,,,,,,,,,,,,,,,,,"MET13910/13/20 12:53:02 METAR KSEA 132053Z 23018G29KT 10SM FEW026 BKN035 BKN250 17/08 A2988 RMK AO2 PK WND 22031/1957 SLP123 T01720083 51032 (JC)","FM-15","7",,,,,,,,,,,,,,,,,,,,,,,,,,,"2007-05-17"
"72793024233","2020-10-13T13:53:00","FM-15","7",,,,,,,,,,,,,,,,,,,,,,,,,,,,,,,,,,,,,,,"29.90","43","62","0.00",,,,"50","29.92","SCT:04 45 BKN:07 70","29.44","10.00","52","240","37","22",,,,,,,,,,,,,,,,,,,,,,,,,,,,,,,,,,,,,"MET13110/13/20 13:53:02 METAR KSEA 132153Z 24019G32KT 10SM SCT045 BKN070 17/06 A2990 RMK AO2 PK WND 25038/2111 SLP131 VCSH T01670061 (JC)","FM-15","7",,,,,,,,,,,,,,,,,,,,,,,,,,,"2007-05-17"
"72793024233","2020-10-13T14:53:00","FM-15","7",,,,,,,,,,,,,,,,,,,,,,,,,,,,,,,,,,,,,,,"29.91","45","62","0.00",,,,"54","29.93","FEW:02 35 SCT:04 60","29.44","10.00","53","240","32","24",,,,,,,,,,,,,,,,,,,,,,,,,,,,,,,,,,,,,"MET12610/13/20 14:53:02 METAR KSEA 132253Z 24021G28KT 10SM FEW035 SCT060 17/07 A2991 RMK AO2 PK WND 24042/2157 SLP134 T01670072 (RS)","FM-15","7",,,,,,,,,,,,,,,,,,,,,,,,,,,"2007-05-17"
"72793024233","2020-10-13T15:53:00","FM-15","7",,,,,,,,,,,,,,,,,,,,,,,,,,,,,,,,,,,,,,,"29.94","44","61","0.00",,"-0.06","3","54","29.96","FEW:02 40 SCT:04 70","29.47","10.00","52","230","40","22",,,,,,,,,,,,,,,,,,,,,,,,,,,,,,,,,,,,,"MET14410/13/20 15:53:02 METAR KSEA 132353Z 23019G35KT 10SM FEW040 SCT070 16/07 A2994 RMK AO2 PK WND 23041/2342 SLP145 T01610067 10172 20156 53022 (RS)","FM-15","7",,,,,,,,,,,,,,,,,,,,,,,,,,,"2007-05-17"
"72793024233","2020-10-13T16:00:00","FM-12","4",,,,,,,,,,,,,,,,,,,,,,,,,,,,,,,,,,,,,,,,"44","61",,,"-0.06","3","54","29.96","41","29.46","9.94","52","230",,"22",,,,,,,,,,,,,,,,,,,,,,,,,,,,,,,,,,,,,"SYN08672793 32666 42319 10161 20067 39976 40145 53022 92353 333 10172 20094 91035 555 91400=","FM-12","4",,,,,,,,,,,,,,,,,,,,,,,,,,,"2007-05-17"
"72793024233","2020-10-13T16:53:00","FM-15","7",,,,,,,,,,,,,,,,,,,,,,,,,,,,,,,,,,,,,,,"29.98","44","59","0.00",,,,"58","30.00","BKN:07 45 BKN:07 70","29.51","10.00","51","220","30","23",,,,,,,,,,,,,,,,,,,,,,,,,,,,,,,,,,,,,"MET12110/13/20 16:53:01 METAR KSEA 140053Z 22020G26KT 10SM BKN045 BKN070 15/07 A2998 RMK AO2 PK WND 21036/0008 SLP159 T01500067","FM-15","7",,,,,,,,,,,,,,,,,,,,,,,,,,,"2007-05-17"
"72793024233","2020-10-13T17:53:00","FM-15","7",,,,,,,,,,,,,,,,,,,,,,,,,,,,,,,,,,,,,,,"30.02","45","58","0.00",,,,"62","30.03","SCT:04 36 BKN:07 60 BKN:07 85","29.55","10.00","51","220","31","18",,,,,,,,,,,,,,,,,,,,,,,,,,,,,,,,,,,,,"MET12810/13/20 17:53:01 METAR KSEA 140153Z 22016G27KT 10SM SCT036 BKN060 BKN085 14/07 A3002 RMK AO2 PK WND 24029/0116 SLP170 T01440072","FM-15","7",,,,,,,,,,,,,,,,,,,,,,,,,,,"2007-05-17"
"72793024233","2020-10-13T18:53:00","FM-15","7",,,,,,,,,,,,,,,,,,,,,,,,,,,,,,,,,,,,,,,"30.03","46","57","0.00",,"-0.09","1","67","30.05","SCT:04 33 BKN:07 65","29.56","10.00","51","220","32","22",,,,,,,,,,,,,,,,,,,,,,,,,,,,,,,,,,,,,"MET12710/13/20 18:53:01 METAR KSEA 140253Z 22019G28KT 10SM SCT033 BKN065 14/08 A3003 RMK AO2 PK WND 22034/0217 SLP175 T01390078 51029","FM-15","7",,,,,,,,,,,,,,,,,,,,,,,,,,,"2007-05-17"
"72793024233","2020-10-13T19:53:00","FM-15","7",,,,,,,,,,,,,,,,,,,,,,,,,,,,,,,,,,,,,,,"30.06","46","55","0.00",,,,"72","30.08","FEW:02 34 SCT:04 70","29.59","10.00","50","220","29","15",,,,,,,,,,,,,,,,,,,,,,,,,,,,,,,,,,,,,"MET12110/13/20 19:53:01 METAR KSEA 140353Z 22013G25KT 10SM FEW034 SCT070 13/08 A3006 RMK AO2 PK WND 23027/0257 SLP186 T01280078","FM-15","7",,,,,,,,,,,,,,,,,,,,,,,,,,,"2007-05-17"
"72793024233","2020-10-13T20:53:00","FM-15","7",,,,,,,,,,,,,,,,,,,,,,,,,,,,,,,,,,,,,,,"30.09","46","55","0.00",,,,"72","30.11","FEW:02 40 SCT:04 90","29.62","10.00","50","210","24","13",,,,,,,,,,,,,,,,,,,,,,,,,,,,,,,,,,,,,"MET12110/13/20 20:53:01 METAR KSEA 140453Z 21011G21KT 10SM FEW040 SCT090 13/08 A3009 RMK AO2 PK WND 24027/0357 SLP195 T01280078","FM-15","7",,,,,,,,,,,,,,,,,,,,,,,,,,,"2007-05-17"
"72793024233","2020-10-13T21:53:00","FM-15","7",,,,,,,,,,,,,,,,,,,,,,,,,,,,,,,,,,,,,,,"30.13","47","54","0.00",,"-0.10","3","77","30.14","FEW:02 40 SCT:04 90","29.66","10.00","50","210",,"10",,,,,,,,,,,,,,,,,,,,,,,,,,,,,,,,,,,,,"MET11810/13/20 21:53:01 METAR KSEA 140553Z 21009KT 10SM FEW040 SCT090 12/08 A3013 RMK AO2 SLP208 T01220083 10161 20122 53033","FM-15","7",,,,,,,,,,,,,,,,,,,,,,,,,,,"2007-05-17"
"72793024233","2020-10-13T22:00:00","FM-12","4",,,,,,,,,,,,,,,,,,,,,,,,,,,,,,,,,,,,,,,,"47","54",,,"-0.10","3","77","30.14","41","29.65","9.94","50","210",,"10",,,,,,,,,,,,,,,,,,,,,,,,,,,,,,,,,,,,,"SYN08072793 32666 42109 10122 20083 30039 40208 53033 90553 333 10161 20094 555 91406=","FM-12","4",,,,,,,,,,,,,,,,,,,,,,,,,,,"2007-05-17"
"72793024233","2020-10-13T22:53:00","FM-15","7",,,,,,,,,,,,,,,,,,,,,,,,,,,,,,,,,,,,,,,"30.15","46","53","0.00",,,,"77","30.16","FEW:02 40","29.68","10.00","49","230",,"15",,,,,,,,,,,,,,,,,,,,,,,,,,,,,,,,,,,,,"MET09310/13/20 22:53:01 METAR KSEA 140653Z 23013KT 10SM FEW040 12/08 A3015 RMK AO2 SLP215 T01170078","FM-15","7",,,,,,,,,,,,,,,,,,,,,,,,,,,"2007-05-17"
"72793024233","2020-10-13T23:53:00","FM-15","7",,,,,,,,,,,,,,,,,,,,,,,,,,,,,,,,,,,,,,,"30.17","46","53","0.00",,,,"77","30.19","FEW:02 25 SCT:04 75","29.70","10.00","49","200",,"10",,,,,,,,,,,,,,,,,,,,,,,,,,,,,,,,,,,,,"MET11010/13/20 23:53:01 METAR KSEA 140753Z 20009KT 10SM FEW025 SCT075 12/08 A3017 RMK AO2 SLP223 T01170078 401720094","FM-15","7",,,,,,,,,,,,,,,,,,,,,,,,,,,"2007-05-17"
"72793024233","2020-10-13T23:59:00","SOD  ","6",,,,,,,,,,,,,,,,,"47","56","74","29.94","29.44","51","16.0","0","2.6","9","63","49","240","48","0.57","0","0.0","240","33","TS RA BR",,,,,,,,,,,,,,,,,,,,,,,,,,,,,,,,,,,,,,,,,,,,,,,,,,,,,,,"SOD75724 HR PRECIPITATION (IN): 0.57 SNOW DEPTH (IN):0     24 HR SNOWFALL (IN):0.0  WEATHER(CODE):13  24 HR MAX TEMP (F): 6324 HR MIN TEMP (F): 49AVERAGE STATION PRESSURE:29.445 MINIMUM SEA LEVEL PRESSURE:29.72 TIME OF OCCURRENCE:0557 PEAK WIND SPEED (MPH): 48 PEAK WIND DIR (DEG):240 PEAK WIND TIME (LST):      FASTEST 2MIN SPEED (MPH): 33FASTEST 2MIN DIR (DEG):240 FASTEST 2MIN TIME (LST):     AVERAGE WIND SPEED (MPH):16.0 24 HR AVG TEMP (F): 56DEPART FROM NORMAL:  3  HEATING DEGREE DAYS:  9 COOLING DEGREE DAYS:  0 LATEST DAY MAX TEMP (0700-1900 LST):63  LATEST NIGHT MIN TEMP(1900-0800 LST):49 HOURLY INCREMENTAL PRECIPITATION VALUES (IN):.02 0.01 0.05 0.20 0.09 0.09 0.10 0.01 0.00 0.00 0.00 0.00 0.00 0.00 0.00 0.00 0.00 0.00 0.00 0.00 0.00 0.00 0.00 0.00","SOD  ","6",,,,,,,,,,,,,,,,,,,,,,,,,"0626","1723","2007-05-17"
"72793024233","2020-10-14T00:44:00","FM-16","7",,,,,,,,,,,,,,,,,,,,,,,,,,,,,,,,,,,,,,,"30.21","47","54",,,,,"77",,"BKN:07 18 BKN:07 70 OVC:08 85","29.74","10.00","50","230",,"11",,,,,,,,,,,,,,,,,,,,,,,,,,,,,,,,,,,,,"MET10510/14/20 00:44:02 SPECI KSEA 140844Z 23010KT 10SM BKN018 BKN070 OVC085 12/08 A3021 RMK AO2 T01220083 (TL)","FM-16","7",,,,,,,,,,,,,,,,,,,,,,,,,,,"2007-05-17"
"72793024233","2020-10-14T00:53:00","FM-15","7",,,,,,,,,,,,,,,,,,,,,,,,,,,,,,,,,,,,,,,"30.21","47","54","0.00",,"-0.08","3","77","30.23","BKN:07 18 OVC:08 85","29.74","10.00","50","230",,"8",,,,,,,,,,,,,,,,,,,,,,,,,,,,,,,,,,,,,"MET11110/14/20 00:53:02 METAR KSEA 140853Z 23007KT 10SM BKN018 OVC085 12/08 A3021 RMK AO2 SLP236 T01220083 53028 (TL)","FM-15","7",,,,,,,,,,,,,,,,,,,,,,,,,,,"2007-05-17"
"72793024233","2020-10-14T01:53:00","FM-15","7",,,,,,,,,,,,,,,,,,,,,,,,,,,,,,,,,,,,,,,"30.23","47","53","0.00",,,,"80","30.25","OVC:08 17","29.76","10.00","50","220",,"8",,,,,,,,,,,,,,,,,,,,,,,,,,,,,,,,,,,,,"MET09810/14/20 01:53:02 METAR KSEA 140953Z 22007KT 10SM OVC017 12/08 A3023 RMK AO2 SLP244 T01170083 (TL)","FM-15","7",,,,,,,,,,,,,,,,,,,,,,,,,,,"2007-05-17"
"72793024233","2020-10-14T02:53:00","FM-15","7",,,,,,,,,,,,,,,,,,,,,,,,,,,,,,,,,,,,,,,"30.26","47","53","0.00",,,,"80","30.27","OVC:08 17","29.79","10.00","50","210",,"9",,,,,,,,,,,,,,,,,,,,,,,,,,,,,,,,,,,,,"MET09810/14/20 02:53:02 METAR KSEA 141053Z 21008KT 10SM OVC017 12/08 A3026 RMK AO2 SLP251 T01170083 (TL)","FM-15","7",,,,,,,,,,,,,,,,,,,,,,,,,,,"2007-05-17"
"72793024233","2020-10-14T03:53:00","FM-15","7",,,,,,,,,,,,,,,,,,,,,,,,,,,,,,,,,,,,,,,"30.27","46","52","0.00",,"-0.06","1","80","30.29","BKN:07 18","29.80","10.00","49","170",,"7",,,,,,,,,,,,,,,,,,,,,,,,,,,,,,,,,,,,,"MET12210/14/20 03:53:02 METAR KSEA 141153Z 17006KT 10SM BKN018 11/08 A3027 RMK AO2 SLP256 70031 T01110078 10122 20111 51019 (TL)","FM-15","7",,,,,,,,,,,,,,,,,,,,,,,,,,,"2007-05-17"
"72793024233","2020-10-14T04:00:00","FM-12","4",,,,,,,,,,,,,,,,,,,,,,,,,,,,,,,,,,,,,,,,"46","52",,,"-0.06","1","80","30.29","15","29.78","9.94","49","170",,"7",,,,,,,,,,,,,,,,,,,,,,,,,,,,,,,,,,,,,"SYN08672793 32466 61706 10111 20078 30086 40256 51019 91153 333 10172 20111 70079 555 91412=","FM-12","4",,,,,,,,,,,,,,,,,,,,,,,,,,,"2007-05-17"
"72793024233","2020-10-14T04:53:00","FM-15","7",,,,,,,,,,,,,,,,,,,,,,,,,,,,,,,,,,,,,,,"30.28","47","53","0.00",,,,"80","30.30","BKN:07 18 OVC:08 80","29.81","10.00","50","200",,"9",,,,,,,,,,,,,,,,,,,,,,,,,,,,,,,,,,,,,"MET10510/14/20 04:53:02 METAR KSEA 141253Z 20008KT 10SM BKN018 OVC080 12/08 A3028 RMK AO2 SLP262 T01170083 (TL)","FM-15","7",,,,,,,,,,,,,,,,,,,,,,,,,,,"2007-05-17"
"72793024233","2020-10-14T05:53:00","FM-15","7",,,,,,,,,,,,,,,,,,,,,,,,,,,,,,,,,,,,,,,"30.30","47","53","0.00",,,,"80","30.32","BKN:07 16 OVC:08 23","29.83","10.00","50","200",,"10",,,,,,,,,,,,,,,,,,,,,,,,,,,,,,,,,,,,,"MET10510/14/20 05:53:02 METAR KSEA 141353Z 20009KT 10SM BKN016 OVC023 12/08 A3030 RMK AO2 SLP267 T01170083 (JC)","FM-15","7",,,,,,,,,,,,,,,,,,,,,,,,,,,"2007-05-17"
"72793024233","2020-10-14T06:29:00","FM-16","7",,,,,,,,,,,,,,,,,,,,,,,,,,,,,,,,,,,,,,,"30.31","46","53",,,,,"77",,"SCT:04 17 BKN:07 250","29.84","10.00","49","210",,"8",,,,,,,,,,,,,,,,,,,,,,,,,,,,,,,,,,,,,"MET09810/14/20 06:29:02 SPECI KSEA 141429Z 21007KT 10SM SCT017 BKN250 12/08 A3031 RMK AO2 T01170078 (JC)","FM-16","7",,,,,,,,,,,,,,,,,,,,,,,,,,,"2007-05-17"
"72793024233","2020-10-14T06:53:00","FM-15","7",,,,,,,,,,,,,,,,,,,,,,,,,,,,,,,,,,,,,,,"30.31","46","52","0.00",,"-0.04","1","80","30.33","SCT:04 18 BKN:07 250","29.84","10.00","49","210",,"9",,,,,,,,,,,,,,,,,,,,,,,,,,,,,,,,,,,,,"MET11110/14/20 06:53:02 METAR KSEA 141453Z 21008KT 10SM SCT018 BKN250 11/08 A3031 RMK AO2 SLP272 T01110078 51015 (JC)","FM-15","7",,,,,,,,,,,,,,,,,,,,,,,,,,,"2007-05-17"
"72793024233","2020-10-14T07:05:00","FM-16","7",,,,,,,,,,,,,,,,,,,,,,,,,,,,,,,,,,,,,,,"30.32","46","52",,,,,"80",,"BKN:07 20 BKN:07 250","29.85","10.00","49","210",,"10",,,,,,,,,,,,,,,,,,,,,,,,,,,,,,,,,,,,,"MET09810/14/20 07:05:02 SPECI KSEA 141505Z 21009KT 10SM BKN020 BKN250 11/08 A3032 RMK AO2 T01110078 (JC)","FM-16","7",,,,,,,,,,,,,,,,,,,,,,,,,,,"2007-05-17"
"72793024233","2020-10-14T07:23:00","FM-16","7",,,,,,,,,,,,,,,,,,,,,,,,,,,,,,,,,,,,,,,"30.31","46","53",,,,,"77",,"SCT:04 20 BKN:07 250","29.84","10.00","49","200",,"11",,,,,,,,,,,,,,,,,,,,,,,,,,,,,,,,,,,,,"MET09810/14/20 07:23:02 SPECI KSEA 141523Z 20010KT 10SM SCT020 BKN250 12/08 A3031 RMK AO2 T01170078 (JC)","FM-16","7",,,,,,,,,,,,,,,,,,,,,,,,,,,"2007-05-17"
"72793024233","2020-10-14T07:34:00","FM-16","7",,,,,,,,,,,,,,,,,,,,,,,,,,,,,,,,,,,,,,,"30.33","46","54",,,,,"75",,"BKN:07 20 BKN:07 250","29.86","10.00","50","210",,"9",,,,,,,,,,,,,,,,,,,,,,,,,,,,,,,,,,,,,"MET09810/14/20 07:34:02 SPECI KSEA 141534Z 21008KT 10SM BKN020 BKN250 12/08 A3033 RMK AO2 T01220078 (JC)","FM-16","7",,,,,,,,,,,,,,,,,,,,,,,,,,,"2007-05-17"
"72793024233","2020-10-14T07:53:00","FM-15","7",,,,,,,,,,,,,,,,,,,,,,,,,,,,,,,,,,,,,,,"30.33","46","54","0.00",,,,"75","30.35","BKN:07 20 BKN:07 250","29.86","10.00","50","210",,"10",,,,,,,,,,,,,,,,,,,,,,,,,,,,,,,,,,,,,"MET10510/14/20 07:53:02 METAR KSEA 141553Z 21009KT 10SM BKN020 BKN250 12/08 A3033 RMK AO2 SLP278 T01220078 (JC)","FM-15","7",,,,,,,,,,,,,,,,,,,,,,,,,,,"2007-05-17"
"72793024233","2020-10-14T08:53:00","FM-15","7",,,,,,,,,,,,,,,,,,,,,,,,,,,,,,,,,,,,,,,"30.36","47","54","0.00",,,,"77","30.38","OVC:08 16","29.89","10.00","50","200",,"9",,,,,,,,,,,,,,,,,,,,,,,,,,,,,,,,,,,,,"MET09810/14/20 08:53:02 METAR KSEA 141653Z 20008KT 10SM OVC016 12/08 A3036 RMK AO2 SLP287 T01220083 (JC)","FM-15","7",,,,,,,,,,,,,,,,,,,,,,,,,,,"2007-05-17"
"72793024233","2020-10-14T09:53:00","FM-15","7",,,,,,,,,,,,,,,,,,,,,,,,,,,,,,,,,,,,,,,"30.38","49","56","0.00",,"-0.07","3","77","30.40","FEW:02 17 BKN:07 23 BKN:07 250","29.91","10.00","52","210",,"9",,,,,,,,,,,,,,,,,,,,,,,,,,,,,,,,,,,,,"MET13010/14/20 09:53:02 METAR KSEA 141753Z 21008KT 10SM FEW017 BKN023 BKN250 13/09 A3038 RMK AO2 SLP296 T01330094 10133 20111 53024 (JC)","FM-15","7",,,,,,,,,,,,,,,,,,,,,,,,,,,"2007-05-17"
"72793024233","2020-10-14T10:00:00","FM-12","4",,,,,,,,,,,,,,,,,,,,,,,,,,,,,,,,,,,,,,,,"49","56",,,"-0.07","3","77","30.40","15","29.89","9.94","52","210",,"9",,,,,,,,,,,,,,,,,,,,,,,,,,,,,,,,,,,,,"SYN08072793 32466 62108 10133 20094 30123 40296 53024 91753 333 10133 20111 555 91418=","FM-12","4",,,,,,,,,,,,,,,,,,,,,,,,,,,"2007-05-17"
"72793024233","2020-10-14T10:53:00","FM-15","7",,,,,,,,,,,,,,,,,,,,,,,,,,,,,,,,,,,,,,,"30.40","48","57","0.00",,,,"72","30.42","FEW:02 17 BKN:07 23 BKN:07 250","29.93","10.00","52","210",,"10",,,,,,,,,,,,,,,,,,,,,,,,,,,,,,,,,,,,,"MET11210/14/20 10:53:02 METAR KSEA 141853Z 21009KT 10SM FEW017 BKN023 BKN250 14/09 A3040 RMK AO2 SLP300 T01390089 (JC)","FM-15","7",,,,,,,,,,,,,,,,,,,,,,,,,,,"2007-05-17"
"72793024233","2020-10-14T11:28:00","FM-16","7",,,,,,,,,,,,,,,,,,,,,,,,,,,,,,,,,,,,,,,"30.41","46","57",,,,,"67",,"SCT:04 23 BKN:07 34 BKN:07 250","29.94","10.00","51","240",,"7",,,,,,,,,,,,,,,,,,,,,,,,,,,,,,,,,,,,,"MET10510/14/20 11:28:02 SPECI KSEA 141928Z 24006KT 10SM SCT023 BKN034 BKN250 14/08 A3041 RMK AO2 T01390078 (JC)","FM-16","7",,,,,,,,,,,,,,,,,,,,,,,,,,,"2007-05-17"
"72793024233","2020-10-14T11:53:00","FM-15","7",,,,,,,,,,,,,,,,,,,,,,,,,,,,,,,,,,,,,,,"30.41","47","59","0.00",,,,"64","30.43","SCT:04 23 SCT:04 34 SCT:04 250","29.94","10.00","53","210",,"9",,,,,,,,,,,,,,,,,,,,,,,,,,,,,,,,,,,,,"MET11210/14/20 11:53:02 METAR KSEA 141953Z 21008KT 10SM SCT023 SCT034 SCT250 15/08 A3041 RMK AO2 SLP304 T01500083 (JC)","FM-15","7",,,,,,,,,,,,,,,,,,,,,,,,,,,"2007-05-17"
"72793024233","2020-10-14T12:53:00","FM-15","7",,,,,,,,,,,,,,,,,,,,,,,,,,,,,,,,,,,,,,,"30.41","46","61","0.00",,"-0.03","1","58","30.43","FEW:02 25 SCT:04 34 SCT:04 250","29.94","10.00","53","210",,"7",,,,,,,,,,,,,,,,,,,,,,,,,,,,,,,,,,,,,"MET13110/14/20 12:53:02 METAR KSEA 142053Z 21006KT 10SM FEW025 SCT034 SCT250 16/08 A3041 RMK AO2 SLP305 SHRA DSNT NW T01610078 51010 (RS)","FM-15","7",,,,,,,,,,,,,,,,,,,,,,,,,,,"2007-05-17"
"72793024233","2020-10-14T13:53:00","FM-15","7",,,,,,,,,,,,,,,,,,,,,,,,,,,,,,,,,,,,,,,"30.42","46","60","0.00",,,,"60","30.44","SCT:04 35 BKN:07 250","29.95","10.00","53","200",,"8",,,,,,,,,,,,,,,,,,,,,,,,,,,,,,,,,,,,,"MET10510/14/20 13:53:02 METAR KSEA 142153Z 20007KT 10SM SCT035 BKN250 16/08 A3042 RMK AO2 SLP309 T01560078 (RS)","FM-15","7",,,,,,,,,,,,,,,,,,,,,,,,,,,"2007-05-17"
"72793024233","2020-10-14T14:53:00","FM-15","7",,,,,,,,,,,,,,,,,,,,,,,,,,,,,,,,,,,,,,,"30.43","46","60","0.00",,,,"60","30.45","SCT:04 35 BKN:07 250","29.96","10.00","53","VRB",,"3",,,,,,,,,,,,,,,,,,,,,,,,,,,,,,,,,,,,,"MET10510/14/20 14:53:02 METAR KSEA 142253Z VRB03KT 10SM SCT035 BKN250 16/08 A3043 RMK AO2 SLP311 T01560078 (RS)","FM-15","7",,,,,,,,,,,,,,,,,,,,,,,,,,,"2007-05-17"
"72793024233","2020-10-14T15:53:00","FM-15","7",,,,,,,,,,,,,,,,,,,,,,,,,,,,,,,,,,,,,,,"30.43","56","63","0.00",,"-0.01","0","78","30.44","SCT:04 49 BKN:07 250","29.96","10.00","59","250",,"3",,,,,,,,,,,,,,,,,,,,,,,,,,,,,,,,,,,,,"MET12510/14/20 15:53:02 METAR KSEA 142353Z 25003KT 10SM SCT049 BKN250 17/13 A3043 RMK AO2 SLP309 T01720133 10172 20133 50004 $ (RS)","FM-15","7",,,,,,,,,,,,,,,,,,,,,,,,,,,"2007-05-17"
"72793024233","2020-10-14T16:00:00","FM-12","4",,,,,,,,,,,,,,,,,,,,,,,,,,,,,,,,,,,,,,,,"56","63",,,"0.01","9","78","30.44","41","29.94","9.94","59","250",,"3",,,,,,,,,,,,,,,,,,,,,,,,,,,,,,,,,,,,,"SYN08072793 32666 62503 10172 20133 30140 40309 50004 92353 333 10172 20111 555 91500=","FM-12","4",,,,,,,,,,,,,,,,,,,,,,,,,,,"2007-05-17"
"72793024233","2020-10-14T16:53:00","FM-15","7",,,,,,,,,,,,,,,,,,,,,,,,,,,,,,,,,,,,,,,"30.44","47","57","0.00",,,,"69","30.46","SCT:04 43 SCT:04 75 BKN:07 250","29.97","10.00","52","070",,"9",,,,,,,,,,,,,,,,,,,,,,,,,,,,,,,,,,,,,"MET10910/14/20 16:53:01 METAR KSEA 150053Z 07008KT 10SM SCT043 SCT075 BKN250 14/08 A3044 RMK AO2 SLP315 T01390083 $","FM-15","7",,,,,,,,,,,,,,,,,,,,,,,,,,,"2007-05-17"
"72793024233","2020-10-14T17:53:00","FM-15","7",,,,,,,,,,,,,,,,,,,,,,,,,,,,,,,,,,,,,,,"30.46","46","55","0.00",,,,"72","30.47","SCT:04 35 BKN:07 250","29.99","10.00","50","060",,"9",,,,,,,,,,,,,,,,,,,,,,,,,,,,,,,,,,,,,"MET10210/14/20 17:53:01 METAR KSEA 150153Z 06008KT 10SM SCT035 BKN250 13/08 A3046 RMK AO2 SLP320 T01280078 $","FM-15","7",,,,,,,,,,,,,,,,,,,,,,,,,,,"2007-05-17"
"72793024233","2020-10-14T18:53:00","FM-15","7",,,,,,,,,,,,,,,,,,,,,,,,,,,,,,,,,,,,,,,"30.47","45","55","0.00",,"-0.04","3","69","30.49","FEW:02 40 SCT:04 65","30.00","10.00","50","060",,"11",,,,,,,,,,,,,,,,,,,,,,,,,,,,,,,,,,,,,"MET10810/14/20 18:53:01 METAR KSEA 150253Z 06010KT 10SM FEW040 SCT065 13/07 A3047 RMK AO2 SLP326 T01280072 53015 $","FM-15","7",,,,,,,,,,,,,,,,,,,,,,,,,,,"2007-05-17"
"72793024233","2020-10-14T19:53:00","FM-15","7",,,,,,,,,,,,,,,,,,,,,,,,,,,,,,,,,,,,,,,"30.49","44","53","0.00",,,,"72","30.51","SCT:04 47 SCT:04 70","30.02","10.00","49","060",,"9",,,,,,,,,,,,,,,,,,,,,,,,,,,,,,,,,,,,,"MET10210/14/20 19:53:02 METAR KSEA 150353Z 06008KT 10SM SCT047 SCT070 12/07 A3049 RMK AO2 SLP332 T01170067 $","FM-15","7",,,,,,,,,,,,,,,,,,,,,,,,,,,"2007-05-17"
"72793024233","2020-10-14T20:53:00","FM-15","7",,,,,,,,,,,,,,,,,,,,,,,,,,,,,,,,,,,,,,,"30.50","44","53","0.00",,,,"72","30.52","BKN:07 39","30.03","10.00","49","070",,"10",,,,,,,,,,,,,,,,,,,,,,,,,,,,,,,,,,,,,"MET09510/14/20 20:53:02 METAR KSEA 150453Z 07009KT 10SM BKN039 12/07 A3050 RMK AO2 SLP335 T01170067 $","FM-15","7",,,,,,,,,,,,,,,,,,,,,,,,,,,"2007-05-17"
"72793024233","2020-10-14T21:53:00","FM-15","7",,,,,,,,,,,,,,,,,,,,,,,,,,,,,,,,,,,,,,,"30.53","44","52","0.00",,"-0.05","3","75","30.55","BKN:07 45 BKN:07 55","30.06","10.00","48","070",,"8",,,,,,,,,,,,,,,,,,,,,,,,,,,,,,,,,,,,,"MET10810/14/20 21:53:02 METAR KSEA 150553Z 07007KT 10SM BKN045 BKN055 11/07 A3053 RMK AO2 SLP344 T01110067 53018 $","FM-15","7",,,,,,,,,,,,,,,,,,,,,,,,,,,"2007-05-17"
"72793024233","2020-10-14T22:00:00","FM-12","4",,,,,,,,,,,,,,,,,,,,,,,,,,,,,,,,,,,,,,,,"44","52",,,"-0.05","3","75","30.55","41","30.04","9.94","48","070",,"8",,,,,,,,,,,,,,,,,,,,,,,,,,,,,,,,,,,,,"SYN06472793 32666 60707 10111 20067 30173 40344 53018 90553 555 91506=","FM-12","4",,,,,,,,,,,,,,,,,,,,,,,,,,,"2007-05-17"
"72793024233","2020-10-14T22:53:00","FM-15","7",,,,,,,,,,,,,,,,,,,,,,,,,,,,,,,,,,,,,,,"30.53","43","52","0.00",,,,"72","30.55","SCT:04 25 BKN:07 60","30.06","10.00","48","070",,"5",,,,,,,,,,,,,,,,,,,,,,,,,,,,,,,,,,,,,"MET10210/14/20 22:53:02 METAR KSEA 150653Z 07004KT 10SM SCT025 BKN060 11/06 A3053 RMK AO2 SLP347 T01110061 $","FM-15","7",,,,,,,,,,,,,,,,,,,,,,,,,,,"2007-05-17"
"72793024233","2020-10-14T23:53:00","FM-15","7",,,,,,,,,,,,,,,,,,,,,,,,,,,,,,,,,,,,,,,"30.55","42","51","0.00",,,,"71","30.56","FEW:02 25 BKN:07 65","30.08","10.00","47","090",,"6",,,,,,,,,,,,,,,,,,,,,,,,,,,,,,,,,,,,,"MET11210/14/20 23:53:02 METAR KSEA 150753Z 09005KT 10SM FEW025 BKN065 11/06 A3055 RMK AO2 SLP350 T01060056 401720106 $","FM-15","7",,,,,,,,,,,,,,,,,,,,,,,,,,,"2007-05-17"
"72793024233","2020-10-14T23:59:00","SOD  ","6",,,,,,,,,,,,,,,,,"46","57","73","30.41","29.93","51","8.3","0","3.8","8","63","51","220","19","0.00","0","0.0","200","15",,,,,,,,,,,,,,,,,,,,,,,,,,,,,,,,,,,,,,,,,,,,,,,,,,,,,,,,"SOD73924 HR PRECIPITATION (IN): 0.00 SNOW DEPTH (IN):0     24 HR SNOWFALL (IN):0.0  24 HR MAX TEMP (F): 6324 HR MIN TEMP (F): 51AVERAGE STATION PRESSURE:29.925 MINIMUM SEA LEVEL PRESSURE:30.19 TIME OF OCCURRENCE:0002 PEAK WIND SPEED (MPH): 19 PEAK WIND DIR (DEG):220 PEAK WIND TIME (LST):      FASTEST 2MIN SPEED (MPH): 15FASTEST 2MIN DIR (DEG):200 FASTEST 2MIN TIME (LST):     AVERAGE WIND SPEED (MPH): 8.3 24 HR AVG TEMP (F): 57DEPART FROM NORMAL:  4  HEATING DEGREE DAYS:  8 COOLING DEGREE DAYS:  0 LATEST DAY MAX TEMP (0700-1900 LST):63( LATEST NIGHT MIN TEMP(1900-0800 LST):52 HOURLY INCREMENTAL PRECIPITATION VALUES (IN):.00 0.00 0.00 0.00 0.00 0.00 0.00 0.00 0.00 0.00 0.00 0.00 0.00 0.00 0.00 0.00 0.00 0.00 0.00 0.00 0.00 0.00 0.00 0.00","SOD  ","6",,,,,,,,,,,,,,,,,,,,,,,,,"0628","1722","2007-05-17"
"72793024233","2020-10-15T00:53:00","FM-15","7",,,,,,,,,,,,,,,,,,,,,,,,,,,,,,,,,,,,,,,"30.55","42","50","0.00",,"-0.02","1","74","30.57","FEW:02 25 FEW:02 65","30.08","10.00","46","090",,"6",,,,,,,,,,,,,,,,,,,,,,,,,,,,,,,,,,,,,"MET11310/15/20 00:53:02 METAR KSEA 150853Z 09005KT 10SM FEW025 FEW065 10/06 A3055 RMK AO2 SLP351 T01000056 51006 $ (TL)","FM-15","7",,,,,,,,,,,,,,,,,,,,,,,,,,,"2007-05-17"
"72793024233","2020-10-15T01:53:00","FM-15","7",,,,,,,,,,,,,,,,,,,,,,,,,,,,,,,,,,,,,,,"30.56","42","49","0.00",,,,"77","30.58","SCT:04 30","30.09","10.00","46","130",,"7",,,,,,,,,,,,,,,,,,,,,,,,,,,,,,,,,,,,,"MET10010/15/20 01:53:02 METAR KSEA 150953Z 13006KT 10SM SCT030 09/06 A3056 RMK AO2 SLP356 T00940056 $ (TL)","FM-15","7",,,,,,,,,,,,,,,,,,,,,,,,,,,"2007-05-17"
"72793024233","2020-10-15T02:53:00","FM-15","7",,,,,,,,,,,,,,,,,,,,,,,,,,,,,,,,,,,,,,,"30.57","43","48","0.00",,,,"83","30.59","FEW:02 40 BKN:07 65","30.10","10.00","46","130",,"6",,,,,,,,,,,,,,,,,,,,,,,,,,,,,,,,,,,,,"MET10710/15/20 02:53:02 METAR KSEA 151053Z 13005KT 10SM FEW040 BKN065 09/06 A3057 RMK AO2 SLP360 T00890061 $ (TL)","FM-15","7",,,,,,,,,,,,,,,,,,,,,,,,,,,"2007-05-17"
"72793024233","2020-10-15T03:53:00","FM-15","7",,,,,,,,,,,,,,,,,,,,,,,,,,,,,,,,,,,,,,,"30.58","44","48","0.00",,"-0.03","1","86","30.60","SCT:04 28 BKN:07 60","30.11","10.00","46","120",,"5",,,,,,,,,,,,,,,,,,,,,,,,,,,,,,,,,,,,,"MET12510/15/20 03:53:02 METAR KSEA 151153Z 12004KT 10SM SCT028 BKN060 09/07 A3058 RMK AO2 SLP361 T00890067 10111 20089 51010 $ (TL)","FM-15","7",,,,,,,,,,,,,,,,,,,,,,,,,,,"2007-05-17"
"72793024233","2020-10-15T04:00:00","FM-12","4",,,,,,,,,,,,,,,,,,,,,,,,,,,,,,,,,,,,,,,,"44","48",,,"-0.03","1","86","30.60","26","30.09","9.94","46","120",,"5",,,,,,,,,,,,,,,,,,,,,,,,,,,,,,,,,,,,,"SYN07472793 32566 61204 10089 20067 30190 40361 51010 91153 333 10172 555 91512=","FM-12","4",,,,,,,,,,,,,,,,,,,,,,,,,,,"2007-05-17"
"72793024233","2020-10-15T04:51:00","FM-16","6",,,,,,,,,,,,,,,,,,,,,,,,,,,,,,,,,,,,,,,"30.58","45","48",,,,,"87",,"BKN:07 24 BKN:07 60","30.11","10.00","47","130",,"5",,,,,,,,,,,,,,,,,,,,,,,,,,,,,,,,,,,,,"MET09510/15/20 04:51:02 SPECI KSEA 151251Z 13004KT 10SM BKN024 BKN060 09/07 A3058 RMK AO2 $ FIBI (JC)","FM-16","6",,,,,,,,,,,,,,,,,,,,,,,,,,,"2007-05-17"
"72793024233","2020-10-15T04:53:00","FM-15","7",,,,,,,,,,,,,,,,,,,,,,,,,,,,,,,,,,,,,,,"30.58","44","48","0.00",,,,"86","30.60","BKN:07 24 BKN:07 60","30.11","10.00","46","130",,"5",,,,,,,,,,,,,,,,,,,,,,,,,,,,,,,,,,,,,"MET10710/15/20 04:53:02 METAR KSEA 151253Z 13004KT 10SM BKN024 BKN060 09/07 A3058 RMK AO2 SLP361 T00890067 $ (JC)","FM-15","7",,,,,,,,,,,,,,,,,,,,,,,,,,,"2007-05-17"
"72793024233","2020-10-15T05:23:00","FM-16","7",,,,,,,,,,,,,,,,,,,,,,,,,,,,,,,,,,,,,,,"30.58","43","47",,,,,"86",,"SCT:04 24","30.11","10.00","45","000",,"0",,,,,,,,,,,,,,,,,,,,,,,,,,,,,,,,,,,,,"MET09310/15/20 05:23:02 SPECI KSEA 151323Z 00000KT 10SM SCT024 08/06 A3058 RMK AO2 T00830061 $ (JC)","FM-16","7",,,,,,,,,,,,,,,,,,,,,,,,,,,"2007-05-17"
"72793024233","2020-10-15T05:53:00","FM-15","7",,,,,,,,,,,,,,,,,,,,,,,,,,,,,,,,,,,,,,,"30.58","43","47","0.00",,,,"86","30.60","FEW:02 24","30.11","10.00","45","100",,"6",,,,,,,,,,,,,,,,,,,,,,,,,,,,,,,,,,,,,"MET10010/15/20 05:53:02 METAR KSEA 151353Z 10005KT 10SM FEW024 08/06 A3058 RMK AO2 SLP364 T00830061 $ (JC)","FM-15","7",,,,,,,,,,,,,,,,,,,,,,,,,,,"2007-05-17"
"72793024233","2020-10-15T06:53:00","FM-15","7",,,,,,,,,,,,,,,,,,,,,,,,,,,,,,,,,,,,,,,"30.59","43","46","0.00",,"-0.01","3","89","30.61","FEW:02 25","30.11","10.00","45","000",,"0",,,,,,,,,,,,,,,,,,,,,,,,,,,,,,,,,,,,,"MET10610/15/20 06:53:02 METAR KSEA 151453Z 00000KT 10SM FEW025 08/06 A3059 RMK AO2 SLP366 T00780061 53004 $ (JC)","FM-15","7",,,,,,,,,,,,,,,,,,,,,,,,,,,"2007-05-17"
"72793024233","2020-10-15T07:53:00","FM-15","7",,,,,,,,,,,,,,,,,,,,,,,,,,,,,,,,,,,,,,,"30.60","45","49","0.00",,,,"86","30.62","FEW:02 30 FEW:02 120","30.13","10.00","47","000",,"0",,,,,,,,,,,,,,,,,,,,,,,,,,,,,,,,,,,,,"MET12010/15/20 07:53:02 METAR KSEA 151553Z 00000KT 10SM FEW030 FEW120 09/07 A3060 RMK AO2 SLP370 ACSL DSNT SE T00940072 $ (JC)","FM-15","7",,,,,,,,,,,,,,,,,,,,,,,,,,,"2007-05-17"
"72793024233","2020-10-15T08:53:00","FM-15","7",,,,,,,,,,,,,,,,,,,,,,,,,,,,,,,,,,,,,,,"30.60","45","53","0.00",,,,"74","30.62","FEW:02 12 FEW:02 200","30.13","10.00","49","000",,"0",,,,,,,,,,,,,,,,,,,,,,,,,,,,,,,,,,,,,"MET10710/15/20 08:53:02 METAR KSEA 151653Z 00000KT 10SM FEW012 FEW200 12/07 A3060 RMK AO2 SLP369 T01170072 $ (JC)","FM-15","7",,,,,,,,,,,,,,,,,,,,,,,,,,,"2007-05-17"
"72793024233","2020-10-15T09:53:00","FM-15","7",,,,,,,,,,,,,,,,,,,,,,,,,,,,,,,,,,,,,,,"30.60","45","55","0.00",,"-0.01","0","69","30.62","FEW:02 12 FEW:02 140 FEW:02 200","30.13","10.00","50","010",,"7",,,,,,,,,,,,,,,,,,,,,,,,,,,,,,,,,,,,,"MET14510/15/20 09:53:02 METAR KSEA 151753Z 01006KT 10SM FEW012 FEW140 FEW200 13/07 A3060 RMK AO2 SLP368 ACSL DSNT SE T01280072 10128 20078 50003 $ (JC)","FM-15","7",,,,,,,,,,,,,,,,,,,,,,,,,,,"2007-05-17"
"72793024233","2020-10-15T10:00:00","FM-12","4",,,,,,,,,,,,,,,,,,,,,,,,,,,,,,,,,,,,,,,,"45","55",,,"0.01","9","69","30.62","15","30.11","9.94","50","010",,"7",,,,,,,,,,,,,,,,,,,,,,,,,,,,,,,,,,,,,"SYN07472793 32466 20106 10128 20072 30197 40368 50003 91753 333 10128 555 91518=","FM-12","4",,,,,,,,,,,,,,,,,,,,,,,,,,,"2007-05-17"
"72793024233","2020-10-15T10:53:00","FM-15","7",,,,,,,,,,,,,,,,,,,,,,,,,,,,,,,,,,,,,,,"30.60","45","56","0.00",,,,"67","30.62","FEW:02 20 BKN:07 120","30.13","10.00","50","300",,"7",,,,,,,,,,,,,,,,,,,,,,,,,,,,,,,,,,,,,"MET10710/15/20 10:53:02 METAR KSEA 151853Z 30006KT 10SM FEW020 BKN120 13/07 A3060 RMK AO2 SLP368 T01330072 $ (JC)","FM-15","7",,,,,,,,,,,,,,,,,,,,,,,,,,,"2007-05-17"
"72793024233","2020-10-15T11:53:00","FM-15","7",,,,,,,,,,,,,,,,,,,,,,,,,,,,,,,,,,,,,,,"30.59","45","57","0.00",,,,"64","30.61","FEW:02 20 BKN:07 110","30.11","10.00","51","010",,"7",,,,,,,,,,,,,,,,,,,,,,,,,,,,,,,,,,,,,"MET10710/15/20 11:53:02 METAR KSEA 151953Z 01006KT 10SM FEW020 BKN110 14/07 A3059 RMK AO2 SLP365 T01390072 $ (JC)","FM-15","7",,,,,,,,,,,,,,,,,,,,,,,,,,,"2007-05-17"
"72793024233","2020-10-15T12:53:00","FM-15","7",,,,,,,,,,,,,,,,,,,,,,,,,,,,,,,,,,,,,,,"30.57","45","57","0.00",,"+0.02","8","64","30.59","FEW:02 25 BKN:07 100","30.10","10.00","51","350",,"8",,,,,,,,,,,,,,,,,,,,,,,,,,,,,,,,,,,,,"MET11310/15/20 12:53:02 METAR KSEA 152053Z 35007KT 10SM FEW025 BKN100 14/07 A3057 RMK AO2 SLP360 T01390072 58008 $ (JC)","FM-15","7",,,,,,,,,,,,,,,,,,,,,,,,,,,"2007-05-17"
"72793024233","2020-10-15T13:53:00","FM-15","7",,,,,,,,,,,,,,,,,,,,,,,,,,,,,,,,,,,,,,,"30.55","44","58","0.00",,,,"60","30.56","FEW:02 25 BKN:07 100","30.08","10.00","51","020",,"7",,,,,,,,,,,,,,,,,,,,,,,,,,,,,,,,,,,,,"MET10710/15/20 13:53:02 METAR KSEA 152153Z 02006KT 10SM FEW025 BKN100 14/07 A3055 RMK AO2 SLP350 T01440067 $ (RS)","FM-15","7",,,,,,,,,,,,,,,,,,,,,,,,,,,"2007-05-17"
"72793024233","2020-10-15T14:53:00","FM-15","7",,,,,,,,,,,,,,,,,,,,,,,,,,,,,,,,,,,,,,,"30.52","45","60","0.00",,,,"58","30.54","FEW:02 30 SCT:04 90 SCT:04 150","30.05","10.00","52","290",,"7",,,,,,,,,,,,,,,,,,,,,,,,,,,,,,,,,,,,,"MET11410/15/20 14:53:02 METAR KSEA 152253Z 29006KT 10SM FEW030 SCT090 SCT150 16/07 A3052 RMK AO2 SLP343 T01560072 $ (RS)","FM-15","7",,,,,,,,,,,,,,,,,,,,,,,,,,,"2007-05-17"
"72793024233","2020-10-15T15:53:00","FM-15","7",,,,,,,,,,,,,,,,,,,,,,,,,,,,,,,,,,,,,,,"30.50","45","57","0.00",,"+0.07","6","64","30.52","FEW:02 80 SCT:04 120 SCT:04 180","30.03","10.00","51","290",,"7",,,,,,,,,,,,,,,,,,,,,,,,,,,,,,,,,,,,,"MET13210/15/20 15:53:02 METAR KSEA 152353Z 29006KT 10SM FEW080 SCT120 SCT180 14/07 A3050 RMK AO2 SLP336 T01390072 10156 20128 56024 $ (RS)","FM-15","7",,,,,,,,,,,,,,,,,,,,,,,,,,,"2007-05-17"
"72793024233","2020-10-15T16:00:00","FM-12","4",,,,,,,,,,,,,,,,,,,,,,,,,,,,,,,,,,,,,,,,"45","57",,,"+0.07","6","64","30.52","74","30.01","9.94","51","290",,"7",,,,,,,,,,,,,,,,,,,,,,,,,,,,,,,,,,,,,"SYN08072793 32866 42906 10139 20072 30163 40336 56024 92353 333 10156 20089 555 91600=","FM-12","4",,,,,,,,,,,,,,,,,,,,,,,,,,,"2007-05-17"
"72793024233","2020-10-15T16:53:00","FM-15","7",,,,,,,,,,,,,,,,,,,,,,,,,,,,,,,,,,,,,,,"30.48","45","57","0.00",,,,"64","30.50","FEW:02 80 SCT:04 120 SCT:04 250","30.01","10.00","51","280",,"5",,,,,,,,,,,,,,,,,,,,,,,,,,,,,,,,,,,,,"MET10910/15/20 16:53:01 METAR KSEA 160053Z 28004KT 10SM FEW080 SCT120 SCT250 14/07 A3048 RMK AO2 SLP327 T01390072 $","FM-15","7",,,,,,,,,,,,,,,,,,,,,,,,,,,"2007-05-17"
"72793024233","2020-10-15T17:53:00","FM-15","7",,,,,,,,,,,,,,,,,,,,,,,,,,,,,,,,,,,,,,,"30.47","45","57","0.00",,,,"64","30.49","BKN:07 75 BKN:07 140","30.00","10.00","51","280",,"5",,,,,,,,,,,,,,,,,,,,,,,,,,,,,,,,,,,,,"MET10210/15/20 17:53:01 METAR KSEA 160153Z 28004KT 10SM BKN075 BKN140 14/07 A3047 RMK AO2 SLP326 T01390072 $","FM-15","7",,,,,,,,,,,,,,,,,,,,,,,,,,,"2007-05-17"
"72793024233","2020-10-15T18:53:00","FM-15","7",,,,,,,,,,,,,,,,,,,,,,,,,,,,,,,,,,,,,,,"30.48","43","56","0.00",,"+0.02","5","62","30.50","BKN:07 70 BKN:07 140","30.01","10.00","50","000",,"0",,,,,,,,,,,,,,,,,,,,,,,,,,,,,,,,,,,,,"MET10810/15/20 18:53:01 METAR KSEA 160253Z 00000KT 10SM BKN070 BKN140 13/06 A3048 RMK AO2 SLP329 T01330061 55008 $","FM-15","7",,,,,,,,,,,,,,,,,,,,,,,,,,,"2007-05-17"
"72793024233","2020-10-15T19:53:00","FM-15","7",,,,,,,,,,,,,,,,,,,,,,,,,,,,,,,,,,,,,,,"30.47","44","56","0.00",,,,"65","30.49","BKN:07 70","30.00","10.00","50","000",,"0",,,,,,,,,,,,,,,,,,,,,,,,,,,,,,,,,,,,,"MET09510/15/20 19:53:02 METAR KSEA 160353Z 00000KT 10SM BKN070 13/07 A3047 RMK AO2 SLP325 T01330067 $","FM-15","7",,,,,,,,,,,,,,,,,,,,,,,,,,,"2007-05-17"
"72793024233","2020-10-15T20:53:00","FM-15","7",,,,,,,,,,,,,,,,,,,,,,,,,,,,,,,,,,,,,,,"30.44","45","54","0.00",,,,"72","30.46","BKN:07 70","29.97","10.00","49","170",,"6",,,,,,,,,,,,,,,,,,,,,,,,,,,,,,,,,,,,,"MET09510/15/20 20:53:02 METAR KSEA 160453Z 17005KT 10SM BKN070 12/07 A3044 RMK AO2 SLP315 T01220072 $","FM-15","7",,,,,,,,,,,,,,,,,,,,,,,,,,,"2007-05-17"
"72793024233","2020-10-15T21:53:00","FM-15","7",,,,,,,,,,,,,,,,,,,,,,,,,,,,,,,,,,,,,,,"30.43","45","54","0.00",,"+0.05","8","72","30.45","CLR:00","29.96","10.00","49","170",,"6",,,,,,,,,,,,,,,,,,,,,,,,,,,,,,,,,,,,,"MET11010/15/20 21:53:02 METAR KSEA 160553Z 17005KT 10SM CLR 12/07 A3043 RMK AO2 SLP310 T01220072 10144 20122 58018 $","FM-15","7",,,,,,,,,,,,,,,,,,,,,,,,,,,"2007-05-17"
"72793024233","2020-10-15T22:00:00","FM-12","4",,,,,,,,,,,,,,,,,,,,,,,,,,,,,,,,,,,,,,,,"45","54",,,"+0.05","8","72","30.45",,"29.94","9.94","49","170",,"6",,,,,,,,,,,,,,,,,,,,,,,,,,,,,,,,,,,,,"SYN08072793 32966 01705 10122 20072 30140 40310 58018 90553 333 10144 20089 555 91606=","FM-12","4",,,,,,,,,,,,,,,,,,,,,,,,,,,"2007-05-17"
"72793024233","2020-10-15T22:53:00","FM-15","7",,,,,,,,,,,,,,,,,,,,,,,,,,,,,,,,,,,,,,,"30.42","45","52","0.00",,,,"77","30.44","FEW:02 75","29.95","10.00","49","160",,"9",,,,,,,,,,,,,,,,,,,,,,,,,,,,,,,,,,,,,"MET09510/15/20 22:53:02 METAR KSEA 160653Z 16008KT 10SM FEW075 11/07 A3042 RMK AO2 SLP309 T01110072 $","FM-15","7",,,,,,,,,,,,,,,,,,,,,,,,,,,"2007-05-17"
"72793024233","2020-10-15T23:53:00","FM-15","7",,,,,,,,,,,,,,,,,,,,,,,,,,,,,,,,,,,,,,,"30.40","46","51","0.00",,,,"83","30.42","FEW:02 70","29.93","10.00","49","140",,"9",,,,,,,,,,,,,,,,,,,,,,,,,,,,,,,,,,,,,"MET10510/15/20 23:53:02 METAR KSEA 160753Z 14008KT 10SM FEW070 11/08 A3040 RMK AO2 SLP302 T01060078 401560078 $","FM-15","7",,,,,,,,,,,,,,,,,,,,,,,,,,,"2007-05-17"
"72793024233","2020-10-15T23:59:00","SOD  ","6",,,,,,,,,,,,,,,,,"44","53","73","30.55","30.04","49","5.1","0","0.1","12","60","46","140","9","0.00","0","0.0","140","9",,,,,,,,,,,,,,,,,,,,,,,,,,,,,,,,,,,,,,,,,,,,,,,,,,,,,,,,"SOD65924 HR PRECIPITATION (IN): 0.00 SNOW DEPTH (IN):0     24 HR SNOWFALL (IN):0.0  24 HR MAX TEMP (F): 6024 HR MIN TEMP (F): 46AVERAGE STATION PRESSURE:30.045 MINIMUM SEA LEVEL PRESSURE:30.42 TIME OF OCCURRENCE:2359 PEAK WIND SPEED (MPH):  9 PEAK WIND DIR (DEG):140 PEAK WIND TIME (LST):      FASTEST 2MIN SPEED (MPH):  9FASTEST 2MIN DIR (DEG):140 FASTEST 2MIN TIME (LST):     AVERAGE WIND SPEED (MPH): 5.1 24 HR AVG TEMP (F): 53DEPART FROM NORMAL:  0  HEATING DEGREE DAYS: 12 COOLING DEGREE DAYS:  0 HOURLY INCREMENTAL PRECIPITATION VALUES (IN):.00 0.00 0.00 0.00 0.00 0.00 0.00 0.00 0.00 0.00 0.00 0.00 0.00 0.00 0.00 0.00 0.00 0.00 0.00 0.00 0.00 0.00 0.00 0.00","SOD  ","6",,,,,,,,,,,,,,,,,,,,,,,,,"0629","1720","2007-05-17"
"72793024233","2020-10-16T00:53:00","FM-15","7",,,,,,,,,,,,,,,,,,,,,,,,,,,,,,,,,,,,,,,"30.39","45","52","0.00",,"+0.04","8","77","30.40","FEW:02 43 SCT:04 70","29.92","10.00","49","160",,"8",,,,,,,,,,,,,,,,,,,,,,,,,,,,,,,,,,,,,"MET11310/16/20 00:53:02 METAR KSEA 160853Z 16007KT 10SM FEW043 SCT070 11/07 A3039 RMK AO2 SLP296 T01110072 58013 $ (TL)","FM-15","7",,,,,,,,,,,,,,,,,,,,,,,,,,,"2007-05-17"
"72793024233","2020-10-16T01:53:00","FM-15","7",,,,,,,,,,,,,,,,,,,,,,,,,,,,,,,,,,,,,,,"30.37","46","52","0.00",,,,"80","30.39","BKN:07 43","29.90","10.00","49","160",,"8",,,,,,,,,,,,,,,,,,,,,,,,,,,,,,,,,,,,,"MET10010/16/20 01:53:02 METAR KSEA 160953Z 16007KT 10SM BKN043 11/08 A3037 RMK AO2 SLP292 T01110078 $ (TL)","FM-15","7",,,,,,,,,,,,,,,,,,,,,,,,,,,"2007-05-17"
"72793024233","2020-10-16T02:53:00","FM-15","7",,,,,,,,,,,,,,,,,,,,,,,,,,,,,,,,,,,,,,,"30.33","45","53","0.00",,,,"74","30.35","SCT:04 33 BKN:07 70","29.86","10.00","49","150",,"13",,,,,,,,,,,,,,,,,,,,,,,,,,,,,,,,,,,,,"MET10710/16/20 02:53:02 METAR KSEA 161053Z 15011KT 10SM SCT033 BKN070 12/07 A3033 RMK AO2 SLP278 T01170072 $ (TL)","FM-15","7",,,,,,,,,,,,,,,,,,,,,,,,,,,"2007-05-17"
"72793024233","2020-10-16T03:53:00","FM-15","7",,,,,,,,,,,,,,,,,,,,,,,,,,,,,,,,,,,,,,,"30.31","44","54","0.00",,"+0.07","8","69","30.33","OVC:08 31","29.84","10.00","49","170",,"9",,,,,,,,,,,,,,,,,,,,,,,,,,,,,,,,,,,,,"MET11810/16/20 03:53:02 METAR KSEA 161153Z 17008KT 10SM OVC031 12/07 A3031 RMK AO2 SLP272 T01220067 10122 20106 58024 $ (TL)","FM-15","7",,,,,,,,,,,,,,,,,,,,,,,,,,,"2007-05-17"
"72793024233","2020-10-16T04:00:00","FM-12","4",,,,,,,,,,,,,,,,,,,,,,,,,,,,,,,,,,,,,,,,"44","54",,,"+0.07","8","69","30.33","26","29.83","9.94","49","170",,"9",,,,,,,,,,,,,,,,,,,,,,,,,,,,,,,,,,,,,"SYN08072793 32566 81708 10122 20067 30100 40272 58024 91153 333 10156 20106 555 91612=","FM-12","4",,,,,,,,,,,,,,,,,,,,,,,,,,,"2007-05-17"
"72793024233","2020-10-16T04:51:00","FM-16","6",,,,,,,,,,,,,,,,,,,,,,,,,,,,,,,,,,,,,,,"30.29","45","54",,,,,"72",,"OVC:08 27","29.82","10.00","49","220",,"8",,,,,,,,,,,,,,,,,,,,,,,,,,,,,,,,,,,,,"MET08810/16/20 04:51:02 SPECI KSEA 161251Z 22007KT 10SM OVC027 12/07 A3029 RMK AO2 $ FIBI (TL)","FM-16","6",,,,,,,,,,,,,,,,,,,,,,,,,,,"2007-05-17"
"72793024233","2020-10-16T04:53:00","FM-15","7",,,,,,,,,,,,,,,,,,,,,,,,,,,,,,,,,,,,,,,"30.29","45","54","0.00",,,,"72","30.30","OVC:08 27","29.82","10.00","49","220",,"8",,,,,,,,,,,,,,,,,,,,,,,,,,,,,,,,,,,,,"MET10010/16/20 04:53:02 METAR KSEA 161253Z 22007KT 10SM OVC027 12/07 A3029 RMK AO2 SLP262 T01220072 $ (TL)","FM-15","7",,,,,,,,,,,,,,,,,,,,,,,,,,,"2007-05-17"
"72793024233","2020-10-16T05:53:00","FM-15","7",,,,,,,,,,,,,,,,,,,,,,,,,,,,,,,,,,,,,,,"30.26","45","55","0.00",,,,"69","30.28","OVC:08 24","29.79","10.00","50","190",,"9",,,,,,,,,,,,,,,,,,,,,,,,,,,,,,,,,,,,,"MET10010/16/20 05:53:02 METAR KSEA 161353Z 19008KT 10SM OVC024 13/07 A3026 RMK AO2 SLP255 T01280072 $ (JC)","FM-15","7",,,,,,,,,,,,,,,,,,,,,,,,,,,"2007-05-17"
"72793024233","2020-10-16T06:53:00","FM-15","7",,,,,,,,,,,,,,,,,,,,,,,,,,,,,,,,,,,,,,,"30.24","45","54","0.00",,"+0.07","6","72","30.26","OVC:08 17","29.77","10.00","49","190",,"10",,,,,,,,,,,,,,,,,,,,,,,,,,,,,,,,,,,,,"MET10610/16/20 06:53:02 METAR KSEA 161453Z 19009KT 10SM OVC017 12/07 A3024 RMK AO2 SLP248 T01220072 56023 $ (JC)","FM-15","7",,,,,,,,,,,,,,,,,,,,,,,,,,,"2007-05-17"
"72793024233","2020-10-16T07:46:00","FM-16","7",,,,,,,,,,,,,,,,,,,,,,,,,,,,,,,,,,,,,,,"30.22","49","55",,,,,"80",,"OVC:08 14","29.75","10.00","52","180",,"8",,,,,,,,,,,,,,,,,,,,,,,,,,,,,,,,,,,,,"MET09310/16/20 07:46:02 SPECI KSEA 161546Z 18007KT 10SM OVC014 13/09 A3022 RMK AO2 T01280094 $ (JC)","FM-16","7",,,,,,,,,,,,,,,,,,,,,,,,,,,"2007-05-17"
"72793024233","2020-10-16T07:53:00","FM-15","7",,,,,,,,,,,,,,,,,,,,,,,,,,,,,,,,,,,,,,,"30.21","49","55","0.00",,,,"80","30.23","OVC:08 14","29.74","10.00","52","180",,"8",,,,,,,,,,,,,,,,,,,,,,,,,,,,,,,,,,,,,"MET09310/16/20 07:53:02 METAR KSEA 161553Z 18007KT 10SM OVC014 13/09 A3021 RMK AO2 SLP238 T01280094","FM-15","7",,,,,,,,,,,,,,,,,,,,,,,,,,,"2007-05-17"
"72793024233","2020-10-16T08:53:00","FM-15","7",,,,,,,,,,,,,,,,,,,,,,,,,,,,,,,,,,,,,,,"30.18","52","58","0.00",,,,"81","30.20","OVC:08 11","29.71","10.00","55","210","22","17",,,,,,,,,,,,,,,,,,,,,,,,,,,,,,,,,,,,,"MET09610/16/20 08:53:02 METAR KSEA 161653Z 21015G19KT 10SM OVC011 14/11 A3018 RMK AO2 SLP227 T01440111","FM-15","7",,,,,,,,,,,,,,,,,,,,,,,,,,,"2007-05-17"
"72793024233","2020-10-16T09:53:00","FM-15","7",,,,,,,,,,,,,,,,,,,,,,,,,,,,,,,,,,,,,,,"30.16","53","59","0.00",,"+0.09","6","81","30.17","OVC:08 10","29.69","10.00","56","200","32","20",,,,,,,,,,,,,,,,,,,,,,,,,,,,,,,,,,,,,"MET13210/16/20 09:53:02 METAR KSEA 161753Z 20017G28KT 10SM OVC010 15/12 A3016 RMK AO2 PK WND 20028/1751 SLP218 T01500117 10150 20122 56030","FM-15","7",,,,,,,,,,,,,,,,,,,,,,,,,,,"2007-05-17"
"72793024233","2020-10-16T10:00:00","FM-12","4",,,,,,,,,,,,,,,,,,,,,,,,,,,,,,,,,,,,,,,,"53","59",,,"+0.09","6","81","30.17","15","29.68","9.94","56","200",,"20",,,,,,,,,,,,,,,,,,,,,,,,,,,,,,,,,,,,,"SYN08672793 32466 82017 10150 20117 30050 40218 56030 91753 333 10150 20122 91028 555 91618=","FM-12","4",,,,,,,,,,,,,,,,,,,,,,,,,,,"2007-05-17"
"72793024233","2020-10-16T10:53:00","FM-15","7",,,,,,,,,,,,,,,,,,,,,,,,,,,,,,,,,,,,,,,"30.13","55","60","0.00",,,,"84","30.15","OVC:08 10","29.66","10.00","57","210","30","20",,,,,,,,,,,,,,,,,,,,,,,,,,,,,,,,,,,,,"MET11410/16/20 10:53:02 METAR KSEA 161853Z 21017G26KT 10SM OVC010 16/13 A3013 RMK AO2 PK WND 19034/1809 SLP209 T01560128","FM-15","7",,,,,,,,,,,,,,,,,,,,,,,,,,,"2007-05-17"
"72793024233","2020-10-16T11:53:00","FM-15","7",,,,,,,,,,,,,,,,,,,,,,,,,,,,,,,,,,,,,,,"30.11","55","61","0.00",,,,"81","30.13","BKN:07 11 BKN:07 200","29.64","10.00","58","200","33","25",,,,,,,,,,,,,,,,,,,,,,,,,,,,,,,,,,,,,"MET12110/16/20 11:53:02 METAR KSEA 161953Z 20022G29KT 10SM BKN011 BKN200 16/13 A3011 RMK AO2 PK WND 22035/1927 SLP202 T01610128","FM-15","7",,,,,,,,,,,,,,,,,,,,,,,,,,,"2007-05-17"
"72793024233","2020-10-16T12:53:00","FM-15","7",,,,,,,,,,,,,,,,,,,,,,,,,,,,,,,,,,,,,,,"30.08","55","61","0.00",,"+0.07","6","81","30.10","BKN:07 12","29.61","10.00","58","210","38","25",,,,,,,,,,,,,,,,,,,,,,,,,,,,,,,,,,,,,"MET12010/16/20 12:53:02 METAR KSEA 162053Z 21022G33KT 10SM BKN012 16/13 A3008 RMK AO2 PK WND 22035/2026 SLP194 T01610128 56024","FM-15","7",,,,,,,,,,,,,,,,,,,,,,,,,,,"2007-05-17"
"72793024233","2020-10-16T13:53:00","FM-15","7",,,,,,,,,,,,,,,,,,,,,,,,,,,,,,,,,,,,,,,"30.08","56","61","0.00",,,,"84","30.10","BKN:07 12 BKN:07 40","29.61","10.00","58","190","28","20",,,,,,,,,,,,,,,,,,,,,,,,,,,,,,,,,,,,,"MET12110/16/20 13:53:02 METAR KSEA 162153Z 19017G24KT 10SM BKN012 BKN040 16/13 A3008 RMK AO2 PK WND 20031/2054 SLP193 T01610133","FM-15","7",,,,,,,,,,,,,,,,,,,,,,,,,,,"2007-05-17"
"72793024233","2020-10-16T14:42:00","FM-16","7",,,,,,,,,,,,,,,,,,,,,,,,,,,,,,,,,,,,,,,"30.07","56","62",,,,,"80",,"BKN:07 15 BKN:07 40","29.60","10.00","59","210","33","22",,,,,,,,,,,,,,,,,,,,,,,,,,,,,,,,,,,,,"MET11410/16/20 14:42:02 SPECI KSEA 162242Z 21019G29KT 10SM BKN015 BKN040 17/13 A3007 RMK AO2 PK WND 21029/2235 T01670133","FM-16","7",,,,,,,,,,,,,,,,,,,,,,,,,,,"2007-05-17"
"72793024233","2020-10-16T14:53:00","FM-15","7",,,,,,,,,,,,,,,,,,,,,,,,,,,,,,,,,,,,,,,"30.08","56","62","0.00",,,,"80","30.09","BKN:07 16 BKN:07 40","29.61","10.00","59","200","23","14",,,,,,,,,,,,,,,,,,,,,,,,,,,,,,,,,,,,,"MET12110/16/20 14:53:02 METAR KSEA 162253Z 20012G20KT 10SM BKN016 BKN040 17/13 A3008 RMK AO2 PK WND 21029/2235 SLP190 T01670133","FM-15","7",,,,,,,,,,,,,,,,,,,,,,,,,,,"2007-05-17"
"72793024233","2020-10-16T15:53:00","FM-15","7",,,,,,,,,,,,,,,,,,,,,,,,,,,,,,,,,,,,,,,"30.05","56","61","0.00",,"+0.03","8","84","30.07","OVC:08 15","29.58","10.00","58","200","29","23",,,,,,,,,,,,,,,,,,,,,,,,,,,,,,,,,,,,,"MET11410/16/20 15:53:02 METAR KSEA 162353Z 20020G25KT 10SM OVC015 16/13 A3005 RMK AO2 SLP182 T01610133 10167 20150 58011","FM-15","7",,,,,,,,,,,,,,,,,,,,,,,,,,,"2007-05-17"
"72793024233","2020-10-16T16:00:00","FM-12","4",,,,,,,,,,,,,,,,,,,,,,,,,,,,,,,,,,,,,,,,"56","61",,,"+0.03","8","84","30.07","15","29.57","9.94","58","200",,"23",,,,,,,,,,,,,,,,,,,,,,,,,,,,,,,,,,,,,"SYN08672793 32466 82020 10161 20133 30013 40182 58011 92353 333 10167 20106 91025 555 91700=","FM-12","4",,,,,,,,,,,,,,,,,,,,,,,,,,,"2007-05-17"
"72793024233","2020-10-16T16:09:00","FM-16","7",,,,,,,,,,,,,,,,,,,,,,,,,,,,,,,,,,,,,,,"30.05","56","61",,,,,"84",,"OVC:08 12","29.58","10.00","58","210","30","21",,,,,,,,,,,,,,,,,,,,,,,,,,,,,,,,,,,,,"MET10710/16/20 16:09:01 SPECI KSEA 170009Z 21018G26KT 10SM OVC012 16/13 A3005 RMK AO2 PK WND 21027/2355 T01610133","FM-16","7",,,,,,,,,,,,,,,,,,,,,,,,,,,"2007-05-17"
"72793024233","2020-10-16T16:53:00","FM-15","7",,,,,,,,,,,,,,,,,,,,,,,,,,,,,,,,,,,,,,,"30.06","56","61","0.00",,,,"84","30.08","OVC:08 10","29.59","10.00","58","210","21","11",,,,,,,,,,,,,,,,,,,,,,,,,,,,,,,,,,,,,"MET11410/16/20 16:53:01 METAR KSEA 170053Z 21010G18KT 10SM OVC010 16/13 A3006 RMK AO2 PK WND 20029/0013 SLP185 T01610133","FM-15","7",,,,,,,,,,,,,,,,,,,,,,,,,,,"2007-05-17"
"72793024233","2020-10-16T17:21:00","FM-16","7",,,,,,,,,,,,,,,,,,,,,,,,,,,,,,,,,,,,,,,"30.05","57","61",,,,,"87",,"OVC:08 9","29.58","10.00","59","200","25","21",,,,,,,,,,,,,,,,,,,,,,,,,,,,,,,,,,,,,"MET08910/16/20 17:21:01 SPECI KSEA 170121Z 20018G22KT 10SM OVC009 16/14 A3005 RMK AO2 T01610139","FM-16","7",,,,,,,,,,,,,,,,,,,,,,,,,,,"2007-05-17"
"72793024233","2020-10-16T17:53:00","FM-15","7",,,,,,,,,,,,,,,,,,,,,,,,,,,,,,,,,,,,,,,"30.06","57","61","0.00",,,,"87","30.08","OVC:08 9","29.59","10.00","59","220","25","17",,,,,,,,,,,,,,,,,,,,,,,,,,,,,,,,,,,,,"MET09610/16/20 17:53:01 METAR KSEA 170153Z 22015G22KT 10SM OVC009 16/14 A3006 RMK AO2 SLP185 T01610139","FM-15","7",,,,,,,,,,,,,,,,,,,,,,,,,,,"2007-05-17"
"72793024233","2020-10-16T18:53:00","FM-15","7",,,,,,,,,,,,,,,,,,,,,,,,,,,,,,,,,,,,,,,"30.06","57","61","0.00",,"-0.01","1","87","30.08","OVC:08 9","29.59","10.00","59","220",,"10",,,,,,,,,,,,,,,,,,,,,,,,,,,,,,,,,,,,,"MET09910/16/20 18:53:01 METAR KSEA 170253Z 22009KT 10SM OVC009 16/14 A3006 RMK AO2 SLP185 T01610139 51004","FM-15","7",,,,,,,,,,,,,,,,,,,,,,,,,,,"2007-05-17"
"72793024233","2020-10-16T19:53:00","FM-15","7",,,,,,,,,,,,,,,,,,,,,,,,,,,,,,,,,,,,,,,"30.07","57","60","0.00",,,,"90","30.08","OVC:08 9","29.60","10.00","58","210",,"9",,,,,,,,,,,,,,,,,,,,,,,,,,,,,,,,,,,,,"MET09310/16/20 19:53:01 METAR KSEA 170353Z 21008KT 10SM OVC009 16/14 A3007 RMK AO2 SLP187 T01560139","FM-15","7",,,,,,,,,,,,,,,,,,,,,,,,,,,"2007-05-17"
"72793024233","2020-10-16T20:53:00","FM-15","7",,,,,,,,,,,,,,,,,,,,,,,,,,,,,,,,,,,,,,,"30.06","56","60","T",,,,"86","30.08","OVC:08 10","29.59","10.00","58","200",,"10",,,,,,,,,,,,,,,,,,,,,,,,,,,,,,,,,,,,,"MET10810/16/20 20:53:01 METAR KSEA 170453Z 20009KT 10SM OVC010 16/13 A3006 RMK AO2 RAB03E13 SLP185 P0000 T01560133","FM-15","7",,,,,,,,,,,,,,,,,,,,,,,,,,,"2007-05-17"
"72793024233","2020-10-16T21:53:00","FM-15","7",,,,,,,,,,,,,,,,,,,,,,,,,,,,,,,,,,,,,,,"30.05","55","59","0.00",,"+0.01","8","87","30.07","OVC:08 11","29.58","10.00","57","220",,"11",,,,,,,,,,,,,,,,,,,,,,,,,,,,,,,,,,,,,"MET11710/16/20 21:53:01 METAR KSEA 170553Z 22010KT 10SM OVC011 15/13 A3005 RMK AO2 SLP183 60000 T01500128 10161 20150 58003","FM-15","7",,,,,,,,,,,,,,,,,,,,,,,,,,,"2007-05-17"
"72793024233","2020-10-16T22:00:00","FM-12","4",,,,,,,,,,,,,,,,,,,,,,,,,,,,,,,,,,,,,,,,"55","59",,,"+0.01","8","87","30.07","15","29.57","9.94","57","220",,"11",,,,,,,,,,,,,,,,,,,,,,,,,,,,,,,,,,,,,"SYN08672793 12466 82210 10150 20128 30013 40183 58003 69901 90553 333 10161 20106 555 91706=","FM-12","4",,,,,,,,,,,,,,,,,,,,,,,,,,,"2007-05-17"
"72793024233","2020-10-16T22:24:00","FM-16","7",,,,,,,,,,,,,,,,,,,,,,,,,,,,,,,,,,,,,,,"30.06","55","59","T","-RA:02 BR:1 |RA |RA",,,"87",,"OVC:08 9","29.59","3.00","57","210",,"10",,,,,,,,,,,,,,,,,,,,,,,,,,,,,,,,,,,,,"MET10410/16/20 22:24:01 SPECI KSEA 170624Z 21009KT 3SM -RA BR OVC009 15/13 A3006 RMK AO2 RAB16 P0000 T01500128","FM-16","7",,,,,,,,,,,,,,,,,,,,,,,,,,,"2007-05-17"
"72793024233","2020-10-16T22:26:00","FM-16","7",,,,,,,,,,,,,,,,,,,,,,,,,,,,,,,,,,,,,,,"30.06","55","59","T","-RA:02 BR:1 |RA |RA",,,"87",,"OVC:08 9","29.59","6.00","57","210",,"10",,,,,,,,,,,,,,,,,,,,,,,,,,,,,,,,,,,,,"MET10410/16/20 22:26:01 SPECI KSEA 170626Z 21009KT 6SM -RA BR OVC009 15/13 A3006 RMK AO2 RAB16 P0000 T01500128","FM-16","7",,,,,,,,,,,,,,,,,,,,,,,,,,,"2007-05-17"
"72793024233","2020-10-16T22:53:00","FM-15","7",,,,,,,,,,,,,,,,,,,,,,,,,,,,,,,,,,,,,,,"30.07","55","58","T","-RA:02 BR:1 |RA |RA",,,"90","30.09","OVC:08 9","29.60","6.00","56","210",,"10",,,,,,,,,,,,,,,,,,,,,,,,,,,,,,,,,,,,,"MET11110/16/20 22:53:01 METAR KSEA 170653Z 21009KT 6SM -RA BR OVC009 14/13 A3007 RMK AO2 RAB16 SLP188 P0000 T01440128","FM-15","7",,,,,,,,,,,,,,,,,,,,,,,,,,,"2007-05-17"
"72793024233","2020-10-16T23:08:00","FM-16","7",,,,,,,,,,,,,,,,,,,,,,,,,,,,,,,,,,,,,,,"30.08","55","58","0.01","-RA:02 BR:1 |RA |RA",,,"90",,"OVC:08 9","29.61","2.50","56","220",,"6",,,,,,,,,,,,,,,,,,,,,,,,,,,,,,,,,,,,,"MET10210/16/20 23:08:01 SPECI KSEA 170708Z 22005KT 2 1/2SM -RA BR OVC009 14/13 A3008 RMK AO2 P0001 T01440128","FM-16","7",,,,,,,,,,,,,,,,,,,,,,,,,,,"2007-05-17"
"72793024233","2020-10-16T23:41:00","FM-16","7",,,,,,,,,,,,,,,,,,,,,,,,,,,,,,,,,,,,,,,"30.10","54","56","0.06","-RA:02 BR:1 |RA |RA",,,"93",,"SCT:04 6 OVC:08 12","29.63","2.00","55","230",,"9",,,,,,,,,,,,,,,,,,,,,,,,,,,,,,,,,,,,,"MET10510/16/20 23:41:01 SPECI KSEA 170741Z 23008KT 2SM -RA BR SCT006 OVC012 13/12 A3010 RMK AO2 P0006 T01330122","FM-16","7",,,,,,,,,,,,,,,,,,,,,,,,,,,"2007-05-17"
"72793024233","2020-10-16T23:53:00","FM-15","7",,,,,,,,,,,,,,,,,,,,,,,,,,,,,,,,,,,,,,,"30.09","54","56","0.07","-RA:02 BR:1 |RA |RA",,,"93","30.10","SCT:04 6 OVC:08 12","29.62","2.00","55","230",,"10",,,,,,,,,,,,,,,,,,,,,,,,,,,,,,,,,,,,,"MET12210/16/20 23:53:01 METAR KSEA 170753Z 23009KT 2SM -RA BR SCT006 OVC012 13/12 A3009 RMK AO2 SLP194 P0006 T01330122 401670106","FM-15","7",,,,,,,,,,,,,,,,,,,,,,,,,,,"2007-05-17"
"72793024233","2020-10-16T23:59:00","SOD  ","6",,,,,,,,,,,,,,,,,"52","57","82","30.18","29.67","55","13.7","0","4.4","8","62","51","220","40","0.07","0","0.0","210","29","RA BR",,,,,,,,,,,,,,,,,,,,,,,,,,,,,,,,,,,,,,,,,,,,,,,,,,,,,,,"SOD72024 HR PRECIPITATION (IN): 0.07 SNOW DEPTH (IN):0     24 HR SNOWFALL (IN):0.0  WEATHER(CODE):1  24 HR MAX TEMP (F): 6224 HR MIN TEMP (F): 51AVERAGE STATION PRESSURE(D):29.677 MINIMUM SEA LEVEL PRESSURE:30.06 TIME OF OCCURRENCE:2135 PEAK WIND SPEED (MPH): 40 PEAK WIND DIR (DEG):220 PEAK WIND TIME (LST):      FASTEST 2MIN SPEED (MPH): 29FASTEST 2MIN DIR (DEG):210 FASTEST 2MIN TIME (LST):     AVERAGE WIND SPEED (MPH):13.7 24 HR AVG TEMP (F): 57DEPART FROM NORMAL:  4  HEATING DEGREE DAYS:  8 COOLING DEGREE DAYS:  0 LATEST DAY MAX TEMP (0700-1900 LST): 62 HOURLY INCREMENTAL PRECIPITATION VALUES (IN):0.00 0.00 0.00 0.00 0.00 0.00 0.00 0.00 0.00 0.00 0.00 0.00 0.00 0.00 0.00 0.00 0.00 0.00 0.00 0.00T     0.00T     0.07","SOD  ","6",,,,,,,,,,,,,,,,,,,,,,,,,"0631","1718","2007-05-17"
"72793024233","2020-10-17T00:53:00","FM-15","7",,,,,,,,,,,,,,,,,,,,,,,,,,,,,,,,,,,,,,,"30.11","52","54","0.01","-RA:02 BR:1 |RA |RA","-0.05","3","93","30.12","FEW:02 5 OVC:08 12","29.64","2.00","53","240",,"10",,,,,,,,,,,,,,,,,,,,,,,,,,,,,,,,,,,,,"MET13810/17/20 00:53:02 METAR KSEA 170853Z 24009KT 2SM -RA BR FEW005 OVC012 12/11 A3011 RMK AO2 RAE12B40 SLP200 P0002 60008 T01220111 53017 (LC)","FM-15","7",,,,,,,,,,,,,,,,,,,,,,,,,,,"2007-05-17"
"72793024233","2020-10-17T01:20:00","FM-16","7",,,,,,,,,,,,,,,,,,,,,,,,,,,,,,,,,,,,,,,"30.11","52","54","T","-RA:02 BR:1 |RA |RA",,,"93",,"FEW:02 8 OVC:08 15","29.64","4.00","53","240",,"7",,,,,,,,,,,,,,,,,,,,,,,,,,,,,,,,,,,,,"MET11010/17/20 01:20:02 SPECI KSEA 170920Z 24006KT 4SM -RA BR FEW008 OVC015 12/11 A3011 RMK AO2 P0000 T01220111 (LC)","FM-16","7",,,,,,,,,,,,,,,,,,,,,,,,,,,"2007-05-17"
"72793024233","2020-10-17T01:42:00","FM-16","7",,,,,,,,,,,,,,,,,,,,,,,,,,,,,,,,,,,,,,,"30.13","52","54","T","-RA:02 BR:1 |RA |RA",,,"93",,"BKN:07 5 OVC:08 15","29.66","3.00","53","240",,"5",,,,,,,,,,,,,,,,,,,,,,,,,,,,,,,,,,,,,"MET11010/17/20 01:42:02 SPECI KSEA 170942Z 24004KT 3SM -RA BR BKN005 OVC015 12/11 A3013 RMK AO2 P0000 T01220111 (LC)","FM-16","7",,,,,,,,,,,,,,,,,,,,,,,,,,,"2007-05-17"
"72793024233","2020-10-17T01:53:00","FM-15","7",,,,,,,,,,,,,,,,,,,,,,,,,,,,,,,,,,,,,,,"30.13","52","54","0.01","-RA:02 BR:1 |RA |RA",,,"93","30.15","BKN:07 5 BKN:07 9 OVC:08 15","29.66","3.00","53","240",,"7",,,,,,,,,,,,,,,,,,,,,,,,,,,,,,,,,,,,,"MET12410/17/20 01:53:02 METAR KSEA 170953Z 24006KT 3SM -RA BR BKN005 BKN009 OVC015 12/11 A3013 RMK AO2 SLP209 P0001 T01220111 (LC)","FM-15","7",,,,,,,,,,,,,,,,,,,,,,,,,,,"2007-05-17"
"72793024233","2020-10-17T02:01:00","FM-16","7",,,,,,,,,,,,,,,,,,,,,,,,,,,,,,,,,,,,,,,"30.14","52","54","T","-RA:02 BR:1 |RA |RA",,,"93",,"BKN:07 5 OVC:08 9","29.67","1.50","53","220",,"8",,,,,,,,,,,,,,,,,,,,,,,,,,,,,,,,,,,,,"MET11410/17/20 02:01:02 SPECI KSEA 171001Z 22007KT 1 1/2SM -RA BR BKN005 OVC009 12/11 A3014 RMK AO2 P0000 T01220111 (LC)","FM-16","7",,,,,,,,,,,,,,,,,,,,,,,,,,,"2007-05-17"
"72793024233","2020-10-17T02:34:00","FM-16","7",,,,,,,,,,,,,,,,,,,,,,,,,,,,,,,,,,,,,,,"30.13","51","53","0.01","-RA:02 BR:1 |RA |RA",,,"93",,"OVC:08 5","29.66","1.00","52","210",,"9",,,,,,,,,,,,,,,,,,,,,,,,,,,,,,,,,,,,,"MET11610/17/20 02:34:02 SPECI KSEA 171034Z 21008KT 1SM R16L/P6000FT -RA BR OVC005 12/11 A3013 RMK AO2 P0001 T01170106 (LC)","FM-16","7",,,,,,,,,,,,,,,,,,,,,,,,,,,"2007-05-17"
"72793024233","2020-10-17T02:53:00","FM-15","7",,,,,,,,,,,,,,,,,,,,,,,,,,,,,,,,,,,,,,,"30.14","51","52","0.01","-RA:02 BR:1 |RA |RA",,,"97","30.16","BKN:07 5 OVC:08 11","29.67","1.00","51","210",,"9",,,,,,,,,,,,,,,,,,,,,,,,,,,,,,,,,,,,,"MET13010/17/20 02:53:02 METAR KSEA 171053Z 21008KT 1SM R16L/P6000FT -RA BR BKN005 OVC011 11/11 A3014 RMK AO2 SLP212 P0001 T01110106 (LC)","FM-15","7",,,,,,,,,,,,,,,,,,,,,,,,,,,"2007-05-17"
"72793024233","2020-10-17T03:33:00","FM-16","7",,,,,,,,,,,,,,,,,,,,,,,,,,,,,,,,,,,,,,,"30.14","50","52","T","BR:1 ||",,,"93",,"BKN:07 8 OVC:08 11","29.67","3.00","51","210",,"9",,,,,,,,,,,,,,,,,,,,,,,,,,,,,,,,,,,,,"MET11210/17/20 03:33:02 SPECI KSEA 171133Z 21008KT 3SM BR BKN008 OVC011 11/10 A3014 RMK AO2 RAE18 P0000 T01110100 (LC)","FM-16","7",,,,,,,,,,,,,,,,,,,,,,,,,,,"2007-05-17"
"72793024233","2020-10-17T03:42:00","FM-16","7",,,,,,,,,,,,,,,,,,,,,,,,,,,,,,,,,,,,,,,"30.13","50","52","T","BR:1 ||",,,"93",,"OVC:08 10","29.66","3.00","51","210",,"10",,,,,,,,,,,,,,,,,,,,,,,,,,,,,,,,,,,,,"MET10510/17/20 03:42:02 SPECI KSEA 171142Z 21009KT 3SM BR OVC010 11/10 A3013 RMK AO2 RAE18 P0000 T01110100 (LC)","FM-16","7",,,,,,,,,,,,,,,,,,,,,,,,,,,"2007-05-17"
"72793024233","2020-10-17T03:53:00","FM-15","7",,,,,,,,,,,,,,,,,,,,,,,,,,,,,,,,,,,,,,,"30.13","50","52","T","BR:1 ||","-0.03","0","93","30.15","OVC:08 10","29.66","3.00","51","210",,"9",,,,,,,,,,,,,,,,,,,,,,,,,,,,,,,,,,,,,"MET14210/17/20 03:53:02 METAR KSEA 171153Z 21008KT 3SM BR OVC010 11/10 A3013 RMK AO2 RAE18 SLP210 P0000 60010 70010 T01110100 10150 20111 50009 (LC)","FM-15","7",,,,,,,,,,,,,,,,,,,,,,,,,,,"2007-05-17"
"72793024233","2020-10-17T04:53:00","FM-15","7",,,,,,,,,,,,,,,,,,,,,,,,,,,,,,,,,,,,,,,"30.14","49","53","0.00",,,,"86","30.16","OVC:08 12","29.67","10.00","51","210",,"8",,,,,,,,,,,,,,,,,,,,,,,,,,,,,,,,,,,,,"MET09810/17/20 04:53:02 METAR KSEA 171253Z 21007KT 10SM OVC012 12/09 A3014 RMK AO2 SLP214 T01170094 (LZ)","FM-15","7",,,,,,,,,,,,,,,,,,,,,,,,,,,"2007-05-17"
"72793024233","2020-10-17T05:53:00","FM-15","7",,,,,,,,,,,,,,,,,,,,,,,,,,,,,,,,,,,,,,,"30.15","49","52","0.00","BR:1 ||",,,"89","30.17","OVC:08 12","29.68","6.00","50","190",,"9",,,,,,,,,,,,,,,,,,,,,,,,,,,,,,,,,,,,,"MET10010/17/20 05:53:02 METAR KSEA 171353Z 19008KT 6SM BR OVC012 11/09 A3015 RMK AO2 SLP217 T01110094 (LZ)","FM-15","7",,,,,,,,,,,,,,,,,,,,,,,,,,,"2007-05-17"
"72793024233","2020-10-17T06:12:00","FM-16","7",,,,,,,,,,,,,,,,,,,,,,,,,,,,,,,,,,,,,,,"30.16","50","51",,"BR:1 ||",,,"96",,"FEW:02 5 OVC:08 13","29.69","4.00","50","180",,"7",,,,,,,,,,,,,,,,,,,,,,,,,,,,,,,,,,,,,"MET10010/17/20 06:12:02 SPECI KSEA 171412Z 18006KT 4SM BR FEW005 OVC013 11/10 A3016 RMK AO2 T01060100 (LZ)","FM-16","7",,,,,,,,,,,,,,,,,,,,,,,,,,,"2007-05-17"
"72793024233","2020-10-17T06:46:00","FM-16","7",,,,,,,,,,,,,,,,,,,,,,,,,,,,,,,,,,,,,,,"30.16","50","51",,"BR:1 ||",,,"96",,"BKN:07 8 OVC:08 14","29.69","2.50","50","160",,"8",,,,,,,,,,,,,,,,,,,,,,,,,,,,,,,,,,,,,"MET10410/17/20 06:46:02 SPECI KSEA 171446Z 16007KT 2 1/2SM BR BKN008 OVC014 11/10 A3016 RMK AO2 T01060100 (LZ)","FM-16","7",,,,,,,,,,,,,,,,,,,,,,,,,,,"2007-05-17"
"72793024233","2020-10-17T06:53:00","FM-15","7",,,,,,,,,,,,,,,,,,,,,,,,,,,,,,,,,,,,,,,"30.15","50","51","0.00","BR:1 ||","-0.02","1","96","30.17","BKN:07 8 OVC:08 14","29.68","2.50","50","160",,"9",,,,,,,,,,,,,,,,,,,,,,,,,,,,,,,,,,,,,"MET11710/17/20 06:53:02 METAR KSEA 171453Z 16008KT 2 1/2SM BR BKN008 OVC014 11/10 A3015 RMK AO2 SLP218 T01060100 51007 (LZ)","FM-15","7",,,,,,,,,,,,,,,,,,,,,,,,,,,"2007-05-17"
"72793024233","2020-10-17T07:53:00","FM-15","7",,,,,,,,,,,,,,,,,,,,,,,,,,,,,,,,,,,,,,,"30.17","50","51","0.00","BR:1 ||",,,"96","30.19","BKN:07 6 OVC:08 15","29.70","2.00","50","160",,"9",,,,,,,,,,,,,,,,,,,,,,,,,,,,,,,,,,,,,"MET10710/17/20 07:53:02 METAR KSEA 171553Z 16008KT 2SM BR BKN006 OVC015 11/10 A3017 RMK AO2 SLP224 T01060100 (LZ)","FM-15","7",,,,,,,,,,,,,,,,,,,,,,,,,,,"2007-05-17"
"72793024233","2020-10-17T08:53:00","FM-15","7",,,,,,,,,,,,,,,,,,,,,,,,,,,,,,,,,,,,,,,"30.19","50","52","0.00","BR:1 ||",,,"93","30.21","SCT:04 5 BKN:07 8 OVC:08 17","29.72","4.00","51","180",,"7",,,,,,,,,,,,,,,,,,,,,,,,,,,,,,,,,,,,,"MET13210/17/20 08:53:02 METAR KSEA 171653Z 18006KT 4SM R16L/4500VP6000FT BR SCT005 BKN008 OVC017 11/10 A3019 RMK AO2 SLP229 T01110100 (LZ)","FM-15","7",,,,,,,,,,,,,,,,,,,,,,,,,,,"2007-05-17"
"72793024233","2020-10-17T09:37:00","FM-16","7",,,,,,,,,,,,,,,,,,,,,,,,,,,,,,,,,,,,,,,"30.19","50","53",,,,,"89",,"SCT:04 7 OVC:08 15","29.72","9.00","51","180",,"9",,,,,,,,,,,,,,,,,,,,,,,,,,,,,,,,,,,,,"MET09710/17/20 09:37:02 SPECI KSEA 171737Z 18008KT 9SM SCT007 OVC015 12/10 A3019 RMK AO2 T01170100 (LZ)","FM-16","7",,,,,,,,,,,,,,,,,,,,,,,,,,,"2007-05-17"
"72793024233","2020-10-17T09:53:00","FM-15","7",,,,,,,,,,,,,,,,,,,,,,,,,,,,,,,,,,,,,,,"30.20","50","54","0.00",,"-0.04","1","87","30.22","SCT:04 7 BKN:07 17 OVC:08 21","29.73","10.00","52","200",,"9",,,,,,,,,,,,,,,,,,,,,,,,,,,,,,,,,,,,,"MET13010/17/20 09:53:02 METAR KSEA 171753Z 20008KT 10SM SCT007 BKN017 OVC021 12/10 A3020 RMK AO2 SLP232 T01220100 10122 20106 51014 (LZ)","FM-15","7",,,,,,,,,,,,,,,,,,,,,,,,,,,"2007-05-17"
"72793024233","2020-10-17T10:00:00","FM-12","4",,,,,,,,,,,,,,,,,,,,,,,,,,,,,,,,,,,,,,,,"50","54",,,"-0.04","1","87","30.22","8","29.72","9.94","52","200",,"9",,,,,,,,,,,,,,,,,,,,,,,,,,,,,,,,,,,,,"SYN07472793 32366 82008 10122 20100 30063 40232 51014 91753 333 20106 555 91718=","FM-12","4",,,,,,,,,,,,,,,,,,,,,,,,,,,"2007-05-17"
"72793024233","2020-10-17T10:53:00","FM-15","7",,,,,,,,,,,,,,,,,,,,,,,,,,,,,,,,,,,,,,,"30.20","48","55","0.00",,,,"77","30.22","OVC:08 20","29.73","10.00","51","200",,"9",,,,,,,,,,,,,,,,,,,,,,,,,,,,,,,,,,,,,"MET09810/17/20 10:53:02 METAR KSEA 171853Z 20008KT 10SM OVC020 13/09 A3020 RMK AO2 SLP234 T01280089 (LZ)","FM-15","7",,,,,,,,,,,,,,,,,,,,,,,,,,,"2007-05-17"
"72793024233","2020-10-17T11:53:00","FM-15","7",,,,,,,,,,,,,,,,,,,,,,,,,,,,,,,,,,,,,,,"30.20","47","55","0.00",,,,"74","30.22","OVC:08 24","29.73","10.00","51","220",,"10",,,,,,,,,,,,,,,,,,,,,,,,,,,,,,,,,,,,,"MET09810/17/20 11:53:02 METAR KSEA 171953Z 22009KT 10SM OVC024 13/08 A3020 RMK AO2 SLP233 T01280083 (LZ)","FM-15","7",,,,,,,,,,,,,,,,,,,,,,,,,,,"2007-05-17"
"72793024233","2020-10-17T12:44:00","FM-16","7",,,,,,,,,,,,,,,,,,,,,,,,,,,,,,,,,,,,,,,"30.20","47","57",,,,,"69",,"BKN:07 30 BKN:07 40 OVC:08 160","29.73","10.00","52","220",,"8",,,,,,,,,,,,,,,,,,,,,,,,,,,,,,,,,,,,,"MET10510/17/20 12:44:02 SPECI KSEA 172044Z 22007KT 10SM BKN030 BKN040 OVC160 14/08 A3020 RMK AO2 T01390083 (LZ)","FM-16","7",,,,,,,,,,,,,,,,,,,,,,,,,,,"2007-05-17"
"72793024233","2020-10-17T12:53:00","FM-15","7",,,,,,,,,,,,,,,,,,,,,,,,,,,,,,,,,,,,,,,"30.19","47","57","0.00",,"+0.00","8","69","30.21","BKN:07 30 BKN:07 40 OVC:08 160","29.72","10.00","52","230",,"10",,,,,,,,,,,,,,,,,,,,,,,,,,,,,,,,,,,,,"MET11810/17/20 12:53:02 METAR KSEA 172053Z 23009KT 10SM BKN030 BKN040 OVC160 14/08 A3019 RMK AO2 SLP231 T01390083 58001 (LZ)","FM-15","7",,,,,,,,,,,,,,,,,,,,,,,,,,,"2007-05-17"
"72793024233","2020-10-17T13:53:00","FM-15","7",,,,,,,,,,,,,,,,,,,,,,,,,,,,,,,,,,,,,,,"30.20","47","57","0.00",,,,"69","30.22","SCT:04 31 OVC:08 100","29.73","10.00","52","190",,"6",,,,,,,,,,,,,,,,,,,,,,,,,,,,,,,,,,,,,"MET10510/17/20 13:53:02 METAR KSEA 172153Z 19005KT 10SM SCT031 OVC100 14/08 A3020 RMK AO2 SLP232 T01390083 (TL)","FM-15","7",,,,,,,,,,,,,,,,,,,,,,,,,,,"2007-05-17"
"72793024233","2020-10-17T14:53:00","FM-15","7",,,,,,,,,,,,,,,,,,,,,,,,,,,,,,,,,,,,,,,"30.19","47","57","0.00",,,,"69","30.21","BKN:07 38 OVC:08 100","29.72","10.00","52","140",,"6",,,,,,,,,,,,,,,,,,,,,,,,,,,,,,,,,,,,,"MET10510/17/20 14:53:02 METAR KSEA 172253Z 14005KT 10SM BKN038 OVC100 14/08 A3019 RMK AO2 SLP229 T01390083 (TL)","FM-15","7",,,,,,,,,,,,,,,,,,,,,,,,,,,"2007-05-17"
"72793024233","2020-10-17T15:53:00","FM-15","7",,,,,,,,,,,,,,,,,,,,,,,,,,,,,,,,,,,,,,,"30.18","46","57","0.00",,"+0.01","8","67","30.20","FEW:02 39 OVC:08 85","29.71","10.00","51","130",,"6",,,,,,,,,,,,,,,,,,,,,,,,,,,,,,,,,,,,,"MET12310/17/20 15:53:02 METAR KSEA 172353Z 13005KT 10SM FEW039 OVC085 14/08 A3018 RMK AO2 SLP227 T01390078 10139 20117 58004 (TL)","FM-15","7",,,,,,,,,,,,,,,,,,,,,,,,,,,"2007-05-17"
"72793024233","2020-10-17T16:00:00","FM-12","4",,,,,,,,,,,,,,,,,,,,,,,,,,,,,,,,,,,,,,,,"46","57",,,"+0.01","8","67","30.20","41","29.70","9.94","51","130",,"6",,,,,,,,,,,,,,,,,,,,,,,,,,,,,,,,,,,,,"SYN08072793 32666 81305 10139 20078 30056 40227 58004 92353 333 10139 20106 555 91800=","FM-12","4",,,,,,,,,,,,,,,,,,,,,,,,,,,"2007-05-17"
"72793024233","2020-10-17T16:53:00","FM-15","7",,,,,,,,,,,,,,,,,,,,,,,,,,,,,,,,,,,,,,,"30.18","48","56","T","-RA:02 |RA |RA",,,"75","30.19","FEW:02 39 OVC:08 100","29.71","10.00","52","190",,"5",,,,,,,,,,,,,,,,,,,,,,,,,,,,,,,,,,,,,"MET11610/17/20 16:53:01 METAR KSEA 180053Z 19004KT 10SM -RA FEW039 OVC100 13/09 A3018 RMK AO2 RAB49 SLP225 P0000 T01330089","FM-15","7",,,,,,,,,,,,,,,,,,,,,,,,,,,"2007-05-17"
"72793024233","2020-10-17T17:53:00","FM-15","7",,,,,,,,,,,,,,,,,,,,,,,,,,,,,,,,,,,,,,,"30.17","48","56","T",,,,"75","30.19","SCT:04 38 BKN:07 75 OVC:08 100","29.70","10.00","52","000",,"0",,,,,,,,,,,,,,,,,,,,,,,,,,,,,,,,,,,,,"MET11910/17/20 17:53:01 METAR KSEA 180153Z 00000KT 10SM SCT038 BKN075 OVC100 13/09 A3017 RMK AO2 RAE28 SLP224 P0000 T01330089","FM-15","7",,,,,,,,,,,,,,,,,,,,,,,,,,,"2007-05-17"
"72793024233","2020-10-17T18:53:00","FM-15","7",,,,,,,,,,,,,,,,,,,,,,,,,,,,,,,,,,,,,,,"30.17","47","55","0.00",,"+0.01","5","74","30.19","OVC:08 36","29.70","10.00","51","210",,"6",,,,,,,,,,,,,,,,,,,,,,,,,,,,,,,,,,,,,"MET10510/17/20 18:53:01 METAR KSEA 180253Z 21005KT 10SM OVC036 13/08 A3017 RMK AO2 SLP224 60000 T01280083 55002","FM-15","7",,,,,,,,,,,,,,,,,,,,,,,,,,,"2007-05-17"
"72793024233","2020-10-17T19:53:00","FM-15","7",,,,,,,,,,,,,,,,,,,,,,,,,,,,,,,,,,,,,,,"30.16","47","55","0.00",,,,"74","30.18","SCT:04 21 OVC:08 65","29.69","10.00","51","210",,"7",,,,,,,,,,,,,,,,,,,,,,,,,,,,,,,,,,,,,"MET10010/17/20 19:53:01 METAR KSEA 180353Z 21006KT 10SM SCT021 OVC065 13/08 A3016 RMK AO2 SLP219 T01280083","FM-15","7",,,,,,,,,,,,,,,,,,,,,,,,,,,"2007-05-17"
"72793024233","2020-10-17T20:53:00","FM-15","7",,,,,,,,,,,,,,,,,,,,,,,,,,,,,,,,,,,,,,,"30.14","47","54","0.00",,,,"77","30.16","FEW:02 43 OVC:08 60","29.67","10.00","50","180",,"10",,,,,,,,,,,,,,,,,,,,,,,,,,,,,,,,,,,,,"MET10010/17/20 20:53:01 METAR KSEA 180453Z 18009KT 10SM FEW043 OVC060 12/08 A3014 RMK AO2 SLP212 T01220083","FM-15","7",,,,,,,,,,,,,,,,,,,,,,,,,,,"2007-05-17"
"72793024233","2020-10-17T21:53:00","FM-15","7",,,,,,,,,,,,,,,,,,,,,,,,,,,,,,,,,,,,,,,"30.11","47","54","0.00",,"+0.06","8","77","30.13","SCT:04 24 BKN:07 60 OVC:08 100","29.64","10.00","50","200",,"8",,,,,,,,,,,,,,,,,,,,,,,,,,,,,,,,,,,,,"MET13110/17/20 21:53:01 METAR KSEA 180553Z 20007KT 10SM SCT024 BKN060 OVC100 12/08 A3011 RMK AO2 SLP203 60000 T01220083 10139 20122 58021","FM-15","7",,,,,,,,,,,,,,,,,,,,,,,,,,,"2007-05-17"
"72793024233","2020-10-17T22:00:00","FM-12","4",,,,,,,,,,,,,,,,,,,,,,,,,,,,,,,,,,,,,,,,"47","54",,,"+0.06","8","77","30.13","26","29.63","9.94","50","200",,"8",,,,,,,,,,,,,,,,,,,,,,,,,,,,,,,,,,,,,"SYN08672793 12566 82007 10122 20083 30033 40203 58021 69901 90553 333 10139 20106 555 91806=","FM-12","4",,,,,,,,,,,,,,,,,,,,,,,,,,,"2007-05-17"
"72793024233","2020-10-17T22:53:00","FM-15","7",,,,,,,,,,,,,,,,,,,,,,,,,,,,,,,,,,,,,,,"30.12","47","54","0.00",,,,"77","30.14","FEW:02 21 BKN:07 55 OVC:08 75","29.65","10.00","50","220",,"10",,,,,,,,,,,,,,,,,,,,,,,,,,,,,,,,,,,,,"MET10710/17/20 22:53:01 METAR KSEA 180653Z 22009KT 10SM FEW021 BKN055 OVC075 12/08 A3012 RMK AO2 SLP206 T01220083","FM-15","7",,,,,,,,,,,,,,,,,,,,,,,,,,,"2007-05-17"
"72793024233","2020-10-17T23:53:00","FM-15","7",,,,,,,,,,,,,,,,,,,,,,,,,,,,,,,,,,,,,,,"30.10","48","53","0.00",,,,"83","30.12","OVC:08 60","29.63","10.00","50","180",,"8",,,,,,,,,,,,,,,,,,,,,,,,,,,,,,,,,,,,,"MET10310/17/20 23:53:01 METAR KSEA 180753Z 18007KT 10SM OVC060 12/09 A3010 RMK AO2 SLP200 T01170089 401390106","FM-15","7",,,,,,,,,,,,,,,,,,,,,,,,,,,"2007-05-17"
"72793024233","2020-10-17T23:59:00","SOD  ","6",,,,,,,,,,,,,,,,,"49","54","81","30.18","29.68","51","7.9","0","1.7","11","57","51","220","18","0.03","0","0.0","240","14","RA BR",,,,,,,,,,,,,,,,,,,,,,,,,,,,,,,,,,,,,,,,,,,,,,,,,,,,,,,"SOD78324 HR PRECIPITATION (IN): 0.03 SNOW DEPTH (IN):0     24 HR SNOWFALL (IN):0.0  WEATHER(CODE):1  24 HR MAX TEMP (F): 5724 HR MIN TEMP (F): 51AVERAGE STATION PRESSURE:29.680 MINIMUM SEA LEVEL PRESSURE:30.10 TIME OF OCCURRENCE:0016 PEAK WIND SPEED (MPH): 18 PEAK WIND DIR (DEG):220 PEAK WIND TIME (LST):      FASTEST 2MIN SPEED (MPH): 14FASTEST 2MIN DIR (DEG):240 FASTEST 2MIN TIME (LST):     AVERAGE WIND SPEED (MPH): 7.9 24 HR AVG TEMP (F): 54DEPART FROM NORMAL:  2  SKY COVER SR-SS (TENTHS): 1HEATING DEGREE DAYS: 11 COOLING DEGREE DAYS:  0 LATEST DAY MAX TEMP (0700-1900 LST):57  LATEST NIGHT MIN TEMP(1900-0800 LST):51 HOURLY INCREMENTAL PRECIPITATION VALUES (IN):.01 0.01 0.01 T    0.00 0.00 0.00 0.00 0.00 0.00 0.00 0.00 0.00 0.00 0.00 0.00 T    T    0.00 0.00 0.00 0.00 0.00 0.00","SOD  ","6",,,,,,,,,,,,,,,,,,,,,,,,,"0632","1716","2007-05-17"
"72793024233","2020-10-18T00:53:00","FM-15","7",,,,,,,,,,,,,,,,,,,,,,,,,,,,,,,,,,,,,,,"30.10","47","54","0.00",,"+0.01","8","77","30.12","OVC:08 45","29.63","10.00","50","210",,"14",,,,,,,,,,,,,,,,,,,,,,,,,,,,,,,,,,,,,"MET10410/18/20 00:53:02 METAR KSEA 180853Z 21012KT 10SM OVC045 12/08 A3010 RMK AO2 SLP200 T01220083 58003 (LC)","FM-15","7",,,,,,,,,,,,,,,,,,,,,,,,,,,"2007-05-17"
"72793024233","2020-10-18T01:51:00","FM-16","7",,,,,,,,,,,,,,,,,,,,,,,,,,,,,,,,,,,,,,,"30.10","45","54",,,,,"72",,"BKN:07 28 OVC:08 36","29.63","10.00","49","210",,"21",,,,,,,,,,,,,,,,,,,,,,,,,,,,,,,,,,,,,"MET08810/18/20 01:51:02 SPECI KSEA 180951Z 21018KT 10SM BKN028 OVC036 12/07 A3010 RMK AO2 (LC)","FM-16","7",,,,,,,,,,,,,,,,,,,,,,,,,,,"2007-05-17"
"72793024233","2020-10-18T01:53:00","FM-15","7",,,,,,,,,,,,,,,,,,,,,,,,,,,,,,,,,,,,,,,"30.10","44","53","0.00",,,,"72","30.11","BKN:07 28 OVC:08 36","29.63","10.00","49","210",,"21",,,,,,,,,,,,,,,,,,,,,,,,,,,,,,,,,,,,,"MET10510/18/20 01:53:02 METAR KSEA 180953Z 21018KT 10SM BKN028 OVC036 12/07 A3010 RMK AO2 SLP198 T01170067 (LC)","FM-15","7",,,,,,,,,,,,,,,,,,,,,,,,,,,"2007-05-17"
"72793024233","2020-10-18T02:25:00","FM-16","7",,,,,,,,,,,,,,,,,,,,,,,,,,,,,,,,,,,,,,,"30.08","45","52","T",,,,"77",,"FEW:02 25 BKN:07 30 OVC:08 38","29.61","10.00","49","160",,"13",,,,,,,,,,,,,,,,,,,,,,,,,,,,,,,,,,,,,"MET12010/18/20 02:25:02 SPECI KSEA 181025Z 16011KT 10SM FEW025 BKN030 OVC038 11/07 A3008 RMK AO2 RAB11E24 P0000 T01110072 (LC)","FM-16","7",,,,,,,,,,,,,,,,,,,,,,,,,,,"2007-05-17"
"72793024233","2020-10-18T02:53:00","FM-15","7",,,,,,,,,,,,,,,,,,,,,,,,,,,,,,,,,,,,,,,"30.06","44","52","T",,,,"75","30.07","SCT:04 28 OVC:08 38","29.59","10.00","48","170",,"10",,,,,,,,,,,,,,,,,,,,,,,,,,,,,,,,,,,,,"MET12010/18/20 02:53:02 METAR KSEA 181053Z 17009KT 10SM SCT028 OVC038 11/07 A3006 RMK AO2 RAB11E24 SLP184 P0000 T01110067 (LC)","FM-15","7",,,,,,,,,,,,,,,,,,,,,,,,,,,"2007-05-17"
"72793024233","2020-10-18T03:00:00","FM-16","7",,,,,,,,,,,,,,,,,,,,,,,,,,,,,,,,,,,,,,,"30.05","44","53",,,,,"72",,"OVC:08 28","29.58","10.00","49","160",,"13",,,,,,,,,,,,,,,,,,,,,,,,,,,,,,,,,,,,,"MET09110/18/20 03:00:02 SPECI KSEA 181100Z 16011KT 10SM OVC028 12/07 A3005 RMK AO2 T01170067 (LC)","FM-16","7",,,,,,,,,,,,,,,,,,,,,,,,,,,"2007-05-17"
"72793024233","2020-10-18T03:53:00","FM-15","7",,,,,,,,,,,,,,,,,,,,,,,,,,,,,,,,,,,,,,,"30.02","43","54","0.00",,"+0.08","8","67","30.03","OVC:08 27","29.55","10.00","49","180",,"13",,,,,,,,,,,,,,,,,,,,,,,,,,,,,,,,,,,,,"MET12210/18/20 03:53:02 METAR KSEA 181153Z 18011KT 10SM OVC027 12/06 A3002 RMK AO2 SLP170 60000 T01220061 10122 20111 58028 (LC)","FM-15","7",,,,,,,,,,,,,,,,,,,,,,,,,,,"2007-05-17"
"72793024233","2020-10-18T04:00:00","FM-12","4",,,,,,,,,,,,,,,,,,,,,,,,,,,,,,,,,,,,,,,,"43","54",,,"+0.08","8","67","30.03","26","29.54","9.94","49","180",,"13",,,,,,,,,,,,,,,,,,,,,,,,,,,,,,,,,,,,,"SYN08672793 12566 81811 10122 20061 30003 40170 58028 69901 91153 333 10139 20111 555 91812=","FM-12","4",,,,,,,,,,,,,,,,,,,,,,,,,,,"2007-05-17"
"72793024233","2020-10-18T04:53:00","FM-15","7",,,,,,,,,,,,,,,,,,,,,,,,,,,,,,,,,,,,,,,"30.00","44","54","0.00",,,,"69","30.01","OVC:08 21","29.53","10.00","49","190",,"15",,,,,,,,,,,,,,,,,,,,,,,,,,,,,,,,,,,,,"MET09810/18/20 04:53:02 METAR KSEA 181253Z 19013KT 10SM OVC021 12/07 A3000 RMK AO2 SLP164 T01220067 (LZ)","FM-15","7",,,,,,,,,,,,,,,,,,,,,,,,,,,"2007-05-17"
"72793024233","2020-10-18T05:53:00","FM-15","7",,,,,,,,,,,,,,,,,,,,,,,,,,,,,,,,,,,,,,,"29.98","47","55","0.00",,,,"74","30.00","OVC:08 18","29.51","10.00","51","180","21","14",,,,,,,,,,,,,,,,,,,,,,,,,,,,,,,,,,,,,"MET10110/18/20 05:53:02 METAR KSEA 181353Z 18012G18KT 10SM OVC018 13/08 A2998 RMK AO2 SLP159 T01280083 (LZ)","FM-15","7",,,,,,,,,,,,,,,,,,,,,,,,,,,"2007-05-17"
"72793024233","2020-10-18T06:30:00","FM-16","7",,,,,,,,,,,,,,,,,,,,,,,,,,,,,,,,,,,,,,,"29.97","50","55",,,,,"83",,"OVC:08 14","29.50","10.00","52","190","26","17",,,,,,,,,,,,,,,,,,,,,,,,,,,,,,,,,,,,,"MET09410/18/20 06:30:02 SPECI KSEA 181430Z 19015G23KT 10SM OVC014 13/10 A2997 RMK AO2 T01280100 (LZ)","FM-16","7",,,,,,,,,,,,,,,,,,,,,,,,,,,"2007-05-17"
"72793024233","2020-10-18T06:53:00","FM-15","7",,,,,,,,,,,,,,,,,,,,,,,,,,,,,,,,,,,,,,,"29.96","51","54","T","-RA:02 |RA |RA","+0.05","8","90","29.98","OVC:08 12","29.49","7.00","52","190","29","21",,,,,,,,,,,,,,,,,,,,,,,,,,,,,,,,,,,,,"MET12810/18/20 06:53:02 METAR KSEA 181453Z 19018G25KT 7SM -RA OVC012 12/11 A2996 RMK AO2 RAB53 SLP151 P0000 60000 T01220106 58018 (LZ)","FM-15","7",,,,,,,,,,,,,,,,,,,,,,,,,,,"2007-05-17"
"72793024233","2020-10-18T07:23:00","FM-16","7",,,,,,,,,,,,,,,,,,,,,,,,,,,,,,,,,,,,,,,"29.97","52","54","0.01","-RA:02 |RA |RA",,,"93",,"OVC:08 8","29.50","7.00","53","180","28","22",,,,,,,,,,,,,,,,,,,,,,,,,,,,,,,,,,,,,"MET10310/18/20 07:23:02 SPECI KSEA 181523Z 18019G24KT 7SM -RA OVC008 12/11 A2997 RMK AO2 P0001 T01220111 (LZ)","FM-16","7",,,,,,,,,,,,,,,,,,,,,,,,,,,"2007-05-17"
"72793024233","2020-10-18T07:53:00","FM-15","7",,,,,,,,,,,,,,,,,,,,,,,,,,,,,,,,,,,,,,,"29.97","53","55","0.01",,,,"93","29.99","BKN:07 6 OVC:08 10","29.50","8.00","54","190","24","18",,,,,,,,,,,,,,,,,,,,,,,,,,,,,,,,,,,,,"MET11910/18/20 07:53:02 METAR KSEA 181553Z 19016G21KT 8SM BKN006 OVC010 13/12 A2997 RMK AO2 RAE50 SLP155 P0001 T01280117 (LZ)","FM-15","7",,,,,,,,,,,,,,,,,,,,,,,,,,,"2007-05-17"
"72793024233","2020-10-18T08:53:00","FM-15","7",,,,,,,,,,,,,,,,,,,,,,,,,,,,,,,,,,,,,,,"30.00","54","57","0.00",,,,"90","30.01","OVC:08 6","29.53","9.00","55","200","21","11",,,,,,,,,,,,,,,,,,,,,,,,,,,,,,,,,,,,,"MET10010/18/20 08:53:02 METAR KSEA 181653Z 20010G18KT 9SM OVC006 14/12 A3000 RMK AO2 SLP163 T01390122 (LZ)","FM-15","7",,,,,,,,,,,,,,,,,,,,,,,,,,,"2007-05-17"
"72793024233","2020-10-18T09:53:00","FM-15","7",,,,,,,,,,,,,,,,,,,,,,,,,,,,,,,,,,,,,,,"30.00","55","59","0.00",,"-0.04","1","87","30.01","OVC:08 7","29.53","9.00","57","190",,"14",,,,,,,,,,,,,,,,,,,,,,,,,,,,,,,,,,,,,"MET12110/18/20 09:53:02 METAR KSEA 181753Z 19012KT 9SM OVC007 15/13 A3000 RMK AO2 SLP164 60001 T01500128 10150 20122 51012 (LZ)","FM-15","7",,,,,,,,,,,,,,,,,,,,,,,,,,,"2007-05-17"
"72793024233","2020-10-18T10:00:00","FM-12","4",,,,,,,,,,,,,,,,,,,,,,,,,,,,,,,,,,,,,,,,"55","59",,,"-0.04","1","87","30.01","8","29.52","8.70","57","190",,"14",,,,,,,,,,,,,,,,,,,,,,,,,,,,,,,,,,,,,"SYN08672793 12364 81912 10150 20128 39996 40164 51012 69931 91753 333 10150 20117 555 91818=","FM-12","4",,,,,,,,,,,,,,,,,,,,,,,,,,,"2007-05-17"
"72793024233","2020-10-18T10:53:00","FM-15","7",,,,,,,,,,,,,,,,,,,,,,,,,,,,,,,,,,,,,,,"30.01","56","60","0.00",,,,"86","30.02","OVC:08 9","29.54","10.00","58","190",,"13",,,,,,,,,,,,,,,,,,,,,,,,,,,,,,,,,,,,,"MET09810/18/20 10:53:02 METAR KSEA 181853Z 19011KT 10SM OVC009 16/13 A3001 RMK AO2 SLP167 T01560133 (LZ)","FM-15","7",,,,,,,,,,,,,,,,,,,,,,,,,,,"2007-05-17"
"72793024233","2020-10-18T11:34:00","FM-16","7",,,,,,,,,,,,,,,,,,,,,,,,,,,,,,,,,,,,,,,"30.01","56","61",,,,,"84",,"OVC:08 12","29.54","10.00","58","200",,"13",,,,,,,,,,,,,,,,,,,,,,,,,,,,,,,,,,,,,"MET09110/18/20 11:34:02 SPECI KSEA 181934Z 20011KT 10SM OVC012 16/13 A3001 RMK AO2 T01610133 (LZ)","FM-16","7",,,,,,,,,,,,,,,,,,,,,,,,,,,"2007-05-17"
"72793024233","2020-10-18T11:53:00","FM-15","7",,,,,,,,,,,,,,,,,,,,,,,,,,,,,,,,,,,,,,,"30.00","56","62","0.00",,,,"80","30.02","OVC:08 12","29.53","10.00","59","200",,"8",,,,,,,,,,,,,,,,,,,,,,,,,,,,,,,,,,,,,"MET09810/18/20 11:53:02 METAR KSEA 181953Z 20007KT 10SM OVC012 17/13 A3000 RMK AO2 SLP166 T01670133 (LZ)","FM-15","7",,,,,,,,,,,,,,,,,,,,,,,,,,,"2007-05-17"
"72793024233","2020-10-18T12:53:00","FM-15","7",,,,,,,,,,,,,,,,,,,,,,,,,,,,,,,,,,,,,,,"30.01","57","62","0.00",,"-0.01","1","84","30.02","OVC:08 11","29.54","10.00","59","230",,"16",,,,,,,,,,,,,,,,,,,,,,,,,,,,,,,,,,,,,"MET10410/18/20 12:53:02 METAR KSEA 182053Z 23014KT 10SM OVC011 17/14 A3001 RMK AO2 SLP166 T01670139 51004 (LZ)","FM-15","7",,,,,,,,,,,,,,,,,,,,,,,,,,,"2007-05-17"
"72793024233","2020-10-18T13:53:00","FM-15","7",,,,,,,,,,,,,,,,,,,,,,,,,,,,,,,,,,,,,,,"29.99","57","62","0.00",,,,"84","30.01","OVC:08 13","29.52","10.00","59","210","24","16",,,,,,,,,,,,,,,,,,,,,,,,,,,,,,,,,,,,,"MET10110/18/20 13:53:02 METAR KSEA 182153Z 21014G21KT 10SM OVC013 17/14 A2999 RMK AO2 SLP162 T01670139 (TL)","FM-15","7",,,,,,,,,,,,,,,,,,,,,,,,,,,"2007-05-17"
"72793024233","2020-10-18T14:24:00","FM-16","7",,,,,,,,,,,,,,,,,,,,,,,,,,,,,,,,,,,,,,,"30.00","57","63",,,,,"81",,"BKN:07 16 OVC:08 23","29.53","10.00","60","200",,"11",,,,,,,,,,,,,,,,,,,,,,,,,,,,,,,,,,,,,"MET09810/18/20 14:24:02 SPECI KSEA 182224Z 20010KT 10SM BKN016 OVC023 17/14 A3000 RMK AO2 T01720139 (TL)","FM-16","7",,,,,,,,,,,,,,,,,,,,,,,,,,,"2007-05-17"
"72793024233","2020-10-18T14:53:00","FM-15","7",,,,,,,,,,,,,,,,,,,,,,,,,,,,,,,,,,,,,,,"30.01","57","62","0.00",,,,"84","30.03","BKN:07 15 BKN:07 20 OVC:08 25","29.54","10.00","59","VRB",,"3",,,,,,,,,,,,,,,,,,,,,,,,,,,,,,,,,,,,,"MET11210/18/20 14:53:02 METAR KSEA 182253Z VRB03KT 10SM BKN015 BKN020 OVC025 17/14 A3001 RMK AO2 SLP169 T01670139 (TL)","FM-15","7",,,,,,,,,,,,,,,,,,,,,,,,,,,"2007-05-17"
"72793024233","2020-10-18T15:45:00","FM-16","7",,,,,,,,,,,,,,,,,,,,,,,,,,,,,,,,,,,,,,,"30.02","56","60",,,,,"86",,"FEW:02 7 BKN:07 15 OVC:08 20","29.55","10.00","58","290",,"7",,,,,,,,,,,,,,,,,,,,,,,,,,,,,,,,,,,,,"MET10510/18/20 15:45:02 SPECI KSEA 182345Z 29006KT 10SM FEW007 BKN015 OVC020 16/13 A3002 RMK AO2 T01560133 (TL)","FM-16","7",,,,,,,,,,,,,,,,,,,,,,,,,,,"2007-05-17"
"72793024233","2020-10-18T15:53:00","FM-15","7",,,,,,,,,,,,,,,,,,,,,,,,,,,,,,,,,,,,,,,"30.03","56","59","0.00",,"-0.02","3","90","30.04","FEW:02 7 BKN:07 15 OVC:08 20","29.56","10.00","57","300",,"7",,,,,,,,,,,,,,,,,,,,,,,,,,,,,,,,,,,,,"MET13010/18/20 15:53:02 METAR KSEA 182353Z 30006KT 10SM FEW007 BKN015 OVC020 15/13 A3003 RMK AO2 SLP174 T01500133 10172 20150 53007 (TL)","FM-15","7",,,,,,,,,,,,,,,,,,,,,,,,,,,"2007-05-17"
"72793024233","2020-10-18T16:00:00","FM-12","4",,,,,,,,,,,,,,,,,,,,,,,,,,,,,,,,,,,,,,,,"56","59",,,"-0.02","3","90","30.04","8","29.55","9.94","57","300",,"7",,,,,,,,,,,,,,,,,,,,,,,,,,,,,,,,,,,,,"SYN08072793 32366 83006 10150 20133 30006 40174 53007 92353 333 10172 20111 555 91900=","FM-12","4",,,,,,,,,,,,,,,,,,,,,,,,,,,"2007-05-17"
"72793024233","2020-10-18T16:53:00","FM-15","7",,,,,,,,,,,,,,,,,,,,,,,,,,,,,,,,,,,,,,,"30.03","56","59","0.00",,,,"90","30.05","FEW:02 8 BKN:07 16 OVC:08 23","29.56","10.00","57","000",,"0",,,,,,,,,,,,,,,,,,,,,,,,,,,,,,,,,,,,,"MET10710/18/20 16:53:01 METAR KSEA 190053Z 00000KT 10SM FEW008 BKN016 OVC023 15/13 A3003 RMK AO2 SLP177 T01500133","FM-15","7",,,,,,,,,,,,,,,,,,,,,,,,,,,"2007-05-17"
"72793024233","2020-10-18T17:53:00","FM-15","7",,,,,,,,,,,,,,,,,,,,,,,,,,,,,,,,,,,,,,,"30.04","55","59","0.00",,,,"87","30.06","FEW:02 8 BKN:07 20","29.57","10.00","57","190",,"5",,,,,,,,,,,,,,,,,,,,,,,,,,,,,,,,,,,,,"MET10210/18/20 17:53:01 METAR KSEA 190153Z 19004KT 10SM FEW008 BKN020 15/13 A3004 RMK AO2 SLP179 T01500128 $","FM-15","7",,,,,,,,,,,,,,,,,,,,,,,,,,,"2007-05-17"
"72793024233","2020-10-18T18:53:00","FM-15","7",,,,,,,,,,,,,,,,,,,,,,,,,,,,,,,,,,,,,,,"30.05","54","59","0.00",,"-0.03","3","83","30.07","OVC:08 19","29.58","10.00","56","210",,"9",,,,,,,,,,,,,,,,,,,,,,,,,,,,,,,,,,,,,"MET10110/18/20 18:53:01 METAR KSEA 190253Z 21008KT 10SM OVC019 15/12 A3005 RMK AO2 SLP183 T01500122 53009 $","FM-15","7",,,,,,,,,,,,,,,,,,,,,,,,,,,"2007-05-17"
"72793024233","2020-10-18T19:53:00","FM-15","7",,,,,,,,,,,,,,,,,,,,,,,,,,,,,,,,,,,,,,,"30.05","53","59","0.00",,,,"81","30.07","OVC:08 15","29.58","10.00","56","220",,"14",,,,,,,,,,,,,,,,,,,,,,,,,,,,,,,,,,,,,"MET09510/18/20 19:53:01 METAR KSEA 190353Z 22012KT 10SM OVC015 15/12 A3005 RMK AO2 SLP183 T01500117 $","FM-15","7",,,,,,,,,,,,,,,,,,,,,,,,,,,"2007-05-17"
"72793024233","2020-10-18T20:13:00","FM-16","7",,,,,,,,,,,,,,,,,,,,,,,,,,,,,,,,,,,,,,,"30.05","53","58",,,,,"84",,"OVC:08 13","29.58","10.00","55","210",,"11",,,,,,,,,,,,,,,,,,,,,,,,,,,,,,,,,,,,,"MET08810/18/20 20:13:01 SPECI KSEA 190413Z 21010KT 10SM OVC013 14/12 A3005 RMK AO2 T01440117 $","FM-16","7",,,,,,,,,,,,,,,,,,,,,,,,,,,"2007-05-17"
"72793024233","2020-10-18T20:53:00","FM-15","7",,,,,,,,,,,,,,,,,,,,,,,,,,,,,,,,,,,,,,,"30.07","53","58","0.00",,,,"84","30.08","OVC:08 14","29.60","10.00","55","210",,"10",,,,,,,,,,,,,,,,,,,,,,,,,,,,,,,,,,,,,"MET09510/18/20 20:53:01 METAR KSEA 190453Z 21009KT 10SM OVC014 14/12 A3007 RMK AO2 SLP187 T01440117 $","FM-15","7",,,,,,,,,,,,,,,,,,,,,,,,,,,"2007-05-17"
"72793024233","2020-10-18T21:11:00","FM-16","7",,,,,,,,,,,,,,,,,,,,,,,,,,,,,,,,,,,,,,,"30.08","53","58",,,,,"84",,"OVC:08 15","29.61","10.00","55","210",,"10",,,,,,,,,,,,,,,,,,,,,,,,,,,,,,,,,,,,,"MET08810/18/20 21:11:01 SPECI KSEA 190511Z 21009KT 10SM OVC015 14/12 A3008 RMK AO2 T01440117 $","FM-16","7",,,,,,,,,,,,,,,,,,,,,,,,,,,"2007-05-17"
"72793024233","2020-10-18T21:42:00","FM-16","7",,,,,,,,,,,,,,,,,,,,,,,,,,,,,,,,,,,,,,,"30.07","53","57",,,,,"87",,"BKN:07 14 OVC:08 20","29.60","10.00","55","210",,"11",,,,,,,,,,,,,,,,,,,,,,,,,,,,,,,,,,,,,"MET09510/18/20 21:42:01 SPECI KSEA 190542Z 21010KT 10SM BKN014 OVC020 14/12 A3007 RMK AO2 T01390117 $","FM-16","7",,,,,,,,,,,,,,,,,,,,,,,,,,,"2007-05-17"
"72793024233","2020-10-18T21:53:00","FM-15","7",,,,,,,,,,,,,,,,,,,,,,,,,,,,,,,,,,,,,,,"30.07","53","57","0.00",,"-0.01","0","87","30.08","BKN:07 14 OVC:08 20","29.60","10.00","55","210",,"10",,,,,,,,,,,,,,,,,,,,,,,,,,,,,,,,,,,,,"MET12010/18/20 21:53:01 METAR KSEA 190553Z 21009KT 10SM BKN014 OVC020 14/12 A3007 RMK AO2 SLP186 T01390117 10156 20139 50004 $","FM-15","7",,,,,,,,,,,,,,,,,,,,,,,,,,,"2007-05-17"
"72793024233","2020-10-18T22:00:00","FM-12","4",,,,,,,,,,,,,,,,,,,,,,,,,,,,,,,,,,,,,,,,"53","57",,,"0.01","9","87","30.08","15","29.59","9.94","55","210",,"10",,,,,,,,,,,,,,,,,,,,,,,,,,,,,,,,,,,,,"SYN08072793 32466 82109 10139 20117 30019 40186 50004 90553 333 10156 20111 555 91906=","FM-12","4",,,,,,,,,,,,,,,,,,,,,,,,,,,"2007-05-17"
"72793024233","2020-10-18T22:34:00","FM-16","7",,,,,,,,,,,,,,,,,,,,,,,,,,,,,,,,,,,,,,,"30.07","52","57",,,,,"83",,"BKN:07 18 OVC:08 23","29.60","10.00","54","220",,"11",,,,,,,,,,,,,,,,,,,,,,,,,,,,,,,,,,,,,"MET09510/18/20 22:34:01 SPECI KSEA 190634Z 22010KT 10SM BKN018 OVC023 14/11 A3007 RMK AO2 T01390111 $","FM-16","7",,,,,,,,,,,,,,,,,,,,,,,,,,,"2007-05-17"
"72793024233","2020-10-18T22:53:00","FM-15","7",,,,,,,,,,,,,,,,,,,,,,,,,,,,,,,,,,,,,,,"30.08","51","57","0.00",,,,"81","30.09","BKN:07 17 OVC:08 23","29.61","10.00","54","220",,"13",,,,,,,,,,,,,,,,,,,,,,,,,,,,,,,,,,,,,"MET10210/18/20 22:53:01 METAR KSEA 190653Z 22011KT 10SM BKN017 OVC023 14/11 A3008 RMK AO2 SLP190 T01390106 $","FM-15","7",,,,,,,,,,,,,,,,,,,,,,,,,,,"2007-05-17"
"72793024233","2020-10-18T23:53:00","FM-15","7",,,,,,,,,,,,,,,,,,,,,,,,,,,,,,,,,,,,,,,"30.09","51","56","0.00",,,,"84","30.10","OVC:08 15","29.62","10.00","53","220",,"13",,,,,,,,,,,,,,,,,,,,,,,,,,,,,,,,,,,,,"MET10510/18/20 23:53:01 METAR KSEA 190753Z 22011KT 10SM OVC015 13/11 A3009 RMK AO2 SLP194 T01330106 401720111 $","FM-15","7",,,,,,,,,,,,,,,,,,,,,,,,,,,"2007-05-17"
"72793024233","2020-10-18T23:59:00","SOD  ","6",,,,,,,,,,,,,,,,,"52","58","83","30.04","29.57","55","12.0","0","5.9","7","63","52","190","29","0.01","0","0.0","180","23","RA",,,,,,,,,,,,,,,,,,,,,,,,,,,,,,,,,,,,,,,,,,,,,,,,,,,,,,,"SOD78724 HR PRECIPITATION (IN): 0.01 SNOW DEPTH (IN):0     24 HR SNOWFALL (IN):0.0  WEATHER(CODE):1  24 HR MAX TEMP (F): 6324 HR MIN TEMP (F): 52AVERAGE STATION PRESSURE(D):29.567 MINIMUM SEA LEVEL PRESSURE:29.97 TIME OF OCCURRENCE:0703 PEAK WIND SPEED (MPH): 29 PEAK WIND DIR (DEG):190 PEAK WIND TIME (LST):      FASTEST 2MIN SPEED (MPH): 23FASTEST 2MIN DIR (DEG):180 FASTEST 2MIN TIME (LST):     AVERAGE WIND SPEED (MPH):12.0 24 HR AVG TEMP (F): 58DEPART FROM NORMAL:  6  SKY COVER SR-SS (TENTHS): 1HEATING DEGREE DAYS:  7 COOLING DEGREE DAYS:  0 LATEST DAY MAX TEMP (0700-1900 LST): 63 LATEST NIGHT MIN TEMP(1900-0800 LST):52 HOURLY INCREMENTAL PRECIPITATION VALUES (IN):0.00 0.00T     0.00 0.00 0.00T     0.01 0.00 0.00 0.00 0.00 0.00 0.00 0.00 0.00 0.00 0.00 0.00 0.00 0.00 0.00 0.00 0.00","SOD  ","6",,,,,,,,,,,,,,,,,,,,,,,,,"0633","1714","2007-05-17"
"72793024233","2020-10-19T00:46:00","FM-16","6",,,,,,,,,,,,,,,,,,,,,,,,,,,,,,,,,,,,,,,"30.10","51","56",,,,,"84",,"OVC:08 14","29.63","10.00","53","210",,"14",,,,,,,,,,,,,,,,,,,,,,,,,,,,,,,,,,,,,"MET09310/19/20 00:46:02 SPECI KSEA 190846Z 21012KT 10SM OVC014 13/11 A3010 RMK AO2 T01330106 $ (LC)","FM-16","6",,,,,,,,,,,,,,,,,,,,,,,,,,,"2007-05-17"
"72793024233","2020-10-19T00:53:00","FM-15","6",,,,,,,,,,,,,,,,,,,,,,,,,,,,,,,,,,,,,,,"30.10","51","56","0.00",,"-0.03","2","84","30.11","OVC:08 14","29.63","10.00","53","210",,"14",,,,,,,,,,,,,,,,,,,,,,,,,,,,,,,,,,,,,"MET10610/19/20 00:53:02 METAR KSEA 190853Z 21012KT 10SM OVC014 13/11 A3010 RMK AO2 SLP197 T01330106 52011 $ (LC)","FM-15","6",,,,,,,,,,,,,,,,,,,,,,,,,,,"2007-05-17"
"72793024233","2020-10-19T01:53:00","FM-15","6",,,,,,,,,,,,,,,,,,,,,,,,,,,,,,,,,,,,,,,"30.10","50","56","0.00",,,,"81","30.12","OVC:08 14","29.63","10.00","53","200",,"14",,,,,,,,,,,,,,,,,,,,,,,,,,,,,,,,,,,,,"MET10010/19/20 01:53:02 METAR KSEA 190953Z 20012KT 10SM OVC014 13/10 A3010 RMK AO2 SLP199 T01330100 $ (LC)","FM-15","6",,,,,,,,,,,,,,,,,,,,,,,,,,,"2007-05-17"
"72793024233","2020-10-19T02:51:00","FM-16","7",,,,,,,,,,,,,,,,,,,,,,,,,,,,,,,,,,,,,,,"30.10","50","55",,,,,"82",,"OVC:08 15","29.63","10.00","52","210",,"11",,,,,,,,,,,,,,,,,,,,,,,,,,,,,,,,,,,,,"MET08310/19/20 02:51:02 SPECI KSEA 191051Z 21010KT 10SM OVC015 13/10 A3010 RMK AO2 $ (LC)","FM-16","7",,,,,,,,,,,,,,,,,,,,,,,,,,,"2007-05-17"
"72793024233","2020-10-19T02:53:00","FM-15","7",,,,,,,,,,,,,,,,,,,,,,,,,,,,,,,,,,,,,,,"30.10","50","55","0.00",,,,"83","30.11","OVC:08 15","29.63","10.00","52","210",,"14",,,,,,,,,,,,,,,,,,,,,,,,,,,,,,,,,,,,,"MET10010/19/20 02:53:02 METAR KSEA 191053Z 21012KT 10SM OVC015 13/10 A3010 RMK AO2 SLP198 T01280100 $ (LC)","FM-15","7",,,,,,,,,,,,,,,,,,,,,,,,,,,"2007-05-17"
"72793024233","2020-10-19T03:53:00","FM-15","7",,,,,,,,,,,,,,,,,,,,,,,,,,,,,,,,,,,,,,,"30.11","50","55","0.00",,"-0.01","3","83","30.13","OVC:08 15","29.64","10.00","52","210",,"10",,,,,,,,,,,,,,,,,,,,,,,,,,,,,,,,,,,,,"MET12410/19/20 03:53:02 METAR KSEA 191153Z 21009KT 10SM OVC015 13/10 A3011 RMK AO2 SLP202 70001 T01280100 10139 20128 53002 $ (LC)","FM-15","7",,,,,,,,,,,,,,,,,,,,,,,,,,,"2007-05-17"
"72793024233","2020-10-19T04:00:00","FM-12","4",,,,,,,,,,,,,,,,,,,,,,,,,,,,,,,,,,,,,,,,"50","55",,,"-0.01","3","83","30.13","15","29.63","9.94","52","210",,"10",,,,,,,,,,,,,,,,,,,,,,,,,,,,,,,,,,,,,"SYN08672793 32466 82109 10128 20100 30033 40202 53002 91153 333 10172 20128 70003 555 91912=","FM-12","4",,,,,,,,,,,,,,,,,,,,,,,,,,,"2007-05-17"
"72793024233","2020-10-19T04:06:00","FM-16","7",,,,,,,,,,,,,,,,,,,,,,,,,,,,,,,,,,,,,,,"30.11","50","55",,,,,"83",,"OVC:08 13","29.64","10.00","52","200",,"11",,,,,,,,,,,,,,,,,,,,,,,,,,,,,,,,,,,,,"MET09310/19/20 04:06:02 SPECI KSEA 191206Z 20010KT 10SM OVC013 13/10 A3011 RMK AO2 T01280100 $ (LC)","FM-16","7",,,,,,,,,,,,,,,,,,,,,,,,,,,"2007-05-17"
"72793024233","2020-10-19T04:53:00","FM-15","7",,,,,,,,,,,,,,,,,,,,,,,,,,,,,,,,,,,,,,,"30.12","51","55","T","-DZ:01 |DZ |DZ",,,"87","30.14","OVC:08 12","29.65","10.00","53","210",,"10",,,,,,,,,,,,,,,,,,,,,,,,,,,,,,,,,,,,,"MET11610/19/20 04:53:02 METAR KSEA 191253Z 21009KT 10SM -DZ OVC012 13/11 A3012 RMK AO2 DZB50 SLP206 P0000 T01280106 $ (JC)","FM-15","7",,,,,,,,,,,,,,,,,,,,,,,,,,,"2007-05-17"
"72793024233","2020-10-19T05:42:00","FM-16","7",,,,,,,,,,,,,,,,,,,,,,,,,,,,,,,,,,,,,,,"30.13","52","54","0.01","-DZ:01 BR:1 |DZ |DZ",,,"93",,"FEW:02 7 BKN:07 10 OVC:08 21","29.66","6.00","53","210",,"8",,,,,,,,,,,,,,,,,,,,,,,,,,,,,,,,,,,,,"MET11910/19/20 05:42:02 SPECI KSEA 191342Z 21007KT 6SM -DZ BR FEW007 BKN010 OVC021 12/11 A3013 RMK AO2 P0001 T01220111 $ (JC)","FM-16","7",,,,,,,,,,,,,,,,,,,,,,,,,,,"2007-05-17"
"72793024233","2020-10-19T05:53:00","FM-15","7",,,,,,,,,,,,,,,,,,,,,,,,,,,,,,,,,,,,,,,"30.13","52","54","0.01","-DZ:01 BR:1 |DZ |DZ",,,"93","30.15","FEW:02 7 OVC:08 11","29.66","6.00","53","200",,"8",,,,,,,,,,,,,,,,,,,,,,,,,,,,,,,,,,,,,"MET11710/19/20 05:53:02 METAR KSEA 191353Z 20007KT 6SM -DZ BR FEW007 OVC011 12/11 A3013 RMK AO2 SLP209 P0001 T01220111 (JC)","FM-15","7",,,,,,,,,,,,,,,,,,,,,,,,,,,"2007-05-17"
"72793024233","2020-10-19T06:53:00","FM-15","7",,,,,,,,,,,,,,,,,,,,,,,,,,,,,,,,,,,,,,,"30.13","51","54","T","-DZ:01 |DZ |DZ","-0.02","0","90","30.15","FEW:02 8 OVC:08 11","29.66","10.00","52","210",,"6",,,,,,,,,,,,,,,,,,,,,,,,,,,,,,,,,,,,,"MET12710/19/20 06:53:02 METAR KSEA 191453Z 21005KT 10SM -DZ FEW008 OVC011 12/11 A3013 RMK AO2 SLP209 P0000 60001 T01220106 50007 (JC)","FM-15","7",,,,,,,,,,,,,,,,,,,,,,,,,,,"2007-05-17"
"72793024233","2020-10-19T07:53:00","FM-15","7",,,,,,,,,,,,,,,,,,,,,,,,,,,,,,,,,,,,,,,"30.13","52","54","T","-DZ:01 |DZ |DZ",,,"93","30.15","OVC:08 11","29.66","10.00","53","210",,"9",,,,,,,,,,,,,,,,,,,,,,,,,,,,,,,,,,,,,"MET10810/19/20 07:53:02 METAR KSEA 191553Z 21008KT 10SM -DZ OVC011 12/11 A3013 RMK AO2 SLP211 P0000 T01220111 (JC)","FM-15","7",,,,,,,,,,,,,,,,,,,,,,,,,,,"2007-05-17"
"72793024233","2020-10-19T08:53:00","FM-15","7",,,,,,,,,,,,,,,,,,,,,,,,,,,,,,,,,,,,,,,"30.14","52","55","T",,,,"90","30.16","OVC:08 12","29.67","10.00","53","210",,"10",,,,,,,,,,,,,,,,,,,,,,,,,,,,,,,,,,,,,"MET11810/19/20 08:53:02 METAR KSEA 191653Z 21009KT 10SM OVC012 13/11 A3014 RMK AO2 DZE23RAB23E41 SLP214 P0000 T01280111 (JC)","FM-15","7",,,,,,,,,,,,,,,,,,,,,,,,,,,"2007-05-17"
"72793024233","2020-10-19T09:53:00","FM-15","7",,,,,,,,,,,,,,,,,,,,,,,,,,,,,,,,,,,,,,,"30.15","52","57","0.00",,"-0.02","3","83","30.17","BKN:07 12 BKN:07 20 BKN:07 120","29.68","10.00","54","220",,"10",,,,,,,,,,,,,,,,,,,,,,,,,,,,,,,,,,,,,"MET13610/19/20 09:53:02 METAR KSEA 191753Z 22009KT 10SM BKN012 BKN020 BKN120 14/11 A3015 RMK AO2 SLP217 60001 T01390111 10139 20122 53008 (JC)","FM-15","7",,,,,,,,,,,,,,,,,,,,,,,,,,,"2007-05-17"
"72793024233","2020-10-19T10:00:00","FM-12","4",,,,,,,,,,,,,,,,,,,,,,,,,,,,,,,,,,,,,,,,"52","57",,,"-0.02","3","83","30.17","15","29.67","9.94","54","220",,"10",,,,,,,,,,,,,,,,,,,,,,,,,,,,,,,,,,,,,"SYN08672793 12466 62209 10139 20111 30046 40217 53008 69931 91753 333 10139 20122 555 91918=","FM-12","4",,,,,,,,,,,,,,,,,,,,,,,,,,,"2007-05-17"
"72793024233","2020-10-19T10:11:00","FM-16","7",,,,,,,,,,,,,,,,,,,,,,,,,,,,,,,,,,,,,,,"30.15","51","58",,,,,"78",,"BKN:07 15 BKN:07 120","29.68","10.00","54","220",,"10",,,,,,,,,,,,,,,,,,,,,,,,,,,,,,,,,,,,,"MET09810/19/20 10:11:02 SPECI KSEA 191811Z 22009KT 10SM BKN015 BKN120 14/11 A3015 RMK AO2 T01440106 (JC)","FM-16","7",,,,,,,,,,,,,,,,,,,,,,,,,,,"2007-05-17"
"72793024233","2020-10-19T10:53:00","FM-15","7",,,,,,,,,,,,,,,,,,,,,,,,,,,,,,,,,,,,,,,"30.16","51","59","0.00",,,,"75","30.17","SCT:04 18 BKN:07 24 BKN:07 180","29.69","10.00","55","220",,"13",,,,,,,,,,,,,,,,,,,,,,,,,,,,,,,,,,,,,"MET11210/19/20 10:53:02 METAR KSEA 191853Z 22011KT 10SM SCT018 BKN024 BKN180 15/11 A3016 RMK AO2 SLP218 T01500106 (JC)","FM-15","7",,,,,,,,,,,,,,,,,,,,,,,,,,,"2007-05-17"
"72793024233","2020-10-19T11:53:00","FM-15","7",,,,,,,,,,,,,,,,,,,,,,,,,,,,,,,,,,,,,,,"30.15","49","59","0.00",,,,"69","30.17","BKN:07 22 OVC:08 35","29.68","10.00","54","210",,"11",,,,,,,,,,,,,,,,,,,,,,,,,,,,,,,,,,,,,"MET10510/19/20 11:53:02 METAR KSEA 191953Z 21010KT 10SM BKN022 OVC035 15/09 A3015 RMK AO2 SLP217 T01500094 (JC)","FM-15","7",,,,,,,,,,,,,,,,,,,,,,,,,,,"2007-05-17"
"72793024233","2020-10-19T12:30:00","FM-16","7",,,,,,,,,,,,,,,,,,,,,,,,,,,,,,,,,,,,,,,"30.16","47","59",,,,,"64",,"SCT:04 23 BKN:07 34 OVC:08 43","29.69","10.00","53","200",,"10",,,,,,,,,,,,,,,,,,,,,,,,,,,,,,,,,,,,,"MET10510/19/20 12:30:02 SPECI KSEA 192030Z 20009KT 10SM SCT023 BKN034 OVC043 15/08 A3016 RMK AO2 T01500083 (JC)","FM-16","7",,,,,,,,,,,,,,,,,,,,,,,,,,,"2007-05-17"
"72793024233","2020-10-19T12:53:00","FM-15","7",,,,,,,,,,,,,,,,,,,,,,,,,,,,,,,,,,,,,,,"30.16","47","58","0.00",,"-0.01","3","67","30.18","FEW:02 23 BKN:07 36 OVC:08 45","29.69","10.00","52","210",,"11",,,,,,,,,,,,,,,,,,,,,,,,,,,,,,,,,,,,,"MET11810/19/20 12:53:02 METAR KSEA 192053Z 21010KT 10SM FEW023 BKN036 OVC045 14/08 A3016 RMK AO2 SLP220 T01440083 53002 (JC)","FM-15","7",,,,,,,,,,,,,,,,,,,,,,,,,,,"2007-05-17"
"72793024233","2020-10-19T13:53:00","FM-15","7",,,,,,,,,,,,,,,,,,,,,,,,,,,,,,,,,,,,,,,"30.16","47","58","0.00",,,,"67","30.18","FEW:02 11 BKN:07 30","29.69","10.00","52","VRB",,"6",,,,,,,,,,,,,,,,,,,,,,,,,,,,,,,,,,,,,"MET10510/19/20 13:53:02 METAR KSEA 192153Z VRB05KT 10SM FEW011 BKN030 14/08 A3016 RMK AO2 SLP221 T01440083 (RS)","FM-15","7",,,,,,,,,,,,,,,,,,,,,,,,,,,"2007-05-17"
"72793024233","2020-10-19T14:53:00","FM-15","7",,,,,,,,,,,,,,,,,,,,,,,,,,,,,,,,,,,,,,,"30.17","48","56","0.00",,,,"75","30.19","FEW:02 11 BKN:07 32 OVC:08 50","29.70","10.00","52","050",,"8",,,,,,,,,,,,,,,,,,,,,,,,,,,,,,,,,,,,,"MET11410/19/20 14:53:02 METAR KSEA 192253Z 05007KT 10SM FEW011 BKN032 OVC050 13/09 A3017 RMK AO2 SLP222 T01330089 $ (RS)","FM-15","7",,,,,,,,,,,,,,,,,,,,,,,,,,,"2007-05-17"
"72793024233","2020-10-19T15:53:00","FM-15","7",,,,,,,,,,,,,,,,,,,,,,,,,,,,,,,,,,,,,,,"30.17","49","56","0.00",,"-0.01","0","77","30.19","FEW:02 15 BKN:07 36 BKN:07 50","29.70","10.00","52","050",,"5",,,,,,,,,,,,,,,,,,,,,,,,,,,,,,,,,,,,,"MET13210/19/20 15:53:02 METAR KSEA 192353Z 05004KT 10SM FEW015 BKN036 BKN050 13/09 A3017 RMK AO2 SLP222 T01330094 10150 20128 50002 $ (RS)","FM-15","7",,,,,,,,,,,,,,,,,,,,,,,,,,,"2007-05-17"
"72793024233","2020-10-19T16:00:00","FM-12","4",,,,,,,,,,,,,,,,,,,,,,,,,,,,,,,,,,,,,,,,"49","56",,,"0.01","9","77","30.19","15","29.69","9.94","52","050",,"5",,,,,,,,,,,,,,,,,,,,,,,,,,,,,,,,,,,,,"SYN08072793 32466 60504 10133 20094 30053 40222 50002 92353 333 10150 20128 555 92000=","FM-12","4",,,,,,,,,,,,,,,,,,,,,,,,,,,"2007-05-17"
"72793024233","2020-10-19T16:53:00","FM-15","7",,,,,,,,,,,,,,,,,,,,,,,,,,,,,,,,,,,,,,,"30.16","49","54","0.00",,,,"83","30.18","FEW:02 15 SCT:04 32 OVC:08 50","29.69","10.00","51","040",,"10",,,,,,,,,,,,,,,,,,,,,,,,,,,,,,,,,,,,,"MET10910/19/20 16:53:01 METAR KSEA 200053Z 04009KT 10SM FEW015 SCT032 OVC050 12/09 A3016 RMK AO2 SLP221 T01220094 $","FM-15","7",,,,,,,,,,,,,,,,,,,,,,,,,,,"2007-05-17"
"72793024233","2020-10-19T17:53:00","FM-15","7",,,,,,,,,,,,,,,,,,,,,,,,,,,,,,,,,,,,,,,"30.17","49","53","0.00",,,,"86","30.19","FEW:02 15 BKN:07 32 OVC:08 55","29.70","10.00","51","040",,"11",,,,,,,,,,,,,,,,,,,,,,,,,,,,,,,,,,,,,"MET10910/19/20 17:53:01 METAR KSEA 200153Z 04010KT 10SM FEW015 BKN032 OVC055 12/09 A3017 RMK AO2 SLP224 T01170094 $","FM-15","7",,,,,,,,,,,,,,,,,,,,,,,,,,,"2007-05-17"
"72793024233","2020-10-19T18:29:00","FM-16","7",,,,,,,,,,,,,,,,,,,,,,,,,,,,,,,,,,,,,,,"30.18","48","53",,,,,"83",,"BKN:07 26 OVC:08 40","29.71","9.00","50","060",,"5",,,,,,,,,,,,,,,,,,,,,,,,,,,,,,,,,,,,,"MET09410/19/20 18:29:01 SPECI KSEA 200229Z 06004KT 9SM BKN026 OVC040 12/09 A3018 RMK AO2 T01170089 $","FM-16","7",,,,,,,,,,,,,,,,,,,,,,,,,,,"2007-05-17"
"72793024233","2020-10-19T18:53:00","FM-15","7",,,,,,,,,,,,,,,,,,,,,,,,,,,,,,,,,,,,,,,"30.19","48","52","T","-RA:02 BR:1 |RA |RA","-0.03","3","86","30.21","OVC:08 22","29.72","6.00","50","040",,"13",,,,,,,,,,,,,,,,,,,,,,,,,,,,,,,,,,,,,"MET12510/19/20 18:53:01 METAR KSEA 200253Z 04011KT 6SM -RA BR OVC022 11/09 A3019 RMK AO2 RAB41 SLP231 P0000 60000 T01110089 53009 $","FM-15","7",,,,,,,,,,,,,,,,,,,,,,,,,,,"2007-05-17"
"72793024233","2020-10-19T19:53:00","FM-15","7",,,,,,,,,,,,,,,,,,,,,,,,,,,,,,,,,,,,,,,"30.20","48","50","T","-RA:02 BR:1 |RA |RA",,,"93","30.22","OVC:08 18","29.73","6.00","49","080",,"10",,,,,,,,,,,,,,,,,,,,,,,,,,,,,,,,,,,,,"MET11810/19/20 19:53:01 METAR KSEA 200353Z 08009KT 6SM -RA BR OVC018 10/09 A3020 RMK AO2 RAE0257B38 SLP233 P0000 T01000089 $","FM-15","7",,,,,,,,,,,,,,,,,,,,,,,,,,,"2007-05-17"
"72793024233","2020-10-19T20:32:00","FM-16","7",,,,,,,,,,,,,,,,,,,,,,,,,,,,,,,,,,,,,,,"30.21","48","51","0.02","-RA:02 BR:1 |RA |RA",,,"89",,"SCT:04 23 OVC:08 35","29.74","5.00","49","100",,"8",,,,,,,,,,,,,,,,,,,,,,,,,,,,,,,,,,,,,"MET10710/19/20 20:32:01 SPECI KSEA 200432Z 10007KT 5SM -RA BR SCT023 OVC035 11/09 A3021 RMK AO2 P0002 T01060089 $","FM-16","7",,,,,,,,,,,,,,,,,,,,,,,,,,,"2007-05-17"
"72793024233","2020-10-19T20:53:00","FM-15","7",,,,,,,,,,,,,,,,,,,,,,,,,,,,,,,,,,,,,,,"30.21","48","51","0.04","-RA:02 |RA |RA",,,"89","30.23","FEW:02 23 OVC:08 40","29.74","8.00","49","120",,"8",,,,,,,,,,,,,,,,,,,,,,,,,,,,,,,,,,,,,"MET11110/19/20 20:53:01 METAR KSEA 200453Z 12007KT 8SM -RA FEW023 OVC040 11/09 A3021 RMK AO2 SLP237 P0004 T01060089 $","FM-15","7",,,,,,,,,,,,,,,,,,,,,,,,,,,"2007-05-17"
"72793024233","2020-10-19T21:53:00","FM-15","7",,,,,,,,,,,,,,,,,,,,,,,,,,,,,,,,,,,,,,,"30.22","49","50","0.01",,"-0.02","1","96","30.23","OVC:08 60","29.75","10.00","49","160",,"6",,,,,,,,,,,,,,,,,,,,,,,,,,,,,,,,,,,,,"MET13110/19/20 21:53:01 METAR KSEA 200553Z 16005KT 10SM OVC060 10/09 A3022 RMK AO2 RAE26 SLP238 P0001 60005 T01000094 10133 20100 51007 $","FM-15","7",,,,,,,,,,,,,,,,,,,,,,,,,,,"2007-05-17"
"72793024233","2020-10-19T22:00:00","FM-12","4",,,,,,,,,,,,,,,,,,,,,,,,,,,,,,,,,,,,,,,,"49","50",,,"-0.02","1","96","30.23","57","29.74","9.94","49","160",,"6",,,,,,,,,,,,,,,,,,,,,,,,,,,,,,,,,,,,,"SYN08672793 12766 81605 10100 20094 30070 40238 51007 60011 90553 333 10139 20100 555 92006=","FM-12","4",,,,,,,,,,,,,,,,,,,,,,,,,,,"2007-05-17"
"72793024233","2020-10-19T22:53:00","FM-15","7",,,,,,,,,,,,,,,,,,,,,,,,,,,,,,,,,,,,,,,"30.22","48","51","0.00",,,,"89","30.24","OVC:08 55","29.75","10.00","49","120",,"6",,,,,,,,,,,,,,,,,,,,,,,,,,,,,,,,,,,,,"MET09510/19/20 22:53:01 METAR KSEA 200653Z 12005KT 10SM OVC055 11/09 A3022 RMK AO2 SLP241 T01060089 $","FM-15","7",,,,,,,,,,,,,,,,,,,,,,,,,,,"2007-05-17"
"72793024233","2020-10-19T23:53:00","FM-15","7",,,,,,,,,,,,,,,,,,,,,,,,,,,,,,,,,,,,,,,"30.23","49","51","0.00",,,,"92","30.25","SCT:04 23 OVC:08 37","29.76","7.00","50","110",,"6",,,,,,,,,,,,,,,,,,,,,,,,,,,,,,,,,,,,,"MET11110/19/20 23:53:01 METAR KSEA 200753Z 11005KT 7SM SCT023 OVC037 11/09 A3023 RMK AO2 SLP244 T01060094 401500100 $","FM-15","7",,,,,,,,,,,,,,,,,,,,,,,,,,,"2007-05-17"
"72793024233","2020-10-19T23:59:00","SOD  ","6",,,,,,,,,,,,,,,,,"50","55","84","30.18","29.68","52","9.6","0","3.2","10","59","50","210","23","0.06","0","0.0","220","18","RA DZ BR",,,,,,,,,,,,,,,,,,,,,,,,,,,,,,,,,,,,,,,,,,,,,,,,,,,,,,,"SOD78324 HR PRECIPITATION (IN): 0.06 SNOW DEPTH (IN):0     24 HR SNOWFALL (IN):0.0  WEATHER(CODE):1  24 HR MAX TEMP (F): 5924 HR MIN TEMP (F): 50AVERAGE STATION PRESSURE:29.685 MINIMUM SEA LEVEL PRESSURE:30.10 TIME OF OCCURRENCE:0034 PEAK WIND SPEED (MPH): 23 PEAK WIND DIR (DEG):210 PEAK WIND TIME (LST):      FASTEST 2MIN SPEED (MPH): 18FASTEST 2MIN DIR (DEG):220 FASTEST 2MIN TIME (LST):     AVERAGE WIND SPEED (MPH): 9.6 24 HR AVG TEMP (F): 55DEPART FROM NORMAL:  3  SKY COVER SR-SS (TENTHS): 1HEATING DEGREE DAYS: 10 COOLING DEGREE DAYS:  0 LATEST DAY MAX TEMP (0700-1900 LST):59  LATEST NIGHT MIN TEMP(1900-0800 LST):54 HOURLY INCREMENTAL PRECIPITATION VALUES (IN):.00 0.00 0.00 0.00 T    0.01 T    T    T    0.00 0.00 0.00 0.00 0.00 0.00 0.00 0.00 0.00 T    T    0.04 0.01 0.00 0.00","SOD  ","6",,,,,,,,,,,,,,,,,,,,,,,,,"0635","1712","2007-05-17"
"72793024233","2020-10-20T00:01:00","FM-16","7",,,,,,,,,,,,,,,,,,,,,,,,,,,,,,,,,,,,,,,"30.23","49","51",,,,,"92",,"BKN:07 21 OVC:08 37","29.76","8.00","50","100",,"7",,,,,,,,,,,,,,,,,,,,,,,,,,,,,,,,,,,,,"MET09910/20/20 00:01:02 SPECI KSEA 200801Z 10006KT 8SM BKN021 OVC037 11/09 A3023 RMK AO2 T01060094 $ (LC)","FM-16","7",,,,,,,,,,,,,,,,,,,,,,,,,,,"2007-05-17"
"72793024233","2020-10-20T00:53:00","FM-15","7",,,,,,,,,,,,,,,,,,,,,,,,,,,,,,,,,,,,,,,"30.23","48","51","0.00",,"-0.01","0","89","30.25","BKN:07 28 OVC:08 35","29.76","10.00","49","130",,"5",,,,,,,,,,,,,,,,,,,,,,,,,,,,,,,,,,,,,"MET11310/20/20 00:53:02 METAR KSEA 200853Z 13004KT 10SM BKN028 OVC035 11/09 A3023 RMK AO2 SLP243 T01060089 50004 $ (LC)","FM-15","7",,,,,,,,,,,,,,,,,,,,,,,,,,,"2007-05-17"
"72793024233","2020-10-20T01:10:00","FM-16","7",,,,,,,,,,,,,,,,,,,,,,,,,,,,,,,,,,,,,,,"30.23","48","51",,,,,"89",,"OVC:08 30","29.76","10.00","49","140",,"6",,,,,,,,,,,,,,,,,,,,,,,,,,,,,,,,,,,,,"MET09310/20/20 01:10:02 SPECI KSEA 200910Z 14005KT 10SM OVC030 11/09 A3023 RMK AO2 T01060089 $ (LC)","FM-16","7",,,,,,,,,,,,,,,,,,,,,,,,,,,"2007-05-17"
"72793024233","2020-10-20T01:53:00","FM-15","7",,,,,,,,,,,,,,,,,,,,,,,,,,,,,,,,,,,,,,,"30.23","49","51","0.00",,,,"92","30.25","FEW:02 10 OVC:08 30","29.76","10.00","50","140",,"6",,,,,,,,,,,,,,,,,,,,,,,,,,,,,,,,,,,,,"MET10710/20/20 01:53:02 METAR KSEA 200953Z 14005KT 10SM FEW010 OVC030 11/09 A3023 RMK AO2 SLP243 T01060094 $ (LC)","FM-15","7",,,,,,,,,,,,,,,,,,,,,,,,,,,"2007-05-17"
"72793024233","2020-10-20T02:29:00","FM-16","7",,,,,,,,,,,,,,,,,,,,,,,,,,,,,,,,,,,,,,,"30.23","49","51",,,,,"92",,"FEW:02 10 OVC:08 26","29.76","10.00","50","140",,"3",,,,,,,,,,,,,,,,,,,,,,,,,,,,,,,,,,,,,"MET10010/20/20 02:29:02 SPECI KSEA 201029Z 14003KT 10SM FEW010 OVC026 11/09 A3023 RMK AO2 T01060094 $ (LC)","FM-16","7",,,,,,,,,,,,,,,,,,,,,,,,,,,"2007-05-17"
"72793024233","2020-10-20T02:53:00","FM-15","7",,,,,,,,,,,,,,,,,,,,,,,,,,,,,,,,,,,,,,,"30.23","49","51","0.00",,,,"92","30.25","FEW:02 10 OVC:08 26","29.76","10.00","50","130",,"5",,,,,,,,,,,,,,,,,,,,,,,,,,,,,,,,,,,,,"MET10710/20/20 02:53:02 METAR KSEA 201053Z 13004KT 10SM FEW010 OVC026 11/09 A3023 RMK AO2 SLP243 T01060094 $ (LC)","FM-15","7",,,,,,,,,,,,,,,,,,,,,,,,,,,"2007-05-17"
"72793024233","2020-10-20T03:53:00","FM-15","7",,,,,,,,,,,,,,,,,,,,,,,,,,,,,,,,,,,,,,,"30.23","48","51","T","-RA:02 |RA |RA","-0.00","2","89","30.25","SCT:04 22 BKN:07 29 OVC:08 38","29.76","7.00","49","100",,"3",,,,,,,,,,,,,,,,,,,,,,,,,,,,,,,,,,,,,"MET15910/20/20 03:53:02 METAR KSEA 201153Z 10003KT 7SM -RA SCT022 BKN029 OVC038 11/09 A3023 RMK AO2 RAB45 SLP244 P0000 60000 70006 T01060089 10106 20100 52001 $ (LC)","FM-15","7",,,,,,,,,,,,,,,,,,,,,,,,,,,"2007-05-17"
"72793024233","2020-10-20T04:00:00","FM-12","4",,,,,,,,,,,,,,,,,,,,,,,,,,,,,,,,,,,,,,,,"48","51",,"||RA","-0.00","2","89","30.25","26","29.75","6.84","49","100",,"3",,,,,,,,,,,,,,,,,,,,,,,,,,,,,,,,,,,,,"SYN09872793 11561 81003 10106 20089 30073 40244 52001 69901 761// 91153 333 10150 20100 70015 555 92012=","FM-12","4",,,,,,,,,,,,,,,,,,,,,,,,,,,"2007-05-17"
"72793024233","2020-10-20T04:28:00","FM-16","7",,,,,,,,,,,,,,,,,,,,,,,,,,,,,,,,,,,,,,,"30.23","47","51","T",,,,"86",,"FEW:02 22 OVC:08 32","29.76","10.00","49","140",,"3",,,,,,,,,,,,,,,,,,,,,,,,,,,,,,,,,,,,,"MET11210/20/20 04:28:02 SPECI KSEA 201228Z 14003KT 10SM FEW022 OVC032 11/08 A3023 RMK AO2 RAE02 P0000 T01060083 $ (LC)","FM-16","7",,,,,,,,,,,,,,,,,,,,,,,,,,,"2007-05-17"
"72793024233","2020-10-20T04:51:00","FM-16","6",,,,,,,,,,,,,,,,,,,,,,,,,,,,,,,,,,,,,,,"30.22","48","52",,,,,"88",,"BKN:07 28 OVC:08 35","29.75","10.00","50","180",,"3",,,,,,,,,,,,,,,,,,,,,,,,,,,,,,,,,,,,,"MET10710/20/20 04:51:02 SPECI KSEA 201251Z 18003KT 10SM BKN028 OVC035 11/09 A3022 RMK AO2 RAE02 P0000 $ FIBI (JC)","FM-16","6",,,,,,,,,,,,,,,,,,,,,,,,,,,"2007-05-17"
"72793024233","2020-10-20T04:53:00","FM-15","7",,,,,,,,,,,,,,,,,,,,,,,,,,,,,,,,,,,,,,,"30.22","48","51","T",,,,"89","30.24","BKN:07 28 OVC:08 35","29.75","10.00","49","170",,"3",,,,,,,,,,,,,,,,,,,,,,,,,,,,,,,,,,,,,"MET11910/20/20 04:53:02 METAR KSEA 201253Z 17003KT 10SM BKN028 OVC035 11/09 A3022 RMK AO2 RAE02 SLP241 P0000 T01060089 $ (JC)","FM-15","7",,,,,,,,,,,,,,,,,,,,,,,,,,,"2007-05-17"
"72793024233","2020-10-20T05:39:00","FM-16","7",,,,,,,,,,,,,,,,,,,,,,,,,,,,,,,,,,,,,,,"30.23","48","51",,,,,"89",,"FEW:02 24 OVC:08 32","29.76","10.00","49","000",,"0",,,,,,,,,,,,,,,,,,,,,,,,,,,,,,,,,,,,,"MET09810/20/20 05:39:02 SPECI KSEA 201339Z 00000KT 10SM FEW024 OVC032 11/09 A3023 RMK AO2 T01060089 (JC)","FM-16","7",,,,,,,,,,,,,,,,,,,,,,,,,,,"2007-05-17"
"72793024233","2020-10-20T05:53:00","FM-15","7",,,,,,,,,,,,,,,,,,,,,,,,,,,,,,,,,,,,,,,"30.22","47","51","0.00",,,,"86","30.24","FEW:02 24 OVC:08 32","29.75","10.00","49","000",,"0",,,,,,,,,,,,,,,,,,,,,,,,,,,,,,,,,,,,,"MET10510/20/20 05:53:02 METAR KSEA 201353Z 00000KT 10SM FEW024 OVC032 11/08 A3022 RMK AO2 SLP239 T01060083 (JC)","FM-15","7",,,,,,,,,,,,,,,,,,,,,,,,,,,"2007-05-17"
"72793024233","2020-10-20T06:53:00","FM-15","7",,,,,,,,,,,,,,,,,,,,,,,,,,,,,,,,,,,,,,,"30.21","48","50","0.00",,"+0.01","8","93","30.24","FEW:02 27 BKN:07 40 BKN:07 180","29.74","10.00","49","170",,"3",,,,,,,,,,,,,,,,,,,,,,,,,,,,,,,,,,,,,"MET12410/20/20 06:53:02 METAR KSEA 201453Z 17003KT 10SM FEW027 BKN040 BKN180 10/09 A3021 RMK AO2 SLP239 60000 T01000089 58003 (JC)","FM-15","7",,,,,,,,,,,,,,,,,,,,,,,,,,,"2007-05-17"
"72793024233","2020-10-20T07:53:00","FM-15","7",,,,,,,,,,,,,,,,,,,,,,,,,,,,,,,,,,,,,,,"30.23","47","51","0.00",,,,"86","30.25","FEW:02 30 BKN:07 42 BKN:07 60","29.76","10.00","49","190",,"3",,,,,,,,,,,,,,,,,,,,,,,,,,,,,,,,,,,,,"MET11210/20/20 07:53:02 METAR KSEA 201553Z 19003KT 10SM FEW030 BKN042 BKN060 11/08 A3023 RMK AO2 SLP243 T01060083 (JC)","FM-15","7",,,,,,,,,,,,,,,,,,,,,,,,,,,"2007-05-17"
"72793024233","2020-10-20T08:53:00","FM-15","7",,,,,,,,,,,,,,,,,,,,,,,,,,,,,,,,,,,,,,,"30.22","47","52","0.00",,,,"83","30.24","FEW:02 20 SCT:04 44 BKN:07 230","29.75","10.00","49","VRB",,"5",,,,,,,,,,,,,,,,,,,,,,,,,,,,,,,,,,,,,"MET11210/20/20 08:53:02 METAR KSEA 201653Z VRB04KT 10SM FEW020 SCT044 BKN230 11/08 A3022 RMK AO2 SLP239 T01110083 (JC)","FM-15","7",,,,,,,,,,,,,,,,,,,,,,,,,,,"2007-05-17"
"72793024233","2020-10-20T09:53:00","FM-15","7",,,,,,,,,,,,,,,,,,,,,,,,,,,,,,,,,,,,,,,"30.21","47","54","0.00",,"+0.01","8","77","30.23","FEW:02 30 BKN:07 48 BKN:07 230","29.74","10.00","50","120",,"3",,,,,,,,,,,,,,,,,,,,,,,,,,,,,,,,,,,,,"MET13610/20/20 09:53:02 METAR KSEA 201753Z 12003KT 10SM FEW030 BKN048 BKN230 12/08 A3021 RMK AO2 SLP236 60000 T01220083 10128 20100 58002 (JC)","FM-15","7",,,,,,,,,,,,,,,,,,,,,,,,,,,"2007-05-17"
"72793024233","2020-10-20T10:00:00","FM-12","4",,,,,,,,,,,,,,,,,,,,,,,,,,,,,,,,,,,,,,,,"47","54",,,"+0.01","8","77","30.23","26","29.72","9.94","50","120",,"3",,,,,,,,,,,,,,,,,,,,,,,,,,,,,,,,,,,,,"SYN08672793 12566 61203 10122 20083 30066 40236 58002 69901 91753 333 10128 20100 555 92018=","FM-12","4",,,,,,,,,,,,,,,,,,,,,,,,,,,"2007-05-17"
"72793024233","2020-10-20T10:53:00","FM-15","7",,,,,,,,,,,,,,,,,,,,,,,,,,,,,,,,,,,,,,,"30.21","46","57","0.00",,,,"67","30.23","FEW:02 30 BKN:07 50 BKN:07 230","29.74","10.00","51","000",,"0",,,,,,,,,,,,,,,,,,,,,,,,,,,,,,,,,,,,,"MET11210/20/20 10:53:02 METAR KSEA 201853Z 00000KT 10SM FEW030 BKN050 BKN230 14/08 A3021 RMK AO2 SLP237 T01390078 (JC)","FM-15","7",,,,,,,,,,,,,,,,,,,,,,,,,,,"2007-05-17"
"72793024233","2020-10-20T11:45:00","FM-16","7",,,,,,,,,,,,,,,,,,,,,,,,,,,,,,,,,,,,,,,"30.20","45","57",,,,,"64",,"BKN:07 25 BKN:07 50 BKN:07 230","29.73","10.00","51","260",,"6",,,,,,,,,,,,,,,,,,,,,,,,,,,,,,,,,,,,,"MET10510/20/20 11:45:02 SPECI KSEA 201945Z 26005KT 10SM BKN025 BKN050 BKN230 14/07 A3020 RMK AO2 T01390072 (JC)","FM-16","7",,,,,,,,,,,,,,,,,,,,,,,,,,,"2007-05-17"
"72793024233","2020-10-20T11:53:00","FM-15","7",,,,,,,,,,,,,,,,,,,,,,,,,,,,,,,,,,,,,,,"30.20","45","58","0.00",,,,"62","30.22","BKN:07 25 BKN:07 50 BKN:07 230","29.73","10.00","51","310",,"5",,,,,,,,,,,,,,,,,,,,,,,,,,,,,,,,,,,,,"MET11210/20/20 11:53:02 METAR KSEA 201953Z 31004KT 10SM BKN025 BKN050 BKN230 14/07 A3020 RMK AO2 SLP233 T01440072 (JC)","FM-15","7",,,,,,,,,,,,,,,,,,,,,,,,,,,"2007-05-17"
"72793024233","2020-10-20T12:07:00","FM-16","7",,,,,,,,,,,,,,,,,,,,,,,,,,,,,,,,,,,,,,,"30.20","44","57",,,,,"62",,"SCT:04 24 BKN:07 50 BKN:07 250","29.73","10.00","50","270",,"6",,,,,,,,,,,,,,,,,,,,,,,,,,,,,,,,,,,,,"MET10510/20/20 12:07:02 SPECI KSEA 202007Z 27005KT 10SM SCT024 BKN050 BKN250 14/07 A3020 RMK AO2 T01390067 (JC)","FM-16","7",,,,,,,,,,,,,,,,,,,,,,,,,,,"2007-05-17"
"72793024233","2020-10-20T12:53:00","FM-15","7",,,,,,,,,,,,,,,,,,,,,,,,,,,,,,,,,,,,,,,"30.17","44","58","0.00",,"+0.04","8","60","30.19","FEW:02 26 SCT:04 50 SCT:04 250","29.70","10.00","51","220",,"7",,,,,,,,,,,,,,,,,,,,,,,,,,,,,,,,,,,,,"MET11810/20/20 12:53:02 METAR KSEA 202053Z 22006KT 10SM FEW026 SCT050 SCT250 14/07 A3017 RMK AO2 SLP223 T01440067 58012 (JC)","FM-15","7",,,,,,,,,,,,,,,,,,,,,,,,,,,"2007-05-17"
"72793024233","2020-10-20T13:53:00","FM-15","7",,,,,,,,,,,,,,,,,,,,,,,,,,,,,,,,,,,,,,,"30.15","43","58","0.00",,,,"58","30.16","SCT:04 34 SCT:04 250","29.68","10.00","50","180",,"6",,,,,,,,,,,,,,,,,,,,,,,,,,,,,,,,,,,,,"MET10510/20/20 13:53:02 METAR KSEA 202153Z 18005KT 10SM SCT034 SCT250 14/06 A3015 RMK AO2 SLP215 T01440061 (RS)","FM-15","7",,,,,,,,,,,,,,,,,,,,,,,,,,,"2007-05-17"
"72793024233","2020-10-20T14:53:00","FM-15","7",,,,,,,,,,,,,,,,,,,,,,,,,,,,,,,,,,,,,,,"30.13","42","58","0.00",,,,"56","30.15","SCT:04 34 SCT:04 250","29.66","10.00","50","220",,"5",,,,,,,,,,,,,,,,,,,,,,,,,,,,,,,,,,,,,"MET10510/20/20 14:53:02 METAR KSEA 202253Z 22004KT 10SM SCT034 SCT250 14/06 A3013 RMK AO2 SLP209 T01440056 (RS)","FM-15","7",,,,,,,,,,,,,,,,,,,,,,,,,,,"2007-05-17"
"72793024233","2020-10-20T15:53:00","FM-15","7",,,,,,,,,,,,,,,,,,,,,,,,,,,,,,,,,,,,,,,"30.12","42","58","0.00",,"+0.05","6","56","30.14","SCT:04 36 SCT:04 250","29.65","10.00","50","260",,"5",,,,,,,,,,,,,,,,,,,,,,,,,,,,,,,,,,,,,"MET12310/20/20 15:53:02 METAR KSEA 202353Z 26004KT 10SM SCT036 SCT250 14/06 A3012 RMK AO2 SLP207 T01440056 10150 20122 56016 (RS)","FM-15","7",,,,,,,,,,,,,,,,,,,,,,,,,,,"2007-05-17"
"72793024233","2020-10-20T16:00:00","FM-12","4",,,,,,,,,,,,,,,,,,,,,,,,,,,,,,,,,,,,,,,,"42","58",,,"+0.05","6","56","30.14","41","29.64","9.94","50","260",,"5",,,,,,,,,,,,,,,,,,,,,,,,,,,,,,,,,,,,,"SYN08072793 32666 42604 10144 20056 30036 40207 56016 92353 333 10150 20100 555 92100=","FM-12","4",,,,,,,,,,,,,,,,,,,,,,,,,,,"2007-05-17"
"72793024233","2020-10-20T16:53:00","FM-15","7",,,,,,,,,,,,,,,,,,,,,,,,,,,,,,,,,,,,,,,"30.11","44","56","0.00",,,,"65","30.13","SCT:04 36 SCT:04 250","29.64","10.00","50","000",,"0",,,,,,,,,,,,,,,,,,,,,,,,,,,,,,,,,,,,,"MET10010/20/20 16:53:01 METAR KSEA 210053Z 00000KT 10SM SCT036 SCT250 13/07 A3011 RMK AO2 SLP202 T01330067","FM-15","7",,,,,,,,,,,,,,,,,,,,,,,,,,,"2007-05-17"
"72793024233","2020-10-20T17:53:00","FM-15","7",,,,,,,,,,,,,,,,,,,,,,,,,,,,,,,,,,,,,,,"30.11","43","54","0.00",,,,"67","30.13","SCT:04 36 SCT:04 250","29.64","10.00","49","000",,"0",,,,,,,,,,,,,,,,,,,,,,,,,,,,,,,,,,,,,"MET10010/20/20 17:53:01 METAR KSEA 210153Z 00000KT 10SM SCT036 SCT250 12/06 A3011 RMK AO2 SLP203 T01220061","FM-15","7",,,,,,,,,,,,,,,,,,,,,,,,,,,"2007-05-17"
"72793024233","2020-10-20T18:53:00","FM-15","7",,,,,,,,,,,,,,,,,,,,,,,,,,,,,,,,,,,,,,,"30.11","45","52","0.00",,"+0.01","6","77","30.13","SCT:04 39 BKN:07 55","29.64","10.00","49","160",,"3",,,,,,,,,,,,,,,,,,,,,,,,,,,,,,,,,,,,,"MET10610/20/20 18:53:01 METAR KSEA 210253Z 16003KT 10SM SCT039 BKN055 11/07 A3011 RMK AO2 SLP204 T01110072 56004","FM-15","7",,,,,,,,,,,,,,,,,,,,,,,,,,,"2007-05-17"
"72793024233","2020-10-20T19:53:00","FM-15","7",,,,,,,,,,,,,,,,,,,,,,,,,,,,,,,,,,,,,,,"30.11","46","52","0.00",,,,"80","30.13","BKN:07 34","29.64","10.00","49","000",,"0",,,,,,,,,,,,,,,,,,,,,,,,,,,,,,,,,,,,,"MET09310/20/20 19:53:01 METAR KSEA 210353Z 00000KT 10SM BKN034 11/08 A3011 RMK AO2 SLP203 T01110078","FM-15","7",,,,,,,,,,,,,,,,,,,,,,,,,,,"2007-05-17"
"72793024233","2020-10-20T20:53:00","FM-15","7",,,,,,,,,,,,,,,,,,,,,,,,,,,,,,,,,,,,,,,"30.11","45","50","0.00",,,,"83","30.13","FEW:02 35","29.64","10.00","48","040",,"3",,,,,,,,,,,,,,,,,,,,,,,,,,,,,,,,,,,,,"MET09310/20/20 20:53:01 METAR KSEA 210453Z 04003KT 10SM FEW035 10/07 A3011 RMK AO2 SLP203 T01000072","FM-15","7",,,,,,,,,,,,,,,,,,,,,,,,,,,"2007-05-17"
"72793024233","2020-10-20T21:53:00","FM-15","7",,,,,,,,,,,,,,,,,,,,,,,,,,,,,,,,,,,,,,,"30.10","43","47","0.00",,"+0.01","8","86","30.12","FEW:02 35","29.63","10.00","45","160",,"7",,,,,,,,,,,,,,,,,,,,,,,,,,,,,,,,,,,,,"MET11110/20/20 21:53:01 METAR KSEA 210553Z 16006KT 10SM FEW035 08/06 A3010 RMK AO2 SLP199 T00830061 10144 20083 58005","FM-15","7",,,,,,,,,,,,,,,,,,,,,,,,,,,"2007-05-17"
"72793024233","2020-10-20T22:00:00","FM-12","4",,,,,,,,,,,,,,,,,,,,,,,,,,,,,,,,,,,,,,,,"43","47",,,"+0.01","8","86","30.12","41","29.62","9.94","45","160",,"7",,,,,,,,,,,,,,,,,,,,,,,,,,,,,,,,,,,,,"SYN08072793 32666 21606 10083 20061 30029 40199 58005 90553 333 10144 20083 555 92106=","FM-12","4",,,,,,,,,,,,,,,,,,,,,,,,,,,"2007-05-17"
"72793024233","2020-10-20T22:53:00","FM-15","7",,,,,,,,,,,,,,,,,,,,,,,,,,,,,,,,,,,,,,,"30.09","44","48","0.00",,,,"86","30.11","SCT:04 65","29.62","10.00","46","150",,"5",,,,,,,,,,,,,,,,,,,,,,,,,,,,,,,,,,,,,"MET09310/20/20 22:53:01 METAR KSEA 210653Z 15004KT 10SM SCT065 09/07 A3009 RMK AO2 SLP196 T00890067","FM-15","7",,,,,,,,,,,,,,,,,,,,,,,,,,,"2007-05-17"
"72793024233","2020-10-20T23:53:00","FM-15","7",,,,,,,,,,,,,,,,,,,,,,,,,,,,,,,,,,,,,,,"30.09","44","47","0.00",,,,"90","30.11","BKN:07 80 BKN:07 90","29.62","10.00","46","160",,"7",,,,,,,,,,,,,,,,,,,,,,,,,,,,,,,,,,,,,"MET11010/20/20 23:53:01 METAR KSEA 210753Z 16006KT 10SM BKN080 BKN090 08/07 A3009 RMK AO2 SLP196 T00830067 401500083","FM-15","7",,,,,,,,,,,,,,,,,,,,,,,,,,,"2007-05-17"
"72793024233","2020-10-20T23:59:00","SOD  ","6",,,,,,,,,,,,,,,,,"46","53","77","30.19","29.69","49","3.7","0","1.5","12","59","47","220","14","T","0","0.0","190","9","RA",,,,,,,,,,,,,,,,,,,,,,,,,,,,,,,,,,,,,,,,,,,,,,,,,,,,,,,"SOD73924 HR PRECIPITATION (IN):    T SNOW DEPTH (IN):0     24 HR SNOWFALL (IN):0.0  24 HR MAX TEMP (F): 5924 HR MIN TEMP (F): 47AVERAGE STATION PRESSURE:29.690 MINIMUM SEA LEVEL PRESSURE:30.11 TIME OF OCCURRENCE:2359 PEAK WIND SPEED (MPH): 14 PEAK WIND DIR (DEG):220 PEAK WIND TIME (LST):      FASTEST 2MIN SPEED (MPH):  9FASTEST 2MIN DIR (DEG):190 FASTEST 2MIN TIME (LST):     AVERAGE WIND SPEED (MPH): 3.7 24 HR AVG TEMP (F): 53DEPART FROM NORMAL:  1  HEATING DEGREE DAYS: 12 COOLING DEGREE DAYS:  0 LATEST DAY MAX TEMP (0700-1900 LST):59  LATEST NIGHT MIN TEMP(1900-0800 LST):50 HOURLY INCREMENTAL PRECIPITATION VALUES (IN):.00 0.00 0.00 T    T    0.00 0.00 0.00 0.00 0.00 0.00 0.00 0.00 0.00 0.00 0.00 0.00 0.00 0.00 0.00 0.00 0.00 0.00 0.00","SOD  ","6",,,,,,,,,,,,,,,,,,,,,,,,,"0636","1711","2007-05-17"
"72793024233","2020-10-21T00:13:00","FM-16","7",,,,,,,,,,,,,,,,,,,,,,,,,,,,,,,,,,,,,,,"30.09","45","48",,,,,"89",,"BKN:07 10 OVC:08 90","29.62","10.00","47","190",,"6",,,,,,,,,,,,,,,,,,,,,,,,,,,,,,,,,,,,,"MET09810/21/20 00:13:02 SPECI KSEA 210813Z 19005KT 10SM BKN010 OVC090 09/07 A3009 RMK AO2 T00890072 (TL)","FM-16","7",,,,,,,,,,,,,,,,,,,,,,,,,,,"2007-05-17"
"72793024233","2020-10-21T00:53:00","FM-15","7",,,,,,,,,,,,,,,,,,,,,,,,,,,,,,,,,,,,,,,"30.09","46","49","0.00",,"+0.01","6","90","30.11","OVC:08 11","29.62","10.00","48","180",,"6",,,,,,,,,,,,,,,,,,,,,,,,,,,,,,,,,,,,,"MET10410/21/20 00:53:02 METAR KSEA 210853Z 18005KT 10SM OVC011 09/08 A3009 RMK AO2 SLP195 T00940078 56003 (TL)","FM-15","7",,,,,,,,,,,,,,,,,,,,,,,,,,,"2007-05-17"
"72793024233","2020-10-21T01:23:00","FM-16","7",,,,,,,,,,,,,,,,,,,,,,,,,,,,,,,,,,,,,,,"30.08","46","49",,,,,"90",,"BKN:07 7 OVC:08 11","29.61","10.00","48","190",,"6",,,,,,,,,,,,,,,,,,,,,,,,,,,,,,,,,,,,,"MET09810/21/20 01:23:02 SPECI KSEA 210923Z 19005KT 10SM BKN007 OVC011 09/08 A3008 RMK AO2 T00940078 (TL)","FM-16","7",,,,,,,,,,,,,,,,,,,,,,,,,,,"2007-05-17"
"72793024233","2020-10-21T01:53:00","FM-15","7",,,,,,,,,,,,,,,,,,,,,,,,,,,,,,,,,,,,,,,"30.07","46","49","0.00",,,,"90","30.09","OVC:08 6","29.60","10.00","48","150",,"6",,,,,,,,,,,,,,,,,,,,,,,,,,,,,,,,,,,,,"MET09810/21/20 01:53:02 METAR KSEA 210953Z 15005KT 10SM OVC006 09/08 A3007 RMK AO2 SLP190 T00940078 (TL)","FM-15","7",,,,,,,,,,,,,,,,,,,,,,,,,,,"2007-05-17"
"72793024233","2020-10-21T02:53:00","FM-15","7",,,,,,,,,,,,,,,,,,,,,,,,,,,,,,,,,,,,,,,"30.07","45","49","0.00",,,,"86","30.09","OVC:08 7","29.60","10.00","47","160",,"3",,,,,,,,,,,,,,,,,,,,,,,,,,,,,,,,,,,,,"MET09810/21/20 02:53:02 METAR KSEA 211053Z 16003KT 10SM OVC007 09/07 A3007 RMK AO2 SLP189 T00940072 (TL)","FM-15","7",,,,,,,,,,,,,,,,,,,,,,,,,,,"2007-05-17"
"72793024233","2020-10-21T03:53:00","FM-15","7",,,,,,,,,,,,,,,,,,,,,,,,,,,,,,,,,,,,,,,"30.07","44","49","T","-RA:02 |RA |RA","+0.02","6","83","30.09","OVC:08 9","29.60","7.00","47","020",,"6",,,,,,,,,,,,,,,,,,,,,,,,,,,,,,,,,,,,,"MET13510/21/20 03:53:02 METAR KSEA 211153Z 02005KT 7SM -RA OVC009 09/07 A3007 RMK AO2 RAB48 SLP189 60000 T00940067 10094 20083 56006 PNO (TL)","FM-15","7",,,,,,,,,,,,,,,,,,,,,,,,,,,"2007-05-17"
"72793024233","2020-10-21T04:00:00","FM-12","4",,,,,,,,,,,,,,,,,,,,,,,,,,,,,,,,,,,,,,,,"44","49",,"||RA","+0.02","6","83","30.09","8","29.59","6.84","47","020",,"6",,,,,,,,,,,,,,,,,,,,,,,,,,,,,,,,,,,,,"SYN09272793 11361 80205 10094 20067 30019 40189 56006 69901 761// 91153 333 10150 20083 555 92112=","FM-12","4",,,,,,,,,,,,,,,,,,,,,,,,,,,"2007-05-17"
"72793024233","2020-10-21T04:21:00","FM-16","7",,,,,,,,,,,,,,,,,,,,,,,,,,,,,,,,,,,,,,,"30.07","46","49","0.01",,,,"90",,"FEW:02 9 SCT:04 20 BKN:07 28","29.60","10.00","48","000",,"0",,,,,,,,,,,,,,,,,,,,,,,,,,,,,,,,,,,,,"MET11910/21/20 04:21:02 SPECI KSEA 211221Z 00000KT 10SM FEW009 SCT020 BKN028 09/08 A3007 RMK AO2 RAE08 P0001 T00940078 $ (TL)","FM-16","7",,,,,,,,,,,,,,,,,,,,,,,,,,,"2007-05-17"
"72793024233","2020-10-21T04:53:00","FM-15","7",,,,,,,,,,,,,,,,,,,,,,,,,,,,,,,,,,,,,,,"30.08","46","48","0.01",,,,"93","30.10","FEW:02 9 SCT:04 20 OVC:08 28","29.61","10.00","47","170",,"5",,,,,,,,,,,,,,,,,,,,,,,,,,,,,,,,,,,,,"MET12610/21/20 04:53:02 METAR KSEA 211253Z 17004KT 10SM FEW009 SCT020 OVC028 09/08 A3008 RMK AO2 RAE08 SLP193 P0001 T00890078 $ (JC)","FM-15","7",,,,,,,,,,,,,,,,,,,,,,,,,,,"2007-05-17"
"72793024233","2020-10-21T05:49:00","FM-16","7",,,,,,,,,,,,,,,,,,,,,,,,,,,,,,,,,,,,,,,"30.09","45","46",,,,,"93",,"FEW:02 9 SCT:04 22 SCT:04 41","29.62","10.00","46","160",,"9",,,,,,,,,,,,,,,,,,,,,,,,,,,,,,,,,,,,,"MET09510/21/20 05:49:02 SPECI KSEA 211349Z 16008KT 10SM FEW009 SCT022 SCT041 08/07 A3009 RMK AO2 (JC)","FM-16","7",,,,,,,,,,,,,,,,,,,,,,,,,,,"2007-05-17"
"72793024233","2020-10-21T05:53:00","FM-15","7",,,,,,,,,,,,,,,,,,,,,,,,,,,,,,,,,,,,,,,"30.09","44","47","0.00",,,,"90","30.11","FEW:02 9 SCT:04 22 SCT:04 41","29.62","10.00","46","160",,"8",,,,,,,,,,,,,,,,,,,,,,,,,,,,,,,,,,,,,"MET11210/21/20 05:53:02 METAR KSEA 211353Z 16007KT 10SM FEW009 SCT022 SCT041 08/07 A3009 RMK AO2 SLP197 T00830067 (JC)","FM-15","7",,,,,,,,,,,,,,,,,,,,,,,,,,,"2007-05-17"
"72793024233","2020-10-21T06:53:00","FM-15","7",,,,,,,,,,,,,,,,,,,,,,,,,,,,,,,,,,,,,,,"30.10","44","47","0.00",,"-0.03","1","90","30.12","FEW:02 8 SCT:04 23 OVC:08 44","29.63","10.00","46","170",,"6",,,,,,,,,,,,,,,,,,,,,,,,,,,,,,,,,,,,,"MET12410/21/20 06:53:02 METAR KSEA 211453Z 17005KT 10SM FEW008 SCT023 OVC044 08/07 A3010 RMK AO2 SLP200 60001 T00830067 51010 (JC)","FM-15","7",,,,,,,,,,,,,,,,,,,,,,,,,,,"2007-05-17"
"72793024233","2020-10-21T07:53:00","FM-15","7",,,,,,,,,,,,,,,,,,,,,,,,,,,,,,,,,,,,,,,"30.10","44","47","0.00",,,,"90","30.12","FEW:02 8 SCT:04 25 BKN:07 39","29.63","10.00","46","130",,"6",,,,,,,,,,,,,,,,,,,,,,,,,,,,,,,,,,,,,"MET11210/21/20 07:53:02 METAR KSEA 211553Z 13005KT 10SM FEW008 SCT025 BKN039 08/07 A3010 RMK AO2 SLP201 T00830067 (JC)","FM-15","7",,,,,,,,,,,,,,,,,,,,,,,,,,,"2007-05-17"
"72793024233","2020-10-21T08:53:00","FM-15","7",,,,,,,,,,,,,,,,,,,,,,,,,,,,,,,,,,,,,,,"30.11","43","50","0.00",,,,"77","30.13","FEW:02 9 SCT:04 35 SCT:04 250","29.64","10.00","47","150",,"8",,,,,,,,,,,,,,,,,,,,,,,,,,,,,,,,,,,,,"MET12410/21/20 08:53:02 METAR KSEA 211653Z 15007KT 10SM FEW009 SCT035 SCT250 10/06 A3011 RMK AO2 SLP203 SHRA DSNT N T01000061 (JC)","FM-15","7",,,,,,,,,,,,,,,,,,,,,,,,,,,"2007-05-17"
"72793024233","2020-10-21T09:41:00","FM-16","7",,,,,,,,,,,,,,,,,,,,,,,,,,,,,,,,,,,,,,,"30.12","42","49",,,,,"77",,"FEW:02 9 BKN:07 20 BKN:07 250","29.65","10.00","46","210",,"7",,,,,,,,,,,,,,,,,,,,,,,,,,,,,,,,,,,,,"MET10510/21/20 09:41:02 SPECI KSEA 211741Z 21006KT 10SM FEW009 BKN020 BKN250 09/06 A3012 RMK AO2 T00940056 (JC)","FM-16","7",,,,,,,,,,,,,,,,,,,,,,,,,,,"2007-05-17"
"72793024233","2020-10-21T09:53:00","FM-15","7",,,,,,,,,,,,,,,,,,,,,,,,,,,,,,,,,,,,,,,"30.12","43","50","0.00",,"-0.02","3","77","30.14","FEW:02 9 BKN:07 20","29.65","10.00","47","210",,"5",,,,,,,,,,,,,,,,,,,,,,,,,,,,,,,,,,,,,"MET12910/21/20 09:53:02 METAR KSEA 211753Z 21004KT 10SM FEW009 BKN020 10/06 A3012 RMK AO2 SLP207 60001 T01000061 10106 20083 53006 (JC)","FM-15","7",,,,,,,,,,,,,,,,,,,,,,,,,,,"2007-05-17"
"72793024233","2020-10-21T10:00:00","FM-12","4",,,,,,,,,,,,,,,,,,,,,,,,,,,,,,,,,,,,,,,,"43","50",,,"-0.02","3","77","30.14","8","29.64","9.94","47","210",,"5",,,,,,,,,,,,,,,,,,,,,,,,,,,,,,,,,,,,,"SYN08672793 12366 62104 10100 20061 30036 40207 53006 69931 91753 333 10106 20083 555 92118=","FM-12","4",,,,,,,,,,,,,,,,,,,,,,,,,,,"2007-05-17"
"72793024233","2020-10-21T10:41:00","FM-16","7",,,,,,,,,,,,,,,,,,,,,,,,,,,,,,,,,,,,,,,"30.15","41","50",,"TS:7 |TS TS |",,,"71",,"FEW:02 9 BKN:07 20 OVC:08 36","29.68","10.00","46","180",,"6",,,,,,,,,,,,,,,,,,,,,,,,,,,,,,,,,,,,,"MET14410/21/20 10:41:02 SPECI KSEA 211841Z 18005KT 10SM TS FEW009 BKN020CB OVC036 10/05 A3015 RMK AO2 TSB41 OCNL LTGIC VC N TS N MOV SE T01000050 (JC)","FM-16","7",,,,,,,,,,,,,,,,,,,,,,,,,,,"2007-05-17"
"72793024233","2020-10-21T10:53:00","FM-15","7",,,,,,,,,,,,,,,,,,,,,,,,,,,,,,,,,,,,,,,"30.15","40","46","T","TS:7 -RA:02 |RA TS TS |RA",,,"79","30.17","FEW:02 9 BKN:07 24 BKN:07 36","29.68","10.00","43","010",,"17",,,,,,,,,,,,,,,,,,,,,,,,,,,,,,,,,,,,,"MET16610/21/20 10:53:02 METAR KSEA 211853Z 01015KT 10SM -TSRA FEW009 BKN024CB BKN036 08/04 A3015 RMK AO2 RAB42 TSB41 SLP217 OCNL LTGIC VC N TS N MOV SE P0000 T00780044 (JC)","FM-15","7",,,,,,,,,,,,,,,,,,,,,,,,,,,"2007-05-17"
"72793024233","2020-10-21T11:03:00","FM-16","7",,,,,,,,,,,,,,,,,,,,,,,,,,,,,,,,,,,,,,,"30.15","40","45","T","RA:02 |RA |RA",,,"83",,"FEW:02 9 BKN:07 26 BKN:07 35","29.68","6.00","43","010",,"17",,,,,,,,,,,,,,,,,,,,,,,,,,,,,,,,,,,,,"MET11910/21/20 11:03:02 SPECI KSEA 211903Z 01015KT 6SM RA FEW009 BKN026 BKN035 07/04 A3015 RMK AO2 TSE03 P0000 T00720044 (JC)","FM-16","7",,,,,,,,,,,,,,,,,,,,,,,,,,,"2007-05-17"
"72793024233","2020-10-21T11:33:00","FM-16","7",,,,,,,,,,,,,,,,,,,,,,,,,,,,,,,,,,,,,,,"30.15","41","47","0.04",,,,"80",,"FEW:02 9 BKN:07 31 BKN:07 85","29.68","10.00","44","050",,"7",,,,,,,,,,,,,,,,,,,,,,,,,,,,,,,,,,,,,"MET12310/21/20 11:33:02 SPECI KSEA 211933Z 05006KT 10SM FEW009 BKN031 BKN085 08/05 A3015 RMK AO2 RAE27 TSE03 P0004 T00830050 (JC)","FM-16","7",,,,,,,,,,,,,,,,,,,,,,,,,,,"2007-05-17"
"72793024233","2020-10-21T11:53:00","FM-15","7",,,,,,,,,,,,,,,,,,,,,,,,,,,,,,,,,,,,,,,"30.16","40","48","0.04",,,,"74","30.18","FEW:02 9 SCT:04 32 BKN:07 60","29.69","10.00","44","060",,"7",,,,,,,,,,,,,,,,,,,,,,,,,,,,,,,,,,,,,"MET13010/21/20 11:53:02 METAR KSEA 211953Z 06006KT 10SM FEW009 SCT032 BKN060 09/04 A3016 RMK AO2 RAE27 TSE03 SLP219 P0004 T00890044 (JC)","FM-15","7",,,,,,,,,,,,,,,,,,,,,,,,,,,"2007-05-17"
"72793024233","2020-10-21T12:53:00","FM-15","7",,,,,,,,,,,,,,,,,,,,,,,,,,,,,,,,,,,,,,,"30.16","42","52","0.00",,"-0.04","1","69","30.18","SCT:04 20 BKN:07 34 BKN:07 49","29.69","10.00","47","070",,"7",,,,,,,,,,,,,,,,,,,,,,,,,,,,,,,,,,,,,"MET13410/21/20 12:53:02 METAR KSEA 212053Z 07006KT 10SM SCT020 BKN034 BKN049 11/06 A3016 RMK AO2 SLP220 SHRA SE-S 60004 T01110056 51013 (JC)","FM-15","7",,,,,,,,,,,,,,,,,,,,,,,,,,,"2007-05-17"
"72793024233","2020-10-21T13:53:00","FM-15","7",,,,,,,,,,,,,,,,,,,,,,,,,,,,,,,,,,,,,,,"30.17","42","50","0.00",,,,"74","30.19","FEW:02 19 BKN:07 50 BKN:07 70","29.70","10.00","46","100",,"3",,,,,,,,,,,,,,,,,,,,,,,,,,,,,,,,,,,,,"MET11210/21/20 13:53:02 METAR KSEA 212153Z 10003KT 10SM FEW019 BKN050 BKN070 10/06 A3017 RMK AO2 SLP225 T01000056 (RS)","FM-15","7",,,,,,,,,,,,,,,,,,,,,,,,,,,"2007-05-17"
"72793024233","2020-10-21T14:53:00","FM-15","7",,,,,,,,,,,,,,,,,,,,,,,,,,,,,,,,,,,,,,,"30.18","41","52","0.00",,,,"66","30.20","FEW:02 25 SCT:04 60 BKN:07 85","29.71","10.00","47","000",,"0",,,,,,,,,,,,,,,,,,,,,,,,,,,,,,,,,,,,,"MET11210/21/20 14:53:02 METAR KSEA 212253Z 00000KT 10SM FEW025 SCT060 BKN085 11/05 A3018 RMK AO2 SLP228 T01110050 (RS)","FM-15","7",,,,,,,,,,,,,,,,,,,,,,,,,,,"2007-05-17"
"72793024233","2020-10-21T15:53:00","FM-15","7",,,,,,,,,,,,,,,,,,,,,,,,,,,,,,,,,,,,,,,"30.20","42","51","0.00",,"-0.04","3","71","30.22","FEW:02 25 SCT:04 40 BKN:07 80","29.73","10.00","47","000",,"0",,,,,,,,,,,,,,,,,,,,,,,,,,,,,,,,,,,,,"MET13610/21/20 15:53:02 METAR KSEA 212353Z 00000KT 10SM FEW025 SCT040 BKN080 11/06 A3020 RMK AO2 SLP233 60004 T01060056 10117 20072 53013 (RS)","FM-15","7",,,,,,,,,,,,,,,,,,,,,,,,,,,"2007-05-17"
"72793024233","2020-10-21T16:00:00","FM-12","4",,,,,,,,,,,,,,,,,,,,,,,,,,,,,,,,,,,,,,,,"42","51",,,"-0.04","3","71","30.22","26","29.72","9.94","47","000",,"0",,,,,,,,,,,,,,,,,,,,,,,,,,,,,,,,,,,,,"SYN08672793 12566 60000 10106 20056 30063 40233 53013 60011 92353 333 10117 20072 555 92200=","FM-12","4",,,,,,,,,,,,,,,,,,,,,,,,,,,"2007-05-17"
"72793024233","2020-10-21T16:53:00","FM-15","7",,,,,,,,,,,,,,,,,,,,,,,,,,,,,,,,,,,,,,,"30.21","41","50","0.00",,,,"71","30.23","SCT:04 34 SCT:04 70","29.74","10.00","46","100",,"6",,,,,,,,,,,,,,,,,,,,,,,,,,,,,,,,,,,,,"MET10010/21/20 16:53:01 METAR KSEA 220053Z 10005KT 10SM SCT034 SCT070 10/05 A3021 RMK AO2 SLP237 T01000050","FM-15","7",,,,,,,,,,,,,,,,,,,,,,,,,,,"2007-05-17"
"72793024233","2020-10-21T17:53:00","FM-15","7",,,,,,,,,,,,,,,,,,,,,,,,,,,,,,,,,,,,,,,"30.22","41","47","0.00",,,,"80","30.24","SCT:04 36","29.75","10.00","44","190",,"6",,,,,,,,,,,,,,,,,,,,,,,,,,,,,,,,,,,,,"MET09310/21/20 17:53:01 METAR KSEA 220153Z 19005KT 10SM SCT036 08/05 A3022 RMK AO2 SLP241 T00830050","FM-15","7",,,,,,,,,,,,,,,,,,,,,,,,,,,"2007-05-17"
"72793024233","2020-10-21T18:53:00","FM-15","7",,,,,,,,,,,,,,,,,,,,,,,,,,,,,,,,,,,,,,,"30.24","39","46","0.00",,"-0.04","3","77","30.26","SCT:04 45","29.77","10.00","43","000",,"0",,,,,,,,,,,,,,,,,,,,,,,,,,,,,,,,,,,,,"MET09910/21/20 18:53:02 METAR KSEA 220253Z 00000KT 10SM SCT045 08/04 A3024 RMK AO2 SLP247 T00780039 53013","FM-15","7",,,,,,,,,,,,,,,,,,,,,,,,,,,"2007-05-17"
"72793024233","2020-10-21T19:53:00","FM-15","7",,,,,,,,,,,,,,,,,,,,,,,,,,,,,,,,,,,,,,,"30.25","39","44","0.00",,,,"83","30.27","FEW:02 45","29.78","10.00","42","150",,"5",,,,,,,,,,,,,,,,,,,,,,,,,,,,,,,,,,,,,"MET09310/21/20 19:53:02 METAR KSEA 220353Z 15004KT 10SM FEW045 07/04 A3025 RMK AO2 SLP252 T00670039","FM-15","7",,,,,,,,,,,,,,,,,,,,,,,,,,,"2007-05-17"
"72793024233","2020-10-21T20:53:00","FM-15","7",,,,,,,,,,,,,,,,,,,,,,,,,,,,,,,,,,,,,,,"30.26","39","44","0.00",,,,"83","30.29","SCT:04 35","29.79","10.00","42","120",,"7",,,,,,,,,,,,,,,,,,,,,,,,,,,,,,,,,,,,,"MET09310/21/20 20:53:02 METAR KSEA 220453Z 12006KT 10SM SCT035 07/04 A3026 RMK AO2 SLP256 T00670039","FM-15","7",,,,,,,,,,,,,,,,,,,,,,,,,,,"2007-05-17"
"72793024233","2020-10-21T21:53:00","FM-15","7",,,,,,,,,,,,,,,,,,,,,,,,,,,,,,,,,,,,,,,"30.28","40","44","0.00",,"-0.04","3","85","30.30","SCT:04 34 BKN:07 41","29.81","10.00","42","130",,"6",,,,,,,,,,,,,,,,,,,,,,,,,,,,,,,,,,,,,"MET11810/21/20 21:53:02 METAR KSEA 220553Z 13005KT 10SM SCT034 BKN041 07/04 A3028 RMK AO2 SLP261 T00670044 10111 20061 53014","FM-15","7",,,,,,,,,,,,,,,,,,,,,,,,,,,"2007-05-17"
"72793024233","2020-10-21T22:00:00","FM-12","4",,,,,,,,,,,,,,,,,,,,,,,,,,,,,,,,,,,,,,,,"40","44",,,"-0.04","3","85","30.30","41","29.80","9.94","42","130",,"6",,,,,,,,,,,,,,,,,,,,,,,,,,,,,,,,,,,,,"SYN08072793 32666 61305 10067 20044 30090 40261 53014 90553 333 10111 20061 555 92206=","FM-12","4",,,,,,,,,,,,,,,,,,,,,,,,,,,"2007-05-17"
"72793024233","2020-10-21T22:53:00","FM-15","7",,,,,,,,,,,,,,,,,,,,,,,,,,,,,,,,,,,,,,,"30.28","38","43","0.00",,,,"82","30.31","FEW:02 24 BKN:07 43","29.81","10.00","41","120",,"5",,,,,,,,,,,,,,,,,,,,,,,,,,,,,,,,,,,,,"MET10010/21/20 22:53:02 METAR KSEA 220653Z 12004KT 10SM FEW024 BKN043 06/03 A3028 RMK AO2 SLP264 T00610033","FM-15","7",,,,,,,,,,,,,,,,,,,,,,,,,,,"2007-05-17"
"72793024233","2020-10-21T23:53:00","FM-15","7",,,,,,,,,,,,,,,,,,,,,,,,,,,,,,,,,,,,,,,"30.29","38","42","0.00",,,,"85","30.31","SCT:04 38","29.82","10.00","40","130",,"5",,,,,,,,,,,,,,,,,,,,,,,,,,,,,,,,,,,,,"MET10310/21/20 23:53:02 METAR KSEA 220753Z 13004KT 10SM SCT038 06/03 A3029 RMK AO2 SLP265 T00560033 401170056","FM-15","7",,,,,,,,,,,,,,,,,,,,,,,,,,,"2007-05-17"
"72793024233","2020-10-21T23:59:00","SOD  ","6",,,,,,,,,,,,,,,,,"42","48","81","30.19","29.70","45","5.4","0","-3.3","17","53","42","010","22","0.05","0","0.0","020","18","TS RA",,,,,,,,,,,,,,,,,,,,,,,,,,,,,,,,,,,,,,,,,,,,,,,,,,,,,,,"SOD75824 HR PRECIPITATION (IN): 0.05 SNOW DEPTH (IN):0     24 HR SNOWFALL (IN):0.0  WEATHER(CODE):138  24 HR MAX TEMP (F): 5324 HR MIN TEMP (F): 42AVERAGE STATION PRESSURE:29.695 MINIMUM SEA LEVEL PRESSURE:30.08 TIME OF OCCURRENCE:0345 PEAK WIND SPEED (MPH): 22 PEAK WIND DIR (DEG): 10 PEAK WIND TIME (LST):      FASTEST 2MIN SPEED (MPH): 18FASTEST 2MIN DIR (DEG): 20 FASTEST 2MIN TIME (LST):     AVERAGE WIND SPEED (MPH): 5.4 24 HR AVG TEMP (F): 48DEPART FROM NORMAL: -3  HEATING DEGREE DAYS: 17 COOLING DEGREE DAYS:  0 LATEST DAY MAX TEMP (0700-1900 LST):53  LATEST NIGHT MIN TEMP(1900-0800 LST):47 HOURLY INCREMENTAL PRECIPITATION VALUES (IN):.00 0.00 0.00 T    0.01 0.00 0.00 0.00 0.00 0.00 T    0.04 0.00 0.00 0.00 0.00 0.00 0.00 0.00 0.00 0.00 0.00 0.00 0.00","SOD  ","6",,,,,,,,,,,,,,,,,,,,,,,,,"0638","1709","2007-05-17"
"72793024233","2020-10-22T00:53:00","FM-15","7",,,,,,,,,,,,,,,,,,,,,,,,,,,,,,,,,,,,,,,"30.30","38","42","0.00",,"-0.02","3","85","30.32","SCT:04 23","29.83","10.00","40","000",,"0",,,,,,,,,,,,,,,,,,,,,,,,,,,,,,,,,,,,,"MET10410/22/20 00:53:02 METAR KSEA 220853Z 00000KT 10SM SCT023 06/03 A3030 RMK AO2 SLP269 T00560033 53007 (TL)","FM-15","7",,,,,,,,,,,,,,,,,,,,,,,,,,,"2007-05-17"
"72793024233","2020-10-22T01:01:00","FM-16","7",,,,,,,,,,,,,,,,,,,,,,,,,,,,,,,,,,,,,,,"30.31","38","42",,,,,"85",,"BKN:07 23","29.84","10.00","40","090",,"5",,,,,,,,,,,,,,,,,,,,,,,,,,,,,,,,,,,,,"MET09110/22/20 01:01:02 SPECI KSEA 220901Z 09004KT 10SM BKN023 06/03 A3031 RMK AO2 T00560033 (TL)","FM-16","7",,,,,,,,,,,,,,,,,,,,,,,,,,,"2007-05-17"
"72793024233","2020-10-22T01:53:00","FM-15","7",,,,,,,,,,,,,,,,,,,,,,,,,,,,,,,,,,,,,,,"30.32","39","42","0.00",,,,"89","30.35","BKN:07 24","29.85","10.00","41","140",,"5",,,,,,,,,,,,,,,,,,,,,,,,,,,,,,,,,,,,,"MET09810/22/20 01:53:02 METAR KSEA 220953Z 14004KT 10SM BKN024 06/04 A3032 RMK AO2 SLP277 T00560039 (TL)","FM-15","7",,,,,,,,,,,,,,,,,,,,,,,,,,,"2007-05-17"
"72793024233","2020-10-22T02:03:00","FM-16","7",,,,,,,,,,,,,,,,,,,,,,,,,,,,,,,,,,,,,,,"30.33","39","42",,,,,"89",,"FEW:02 7 BKN:07 25","29.86","10.00","41","130",,"5",,,,,,,,,,,,,,,,,,,,,,,,,,,,,,,,,,,,,"MET09810/22/20 02:03:02 SPECI KSEA 221003Z 13004KT 10SM FEW007 BKN025 06/04 A3033 RMK AO2 T00560039 (TL)","FM-16","7",,,,,,,,,,,,,,,,,,,,,,,,,,,"2007-05-17"
"72793024233","2020-10-22T02:53:00","FM-15","7",,,,,,,,,,,,,,,,,,,,,,,,,,,,,,,,,,,,,,,"30.33","39","42","0.00",,,,"89","30.35","BKN:07 25","29.86","10.00","41","120",,"6",,,,,,,,,,,,,,,,,,,,,,,,,,,,,,,,,,,,,"MET09810/22/20 02:53:02 METAR KSEA 221053Z 12005KT 10SM BKN025 06/04 A3033 RMK AO2 SLP278 T00560039 (TL)","FM-15","7",,,,,,,,,,,,,,,,,,,,,,,,,,,"2007-05-17"
"72793024233","2020-10-22T03:41:00","FM-16","7",,,,,,,,,,,,,,,,,,,,,,,,,,,,,,,,,,,,,,,"30.33","38","41",,,,,"89",,"FEW:02 6 SCT:04 26","29.86","10.00","40","130",,"6",,,,,,,,,,,,,,,,,,,,,,,,,,,,,,,,,,,,,"MET09810/22/20 03:41:02 SPECI KSEA 221141Z 13005KT 10SM FEW006 SCT026 05/03 A3033 RMK AO2 T00500033 (TL)","FM-16","7",,,,,,,,,,,,,,,,,,,,,,,,,,,"2007-05-17"
"72793024233","2020-10-22T03:51:00","FM-16","6",,,,,,,,,,,,,,,,,,,,,,,,,,,,,,,,,,,,,,,"30.34","37","41",,,,,"87",,"FEW:02 6 BKN:07 26","29.87","10.00","39","140",,"6",,,,,,,,,,,,,,,,,,,,,,,,,,,,,,,,,,,,,"MET09310/22/20 03:51:02 SPECI KSEA 221151Z 14005KT 10SM FEW006 BKN026 05/03 A3034 RMK AO2 FIBI (TL)","FM-16","6",,,,,,,,,,,,,,,,,,,,,,,,,,,"2007-05-17"
"72793024233","2020-10-22T03:53:00","FM-15","7",,,,,,,,,,,,,,,,,,,,,,,,,,,,,,,,,,,,,,,"30.34","38","40","0.00",,"-0.03","1","93","30.36","FEW:02 6 BKN:07 26","29.87","10.00","39","140",,"6",,,,,,,,,,,,,,,,,,,,,,,,,,,,,,,,,,,,,"MET12910/22/20 03:53:02 METAR KSEA 221153Z 14005KT 10SM FEW006 BKN026 04/03 A3034 RMK AO2 SLP281 70005 T00440033 10072 20044 51011 (TL)","FM-15","7",,,,,,,,,,,,,,,,,,,,,,,,,,,"2007-05-17"
"72793024233","2020-10-22T04:00:00","FM-12","4",,,,,,,,,,,,,,,,,,,,,,,,,,,,,,,,,,,,,,,,"38","40",,,"-0.03","1","93","30.36","5","29.85","9.94","39","140",,"6",,,,,,,,,,,,,,,,,,,,,,,,,,,,,,,,,,,,,"SYN08672793 32266 61405 10044 20033 30110 40281 51011 91153 333 10117 20044 70013 555 92212=","FM-12","4",,,,,,,,,,,,,,,,,,,,,,,,,,,"2007-05-17"
"72793024233","2020-10-22T04:10:00","FM-16","7",,,,,,,,,,,,,,,,,,,,,,,,,,,,,,,,,,,,,,,"30.34","38","41",,,,,"89",,"BKN:07 7","29.87","10.00","40","120",,"5",,,,,,,,,,,,,,,,,,,,,,,,,,,,,,,,,,,,,"MET09110/22/20 04:10:02 SPECI KSEA 221210Z 12004KT 10SM BKN007 05/03 A3034 RMK AO2 T00500033 (TL)","FM-16","7",,,,,,,,,,,,,,,,,,,,,,,,,,,"2007-05-17"
"72793024233","2020-10-22T04:47:00","FM-16","7",,,,,,,,,,,,,,,,,,,,,,,,,,,,,,,,,,,,,,,"30.34","39","41",,,,,"93",,"SCT:04 7 BKN:07 28","29.87","10.00","40","150",,"3",,,,,,,,,,,,,,,,,,,,,,,,,,,,,,,,,,,,,"MET08810/22/20 04:47:02 SPECI KSEA 221247Z 15003KT 10SM SCT007 BKN028 05/04 A3034 RMK AO2 (TL)","FM-16","7",,,,,,,,,,,,,,,,,,,,,,,,,,,"2007-05-17"
"72793024233","2020-10-22T04:53:00","FM-15","7",,,,,,,,,,,,,,,,,,,,,,,,,,,,,,,,,,,,,,,"30.34","39","41","0.00",,,,"93","30.37","FEW:02 7 BKN:07 28","29.87","10.00","40","160",,"3",,,,,,,,,,,,,,,,,,,,,,,,,,,,,,,,,,,,,"MET10510/22/20 04:53:02 METAR KSEA 221253Z 16003KT 10SM FEW007 BKN028 05/04 A3034 RMK AO2 SLP283 T00500039 (LC)","FM-15","7",,,,,,,,,,,,,,,,,,,,,,,,,,,"2007-05-17"
"72793024233","2020-10-22T05:51:00","FM-16","6",,,,,,,,,,,,,,,,,,,,,,,,,,,,,,,,,,,,,,,"30.36","39","43",,,,,"87",,"BKN:07 7 BKN:07 22 OVC:08 35","29.89","10.00","41","160",,"6",,,,,,,,,,,,,,,,,,,,,,,,,,,,,,,,,,,,,"MET10010/22/20 05:51:02 SPECI KSEA 221351Z 16005KT 10SM BKN007 BKN022 OVC035 06/04 A3036 RMK AO2 FIBI (LC)","FM-16","6",,,,,,,,,,,,,,,,,,,,,,,,,,,"2007-05-17"
"72793024233","2020-10-22T05:53:00","FM-15","7",,,,,,,,,,,,,,,,,,,,,,,,,,,,,,,,,,,,,,,"30.36","39","42","0.00",,,,"89","30.38","BKN:07 7 BKN:07 22 OVC:08 35","29.89","10.00","41","150",,"5",,,,,,,,,,,,,,,,,,,,,,,,,,,,,,,,,,,,,"MET11210/22/20 05:53:02 METAR KSEA 221353Z 15004KT 10SM BKN007 BKN022 OVC035 06/04 A3036 RMK AO2 SLP288 T00560039 (LC)","FM-15","7",,,,,,,,,,,,,,,,,,,,,,,,,,,"2007-05-17"
"72793024233","2020-10-22T06:53:00","FM-15","7",,,,,,,,,,,,,,,,,,,,,,,,,,,,,,,,,,,,,,,"30.37","38","43","0.00",,"-0.04","3","82","30.40","OVC:08 6","29.90","10.00","41","130",,"6",,,,,,,,,,,,,,,,,,,,,,,,,,,,,,,,,,,,,"MET10410/22/20 06:53:02 METAR KSEA 221453Z 13005KT 10SM OVC006 06/03 A3037 RMK AO2 SLP294 T00610033 53013 (LC)","FM-15","7",,,,,,,,,,,,,,,,,,,,,,,,,,,"2007-05-17"
"72793024233","2020-10-22T07:53:00","FM-15","7",,,,,,,,,,,,,,,,,,,,,,,,,,,,,,,,,,,,,,,"30.39","38","43","0.00",,,,"82","30.42","OVC:08 6","29.92","10.00","41","150",,"7",,,,,,,,,,,,,,,,,,,,,,,,,,,,,,,,,,,,,"MET09810/22/20 07:53:02 METAR KSEA 221553Z 15006KT 10SM OVC006 06/03 A3039 RMK AO2 SLP301 T00610033 (LC)","FM-15","7",,,,,,,,,,,,,,,,,,,,,,,,,,,"2007-05-17"
"72793024233","2020-10-22T08:53:00","FM-15","7",,,,,,,,,,,,,,,,,,,,,,,,,,,,,,,,,,,,,,,"30.41","40","43","0.00",,,,"89","30.44","OVC:08 5","29.94","10.00","42","180",,"3",,,,,,,,,,,,,,,,,,,,,,,,,,,,,,,,,,,,,"MET09810/22/20 08:53:02 METAR KSEA 221653Z 18003KT 10SM OVC005 06/04 A3041 RMK AO2 SLP307 T00610044 (LC)","FM-15","7",,,,,,,,,,,,,,,,,,,,,,,,,,,"2007-05-17"
"72793024233","2020-10-22T09:28:00","FM-16","7",,,,,,,,,,,,,,,,,,,,,,,,,,,,,,,,,,,,,,,"30.42","41","45",,,,,"86",,"SCT:04 6 BKN:07 23","29.95","10.00","43","000",,"0",,,,,,,,,,,,,,,,,,,,,,,,,,,,,,,,,,,,,"MET09810/22/20 09:28:02 SPECI KSEA 221728Z 00000KT 10SM SCT006 BKN023 07/05 A3042 RMK AO2 T00720050 (LC)","FM-16","7",,,,,,,,,,,,,,,,,,,,,,,,,,,"2007-05-17"
"72793024233","2020-10-22T09:53:00","FM-15","7",,,,,,,,,,,,,,,,,,,,,,,,,,,,,,,,,,,,,,,"30.41","41","46","0.00",,"-0.04","1","83","30.44","FEW:02 6 BKN:07 24","29.94","10.00","44","000",,"0",,,,,,,,,,,,,,,,,,,,,,,,,,,,,,,,,,,,,"MET12310/22/20 09:53:02 METAR KSEA 221753Z 00000KT 10SM FEW006 BKN024 08/05 A3041 RMK AO2 SLP308 T00780050 10078 20044 51013 (LC)","FM-15","7",,,,,,,,,,,,,,,,,,,,,,,,,,,"2007-05-17"
"72793024233","2020-10-22T10:00:00","FM-12","4",,,,,,,,,,,,,,,,,,,,,,,,,,,,,,,,,,,,,,,,"41","46",,,"-0.04","1","83","30.44","5","29.92","9.94","44","000",,"0",,,,,,,,,,,,,,,,,,,,,,,,,,,,,,,,,,,,,"SYN08072793 32266 60000 10078 20050 30133 40308 51013 91753 333 10078 20044 555 92218=","FM-12","4",,,,,,,,,,,,,,,,,,,,,,,,,,,"2007-05-17"
"72793024233","2020-10-22T10:21:00","FM-16","7",,,,,,,,,,,,,,,,,,,,,,,,,,,,,,,,,,,,,,,"30.41","42","48",,,,,"80",,"FEW:02 6 SCT:04 24 BKN:07 50","29.94","10.00","45","VRB",,"3",,,,,,,,,,,,,,,,,,,,,,,,,,,,,,,,,,,,,"MET10510/22/20 10:21:02 SPECI KSEA 221821Z VRB03KT 10SM FEW006 SCT024 BKN050 09/06 A3041 RMK AO2 T00890056 (LC)","FM-16","7",,,,,,,,,,,,,,,,,,,,,,,,,,,"2007-05-17"
"72793024233","2020-10-22T10:53:00","FM-15","7",,,,,,,,,,,,,,,,,,,,,,,,,,,,,,,,,,,,,,,"30.42","39","50","0.00",,,,"66","30.44","FEW:02 17 SCT:04 24 BKN:07 50","29.95","10.00","45","360",,"3",,,,,,,,,,,,,,,,,,,,,,,,,,,,,,,,,,,,,"MET11210/22/20 10:53:02 METAR KSEA 221853Z 36003KT 10SM FEW017 SCT024 BKN050 10/04 A3042 RMK AO2 SLP308 T01000039 (LC)","FM-15","7",,,,,,,,,,,,,,,,,,,,,,,,,,,"2007-05-17"
"72793024233","2020-10-22T11:00:00","FM-16","7",,,,,,,,,,,,,,,,,,,,,,,,,,,,,,,,,,,,,,,"30.42","38","50",,,,,"63",,"OVC:08 24","29.95","10.00","44","020",,"7",,,,,,,,,,,,,,,,,,,,,,,,,,,,,,,,,,,,,"MET09110/22/20 11:00:02 SPECI KSEA 221900Z 02006KT 10SM OVC024 10/03 A3042 RMK AO2 T01000033 (LC)","FM-16","7",,,,,,,,,,,,,,,,,,,,,,,,,,,"2007-05-17"
"72793024233","2020-10-22T11:53:00","FM-15","7",,,,,,,,,,,,,,,,,,,,,,,,,,,,,,,,,,,,,,,"30.40","39","51","0.00",,,,"64","30.43","BKN:07 22 BKN:07 250","29.93","10.00","45","VRB",,"3",,,,,,,,,,,,,,,,,,,,,,,,,,,,,,,,,,,,,"MET10510/22/20 11:53:02 METAR KSEA 221953Z VRB03KT 10SM BKN022 BKN250 11/04 A3040 RMK AO2 SLP304 T01060039 (LC)","FM-15","7",,,,,,,,,,,,,,,,,,,,,,,,,,,"2007-05-17"
"72793024233","2020-10-22T12:16:00","FM-16","7",,,,,,,,,,,,,,,,,,,,,,,,,,,,,,,,,,,,,,,"30.40","39","51",,,,,"64",,"SCT:04 22 BKN:07 250","29.93","10.00","45","010",,"6",,,,,,,,,,,,,,,,,,,,,,,,,,,,,,,,,,,,,"MET09810/22/20 12:16:02 SPECI KSEA 222016Z 01005KT 10SM SCT022 BKN250 11/04 A3040 RMK AO2 T01060039 (LC)","FM-16","7",,,,,,,,,,,,,,,,,,,,,,,,,,,"2007-05-17"
"72793024233","2020-10-22T12:53:00","FM-15","7",,,,,,,,,,,,,,,,,,,,,,,,,,,,,,,,,,,,,,,"30.40","39","53","0.00",,"+0.02","8","59","30.42","SCT:04 24 BKN:07 250","29.93","10.00","46",,,,,,,,,,,,,,,,,,,,,,,,,,,,,,,,,,,,,,,,"MET11110/22/20 12:53:02 METAR KSEA 222053Z      KT 10SM SCT024 BKN250 12/04 A3040 RMK AO2 SLP301 T01170039 58006 (LC)","FM-15","7",,,,,,,,,,,,,,,,,,,,,,,,,,,"2007-05-17"
"72793024233","2020-10-22T12:56:00","FM-16","7",,,,,,,,,,,,,,,,,,,,,,,,,,,,,,,,,,,,,,,"30.39","39","53",,,,,"59",,"SCT:04 24 BKN:07 250","29.92","10.00","46","VRB",,"3",,,,,,,,,,,,,,,,,,,,,,,,,,,,,,,,,,,,,"MET09810/22/20 12:56:02 SPECI KSEA 222056Z VRB03KT 10SM SCT024 BKN250 12/04 A3039 RMK AO2 T01170039 (RS)","FM-16","7",,,,,,,,,,,,,,,,,,,,,,,,,,,"2007-05-17"
"72793024233","2020-10-22T13:53:00","FM-15","7",,,,,,,,,,,,,,,,,,,,,,,,,,,,,,,,,,,,,,,"30.38","39","53","0.00",,,,"59","30.40","FEW:02 26 SCT:04 250","29.91","10.00","46","330",,"5",,,,,,,,,,,,,,,,,,,,,,,,,,,,,,,,,,,,,"MET10510/22/20 13:53:02 METAR KSEA 222153Z 33004KT 10SM FEW026 SCT250 12/04 A3038 RMK AO2 SLP296 T01170039 (RS)","FM-15","7",,,,,,,,,,,,,,,,,,,,,,,,,,,"2007-05-17"
"72793024233","2020-10-22T14:53:00","FM-15","7",,,,,,,,,,,,,,,,,,,,,,,,,,,,,,,,,,,,,,,"30.37","41","52","0.00",,,,"66","30.40","FEW:02 28 SCT:04 250","29.90","10.00","47","290",,"8",,,,,,,,,,,,,,,,,,,,,,,,,,,,,,,,,,,,,"MET10510/22/20 14:53:02 METAR KSEA 222253Z 29007KT 10SM FEW028 SCT250 11/05 A3037 RMK AO2 SLP293 T01110050 (RS)","FM-15","7",,,,,,,,,,,,,,,,,,,,,,,,,,,"2007-05-17"
"72793024233","2020-10-22T15:53:00","FM-15","7",,,,,,,,,,,,,,,,,,,,,,,,,,,,,,,,,,,,,,,"30.37","41","51","0.00",,"+0.03","6","69","30.39","FEW:02 28 BKN:07 250","29.90","10.00","46","300",,"7",,,,,,,,,,,,,,,,,,,,,,,,,,,,,,,,,,,,,"MET12310/22/20 15:53:02 METAR KSEA 222353Z 30006KT 10SM FEW028 BKN250 11/05 A3037 RMK AO2 SLP291 T01060050 10122 20078 56010 (RS)","FM-15","7",,,,,,,,,,,,,,,,,,,,,,,,,,,"2007-05-17"
"72793024233","2020-10-22T16:00:00","FM-12","4",,,,,,,,,,,,,,,,,,,,,,,,,,,,,,,,,,,,,,,,"41","51",,,"+0.03","6","69","30.39","26","29.88","9.94","46","300",,"7",,,,,,,,,,,,,,,,,,,,,,,,,,,,,,,,,,,,,"SYN08072793 32566 63006 10106 20050 30120 40291 56010 92353 333 10122 20044 555 92300=","FM-12","4",,,,,,,,,,,,,,,,,,,,,,,,,,,"2007-05-17"
"72793024233","2020-10-22T16:53:00","FM-15","7",,,,,,,,,,,,,,,,,,,,,,,,,,,,,,,,,,,,,,,"30.36","40","49","0.00",,,,"71","30.39","FEW:02 30 BKN:07 250","29.89","10.00","45","350",,"6",,,,,,,,,,,,,,,,,,,,,,,,,,,,,,,,,,,,,"MET10510/22/20 16:53:03 METAR KSEA 230053Z 35005KT 10SM FEW030 BKN250 09/04 A3036 RMK AO2 SLP290 T00940044 (RS)","FM-15","7",,,,,,,,,,,,,,,,,,,,,,,,,,,"2007-05-17"
"72793024233","2020-10-22T17:53:00","FM-15","7",,,,,,,,,,,,,,,,,,,,,,,,,,,,,,,,,,,,,,,"30.37","39","47","0.00",,,,"74","30.39","SCT:04 250","29.90","10.00","43","350",,"6",,,,,,,,,,,,,,,,,,,,,,,,,,,,,,,,,,,,,"MET09810/22/20 17:53:03 METAR KSEA 230153Z 35005KT 10SM SCT250 08/04 A3037 RMK AO2 SLP292 T00830039 (RS)","FM-15","7",,,,,,,,,,,,,,,,,,,,,,,,,,,"2007-05-17"
"72793024233","2020-10-22T18:53:00","FM-15","7",,,,,,,,,,,,,,,,,,,,,,,,,,,,,,,,,,,,,,,"30.36","38","45","0.00",,"+0.01","8","77","30.38","SCT:04 250","29.89","10.00","42","360",,"6",,,,,,,,,,,,,,,,,,,,,,,,,,,,,,,,,,,,,"MET10410/22/20 18:53:03 METAR KSEA 230253Z 36005KT 10SM SCT250 07/03 A3036 RMK AO2 SLP289 T00720033 58003 (RS)","FM-15","7",,,,,,,,,,,,,,,,,,,,,,,,,,,"2007-05-17"
"72793024233","2020-10-22T19:53:00","FM-15","7",,,,,,,,,,,,,,,,,,,,,,,,,,,,,,,,,,,,,,,"30.34","39","45","0.00",,,,"80","30.37","SCT:04 250","29.87","10.00","42","360",,"5",,,,,,,,,,,,,,,,,,,,,,,,,,,,,,,,,,,,,"MET09810/22/20 19:53:03 METAR KSEA 230353Z 36004KT 10SM SCT250 07/04 A3034 RMK AO2 SLP284 T00720039 (RS)","FM-15","7",,,,,,,,,,,,,,,,,,,,,,,,,,,"2007-05-17"
"72793024233","2020-10-22T20:53:00","FM-15","7",,,,,,,,,,,,,,,,,,,,,,,,,,,,,,,,,,,,,,,"30.34","40","46","0.00",,,,"79","30.36","FEW:02 250","29.87","10.00","43","070",,"5",,,,,,,,,,,,,,,,,,,,,,,,,,,,,,,,,,,,,"MET09810/22/20 20:53:03 METAR KSEA 230453Z 07004KT 10SM FEW250 08/04 A3034 RMK AO2 SLP281 T00780044 (RS)","FM-15","7",,,,,,,,,,,,,,,,,,,,,,,,,,,"2007-05-17"
"72793024233","2020-10-22T21:53:00","FM-15","7",,,,,,,,,,,,,,,,,,,,,,,,,,,,,,,,,,,,,,,"30.33","39","44","0.00",,"+0.03","6","83","30.36","FEW:02 250","29.86","10.00","42","120",,"5",,,,,,,,,,,,,,,,,,,,,,,,,,,,,,,,,,,,,"MET11610/22/20 21:53:03 METAR KSEA 230553Z 12004KT 10SM FEW250 07/04 A3033 RMK AO2 SLP280 T00670039 10111 20061 56009 (TL)","FM-15","7",,,,,,,,,,,,,,,,,,,,,,,,,,,"2007-05-17"
"72793024233","2020-10-22T22:00:00","FM-12","4",,,,,,,,,,,,,,,,,,,,,,,,,,,,,,,,,,,,,,,,"39","44",,,"+0.03","6","83","30.36",,"29.84","9.94","42","120",,"5",,,,,,,,,,,,,,,,,,,,,,,,,,,,,,,,,,,,,"SYN08072793 32966 21204 10067 20039 30106 40280 56009 90553 333 10111 20044 555 92306=","FM-12","4",,,,,,,,,,,,,,,,,,,,,,,,,,,"2007-05-17"
"72793024233","2020-10-22T22:53:00","FM-15","7",,,,,,,,,,,,,,,,,,,,,,,,,,,,,,,,,,,,,,,"30.31","37","42","0.00",,,,"82","30.34","CLR:00","29.84","10.00","40","120",,"7",,,,,,,,,,,,,,,,,,,,,,,,,,,,,,,,,,,,,"MET09510/22/20 22:53:03 METAR KSEA 230653Z 12006KT 10SM CLR 06/03 A3031 RMK AO2 SLP274 T00560028 (TL)","FM-15","7",,,,,,,,,,,,,,,,,,,,,,,,,,,"2007-05-17"
"72793024233","2020-10-22T23:53:00","FM-15","7",,,,,,,,,,,,,,,,,,,,,,,,,,,,,,,,,,,,,,,"30.31","37","41","0.00",,,,"86","30.33","CLR:00","29.84","10.00","39","130",,"6",,,,,,,,,,,,,,,,,,,,,,,,,,,,,,,,,,,,,"MET10510/22/20 23:53:03 METAR KSEA 230753Z 13005KT 10SM CLR 05/03 A3031 RMK AO2 SLP272 T00500028 401220044 (TL)","FM-15","7",,,,,,,,,,,,,,,,,,,,,,,,,,,"2007-05-17"
"72793024233","2020-10-22T23:59:00","SOD  ","6",,,,,,,,,,,,,,,,,"39","47","78","30.38","29.88","43","4.8","0","-4.0","18","54","40","340","12","0.00","0","0.0","130","9",,,,,,,,,,,,,,,,,,,,,,,,,,,,,,,,,,,,,,,,,,,,,,,,,,,,,,,,"SOD73924 HR PRECIPITATION (IN): 0.00 SNOW DEPTH (IN):0     24 HR SNOWFALL (IN):0.0  24 HR MAX TEMP (F): 5424 HR MIN TEMP (F): 40AVERAGE STATION PRESSURE:29.885 MINIMUM SEA LEVEL PRESSURE:30.31 TIME OF OCCURRENCE:0027 PEAK WIND SPEED (MPH): 12 PEAK WIND DIR (DEG):340 PEAK WIND TIME (LST):      FASTEST 2MIN SPEED (MPH):  9FASTEST 2MIN DIR (DEG):130 FASTEST 2MIN TIME (LST):     AVERAGE WIND SPEED (MPH): 4.8 24 HR AVG TEMP (F): 47DEPART FROM NORMAL: -4  HEATING DEGREE DAYS: 18 COOLING DEGREE DAYS:  0 LATEST DAY MAX TEMP (0700-1900 LST):54  LATEST NIGHT MIN TEMP(1900-0800 LST):40 HOURLY INCREMENTAL PRECIPITATION VALUES (IN):.00 0.00 0.00 0.00 0.00 0.00 0.00 0.00 0.00 0.00 0.00 0.00 0.00 0.00 0.00 0.00 0.00 0.00 0.00 0.00 0.00 0.00 0.00 0.00","SOD  ","6",,,,,,,,,,,,,,,,,,,,,,,,,"0639","1707","2007-05-17"
"72793024233","2020-10-23T00:53:00","FM-15","7",,,,,,,,,,,,,,,,,,,,,,,,,,,,,,,,,,,,,,,"30.27","36","40","0.00",,"+0.06","8","86","30.29","CLR:00","29.80","10.00","38","130",,"7",,,,,,,,,,,,,,,,,,,,,,,,,,,,,,,,,,,,,"MET10110/23/20 00:53:02 METAR KSEA 230853Z 13006KT 10SM CLR 04/02 A3027 RMK AO2 SLP257 T00440022 58021 (TL)","FM-15","7",,,,,,,,,,,,,,,,,,,,,,,,,,,"2007-05-17"
"72793024233","2020-10-23T01:53:00","FM-15","7",,,,,,,,,,,,,,,,,,,,,,,,,,,,,,,,,,,,,,,"30.23","36","41","0.00",,,,"82","30.26","BKN:07 110","29.76","10.00","39","150",,"8",,,,,,,,,,,,,,,,,,,,,,,,,,,,,,,,,,,,,"MET09810/23/20 01:53:02 METAR KSEA 230953Z 15007KT 10SM BKN110 05/02 A3023 RMK AO2 SLP246 T00500022 (TL)","FM-15","7",,,,,,,,,,,,,,,,,,,,,,,,,,,"2007-05-17"
"72793024233","2020-10-23T02:53:00","FM-15","7",,,,,,,,,,,,,,,,,,,,,,,,,,,,,,,,,,,,,,,"30.20","35","41","0.00",,,,"79","30.22","OVC:08 100","29.73","10.00","38","130",,"9",,,,,,,,,,,,,,,,,,,,,,,,,,,,,,,,,,,,,"MET09810/23/20 02:53:02 METAR KSEA 231053Z 13008KT 10SM OVC100 05/02 A3020 RMK AO2 SLP234 T00500017 (TL)","FM-15","7",,,,,,,,,,,,,,,,,,,,,,,,,,,"2007-05-17"
"72793024233","2020-10-23T03:53:00","FM-15","7",,,,,,,,,,,,,,,,,,,,,,,,,,,,,,,,,,,,,,,"30.15","36","42","0.00",,"+0.12","8","79","30.17","OVC:08 95","29.68","10.00","39","140",,"6",,,,,,,,,,,,,,,,,,,,,,,,,,,,,,,,,,,,,"MET11610/23/20 03:53:02 METAR KSEA 231153Z 14005KT 10SM OVC095 06/02 A3015 RMK AO2 SLP216 T00560022 10067 20039 58041 (TL)","FM-15","7",,,,,,,,,,,,,,,,,,,,,,,,,,,"2007-05-17"
"72793024233","2020-10-23T04:00:00","FM-12","4",,,,,,,,,,,,,,,,,,,,,,,,,,,,,,,,,,,,,,,,"36","42",,,"+0.12","8","79","30.17",,"29.67","9.94","39","140",,"6",,,,,,,,,,,,,,,,,,,,,,,,,,,,,,,,,,,,,"SYN08072793 32966 81405 10056 20022 30046 40216 58041 91153 333 10122 20039 555 92312=","FM-12","4",,,,,,,,,,,,,,,,,,,,,,,,,,,"2007-05-17"
"72793024233","2020-10-23T04:53:00","FM-15","7",,,,,,,,,,,,,,,,,,,,,,,,,,,,,,,,,,,,,,,"30.11","37","42","0.00",,,,"82","30.13","OVC:08 70","29.64","10.00","40","150",,"5",,,,,,,,,,,,,,,,,,,,,,,,,,,,,,,,,,,,,"MET09810/23/20 04:53:02 METAR KSEA 231253Z 15004KT 10SM OVC070 06/03 A3011 RMK AO2 SLP204 T00560028 (LC)","FM-15","7",,,,,,,,,,,,,,,,,,,,,,,,,,,"2007-05-17"
"72793024233","2020-10-23T05:53:00","FM-15","7",,,,,,,,,,,,,,,,,,,,,,,,,,,,,,,,,,,,,,,"30.11","37","43","0.00",,,,"80","30.13","OVC:08 65","29.64","10.00","40","150",,"3",,,,,,,,,,,,,,,,,,,,,,,,,,,,,,,,,,,,,"MET09810/23/20 05:53:02 METAR KSEA 231353Z 15003KT 10SM OVC065 06/03 A3011 RMK AO2 SLP204 T00610028 (LC)","FM-15","7",,,,,,,,,,,,,,,,,,,,,,,,,,,"2007-05-17"
"72793024233","2020-10-23T06:53:00","FM-15","7",,,,,,,,,,,,,,,,,,,,,,,,,,,,,,,,,,,,,,,"30.08","38","42","T","-RA:02 |RA |RA","+0.07","6","85","30.10","OVC:08 60","29.61","10.00","40","220",,"5",,,,,,,,,,,,,,,,,,,,,,,,,,,,,,,,,,,,,"MET12610/23/20 06:53:02 METAR KSEA 231453Z 22004KT 10SM -RA OVC060 06/03 A3008 RMK AO2 RAB41 SLP194 P0000 60000 T00560033 56023 (LC)","FM-15","7",,,,,,,,,,,,,,,,,,,,,,,,,,,"2007-05-17"
"72793024233","2020-10-23T07:53:00","FM-15","7",,,,,,,,,,,,,,,,,,,,,,,,,,,,,,,,,,,,,,,"30.06","40","42","0.04","-RA:02 |RA |RA",,,"92","30.08","FEW:02 25 OVC:08 55","29.59","7.00","41","200",,"5",,,,,,,,,,,,,,,,,,,,,,,,,,,,,,,,,,,,,"MET11410/23/20 07:53:02 METAR KSEA 231553Z 20004KT 7SM -RA FEW025 OVC055 06/04 A3006 RMK AO2 SLP187 P0004 T00560044 (LC)","FM-15","7",,,,,,,,,,,,,,,,,,,,,,,,,,,"2007-05-17"
"72793024233","2020-10-23T08:43:00","FM-16","7",,,,,,,,,,,,,,,,,,,,,,,,,,,,,,,,,,,,,,,"30.04","42","44","0.01","-RA:02 |RA |RA",,,"93",,"FEW:02 5 OVC:08 50","29.57","7.00","43","160",,"5",,,,,,,,,,,,,,,,,,,,,,,,,,,,,,,,,,,,,"MET11610/23/20 08:43:02 SPECI KSEA 231643Z 16004KT 7SM -RA FEW005 OVC050 07/06 A3004 RMK AO2 RAE11B35 P0001 T00670056 (LC)","FM-16","7",,,,,,,,,,,,,,,,,,,,,,,,,,,"2007-05-17"
"72793024233","2020-10-23T08:53:00","FM-15","7",,,,,,,,,,,,,,,,,,,,,,,,,,,,,,,,,,,,,,,"30.03","42","44","0.01","BR:1 ||",,,"93","30.05","FEW:02 5 OVC:08 50","29.56","5.00","43","200",,"8",,,,,,,,,,,,,,,,,,,,,,,,,,,,,,,,,,,,,"MET12510/23/20 08:53:02 METAR KSEA 231653Z 20007KT 5SM BR FEW005 OVC050 07/06 A3003 RMK AO2 RAE11B35E46 SLP176 P0001 T00670056 (LC)","FM-15","7",,,,,,,,,,,,,,,,,,,,,,,,,,,"2007-05-17"
"72793024233","2020-10-23T09:53:00","FM-15","7",,,,,,,,,,,,,,,,,,,,,,,,,,,,,,,,,,,,,,,"29.99","40","44","0.00",,"+0.09","8","85","30.01","FEW:02 9 OVC:08 42","29.52","10.00","42","170",,"9",,,,,,,,,,,,,,,,,,,,,,,,,,,,,,,,,,,,,"MET12910/23/20 09:53:02 METAR KSEA 231753Z 17008KT 10SM FEW009 OVC042 07/04 A2999 RMK AO2 SLP163 60005 T00670044 10067 20056 58030 (LC)","FM-15","7",,,,,,,,,,,,,,,,,,,,,,,,,,,"2007-05-17"
"72793024233","2020-10-23T10:00:00","FM-12","4",,,,,,,,,,,,,,,,,,,,,,,,,,,,,,,,,,,,,,,,"40","44",,,"+0.09","8","85","30.01","8","29.51","9.94","42","170",,"9",,,,,,,,,,,,,,,,,,,,,,,,,,,,,,,,,,,,,"SYN08672793 12366 81708 10067 20044 39993 40163 58030 60011 91753 333 10067 20056 555 92318=","FM-12","4",,,,,,,,,,,,,,,,,,,,,,,,,,,"2007-05-17"
"72793024233","2020-10-23T10:53:00","FM-15","7",,,,,,,,,,,,,,,,,,,,,,,,,,,,,,,,,,,,,,,"29.95","38","46","0.00",,,,"73","29.97","FEW:02 9 OVC:08 36","29.48","10.00","42","210",,"13",,,,,,,,,,,,,,,,,,,,,,,,,,,,,,,,,,,,,"MET10510/23/20 10:53:02 METAR KSEA 231853Z 21011KT 10SM FEW009 OVC036 08/03 A2995 RMK AO2 SLP150 T00780033 (LC)","FM-15","7",,,,,,,,,,,,,,,,,,,,,,,,,,,"2007-05-17"
"72793024233","2020-10-23T11:53:00","FM-15","7",,,,,,,,,,,,,,,,,,,,,,,,,,,,,,,,,,,,,,,"29.91","39","45","0.00",,,,"80","29.93","FEW:02 9 OVC:08 30","29.44","10.00","42","180",,"9",,,,,,,,,,,,,,,,,,,,,,,,,,,,,,,,,,,,,"MET11210/23/20 11:53:02 METAR KSEA 231953Z 18008KT 10SM FEW009 OVC030 07/04 A2991 RMK AO2 PRESFR SLP136 T00720039 (LC)","FM-15","7",,,,,,,,,,,,,,,,,,,,,,,,,,,"2007-05-17"
"72793024233","2020-10-23T12:09:00","FM-16","7",,,,,,,,,,,,,,,,,,,,,,,,,,,,,,,,,,,,,,,"29.90","38","45",,,,,"77",,"FEW:02 9 OVC:08 28","29.44","10.00","42","170",,"9",,,,,,,,,,,,,,,,,,,,,,,,,,,,,,,,,,,,,"MET09810/23/20 12:09:02 SPECI KSEA 232009Z 17008KT 10SM FEW009 OVC028 07/03 A2990 RMK AO2 T00720033 (LC)","FM-16","7",,,,,,,,,,,,,,,,,,,,,,,,,,,"2007-05-17"
"72793024233","2020-10-23T12:53:00","FM-15","7",,,,,,,,,,,,,,,,,,,,,,,,,,,,,,,,,,,,,,,"29.87","39","46","0.00",,"+0.12","8","77","29.89","FEW:02 9 OVC:08 26","29.41","10.00","43","170",,"10",,,,,,,,,,,,,,,,,,,,,,,,,,,,,,,,,,,,,"MET11110/23/20 12:53:02 METAR KSEA 232053Z 17009KT 10SM FEW009 OVC026 08/04 A2987 RMK AO2 SLP122 T00780039 58041 (LC)","FM-15","7",,,,,,,,,,,,,,,,,,,,,,,,,,,"2007-05-17"
"72793024233","2020-10-23T13:53:00","FM-15","7",,,,,,,,,,,,,,,,,,,,,,,,,,,,,,,,,,,,,,,"29.83","41","47","0.00",,,,"80","29.85","OVC:08 22","29.36","10.00","44","170",,"9",,,,,,,,,,,,,,,,,,,,,,,,,,,,,,,,,,,,,"MET09810/23/20 13:53:02 METAR KSEA 232153Z 17008KT 10SM OVC022 08/05 A2983 RMK AO2 SLP110 T00830050 (RS)","FM-15","7",,,,,,,,,,,,,,,,,,,,,,,,,,,"2007-05-17"
"72793024233","2020-10-23T14:53:00","FM-15","7",,,,,,,,,,,,,,,,,,,,,,,,,,,,,,,,,,,,,,,"29.78","43","49","0.00",,,,"80","29.81","OVC:08 18","29.32","10.00","46","190",,"11",,,,,,,,,,,,,,,,,,,,,,,,,,,,,,,,,,,,,"MET09810/23/20 14:53:02 METAR KSEA 232253Z 19010KT 10SM OVC018 09/06 A2978 RMK AO2 SLP094 T00940061 (RS)","FM-15","7",,,,,,,,,,,,,,,,,,,,,,,,,,,"2007-05-17"
"72793024233","2020-10-23T15:53:00","FM-15","7",,,,,,,,,,,,,,,,,,,,,,,,,,,,,,,,,,,,,,,"29.80","45","50","0.00",,"+0.06","5","83","29.83","OVC:08 16","29.34","10.00","48","VRB",,"6",,,,,,,,,,,,,,,,,,,,,,,,,,,,,,,,,,,,,"MET11610/23/20 15:53:02 METAR KSEA 232353Z VRB05KT 10SM OVC016 10/07 A2980 RMK AO2 SLP100 T01000072 10100 20067 55021 (RS)","FM-15","7",,,,,,,,,,,,,,,,,,,,,,,,,,,"2007-05-17"
"72793024233","2020-10-23T16:00:00","FM-12","4",,,,,,,,,,,,,,,,,,,,,,,,,,,,,,,,,,,,,,,,"45","50",,,"+0.06","5","83","29.83","15","29.32","9.94","48",,,"6",,,,,,,,,,,,,,,,,,,,,,,,,,,,,,,,,,,,,"SYN08072793 32466 8//05 10100 20072 39929 40100 55021 92353 333 10100 20039 555 92400=","FM-12","4",,,,,,,,,,,,,,,,,,,,,,,,,,,"2007-05-17"
"72793024233","2020-10-23T16:22:00","FM-16","7",,,,,,,,,,,,,,,,,,,,,,,,,,,,,,,,,,,,,,,"29.80","46","50",,,,,"86",,"OVC:08 14","29.34","10.00","48","250",,"10",,,,,,,,,,,,,,,,,,,,,,,,,,,,,,,,,,,,,"MET08610/23/20 16:22:01 SPECI KSEA 240022Z 25009KT 10SM OVC014 10/08 A2980 RMK AO2 T01000078","FM-16","7",,,,,,,,,,,,,,,,,,,,,,,,,,,"2007-05-17"
"72793024233","2020-10-23T16:53:00","FM-15","7",,,,,,,,,,,,,,,,,,,,,,,,,,,,,,,,,,,,,,,"29.79","46","50","0.00",,,,"86","29.82","OVC:08 10","29.33","10.00","48","VRB","22","10",,,,,,,,,,,,,,,,,,,,,,,,,,,,,,,,,,,,,"MET09610/23/20 16:53:01 METAR KSEA 240053Z 24009G19KT 10SM OVC010 10/08 A2979 RMK AO2 SLP097 T01000078","FM-15","7",,,,,,,,,,,,,,,,,,,,,,,,,,,"2007-05-17"
"72793024233","2020-10-23T17:28:00","FM-16","7",,,,,,,,,,,,,,,,,,,,,,,,,,,,,,,,,,,,,,,"29.78","46","50",,,,,"86",,"OVC:08 9","29.32","10.00","48","260",,"10",,,,,,,,,,,,,,,,,,,,,,,,,,,,,,,,,,,,,"MET08610/23/20 17:28:01 SPECI KSEA 240128Z 26009KT 10SM OVC009 10/08 A2978 RMK AO2 T01000078","FM-16","7",,,,,,,,,,,,,,,,,,,,,,,,,,,"2007-05-17"
"72793024233","2020-10-23T17:53:00","FM-15","7",,,,,,,,,,,,,,,,,,,,,,,,,,,,,,,,,,,,,,,"29.81","45","49","0.00",,,,"86","29.83","OVC:08 8","29.35","9.00","47","350",,"11",,,,,,,,,,,,,,,,,,,,,,,,,,,,,,,,,,,,,"MET09210/23/20 17:53:01 METAR KSEA 240153Z 35010KT 9SM OVC008 09/07 A2981 RMK AO2 SLP103 T00940072","FM-15","7",,,,,,,,,,,,,,,,,,,,,,,,,,,"2007-05-17"
"72793024233","2020-10-23T18:51:00","FM-16","6",,,,,,,,,,,,,,,,,,,,,,,,,,,,,,,,,,,,,,,"29.84","45","46",,"-RA:02 BR:1 |RA |RA",,,"93",,"BKN:07 5 BKN:07 9 OVC:08 15","29.38","2.00","46","350",,"16",,,,,,,,,,,,,,,,,,,,,,,,,,,,,,,,,,,,,"MET12610/23/20 18:51:03 SPECI KSEA 240251Z 35014KT 2SM -RA BR BKN005 BKN009 OVC015 08/07 A2984 RMK AO2 DZB13E35RAB35 P0003 FIBI (RS)","FM-16","6",,,,,,,,,,,,,,,,,,,,,,,,,,,"2007-05-17"
"72793024233","2020-10-23T18:53:00","FM-15","7",,,,,,,,,,,,,,,,,,,,,,,,,,,,,,,,,,,,,,,"29.84","45","46","0.04s","-RA:02 BR:1 |RA |RA","-0.03","3","96","29.86","BKN:07 5 OVC:08 15","29.38","2.00","46","340",,"15",,,,,,,,,,,,,,,,,,,,,,,,,,,,,,,,,,,,,"MET13810/23/20 18:53:01 METAR KSEA 240253Z 34013KT 2SM -RA BR BKN005 OVC015 08/07 A2984 RMK AO2 DZB13E35RAB35 SLP111 P0003 60003 T00780072 53011","FM-15","7",,,,,,,,,,,,,,,,,,,,,,,,,,,"2007-05-17"
"72793024233","2020-10-23T19:24:00","FM-16","7",,,,,,,,,,,,,,,,,,,,,,,,,,,,,,,,,,,,,,,"29.85","44","46","0.02","-RA:02 BR:1 |RA |RA",,,"93",,"BKN:07 5 OVC:08 20","29.39","3.00","45","340",,"13",,,,,,,,,,,,,,,,,,,,,,,,,,,,,,,,,,,,,"MET10510/23/20 19:24:01 SPECI KSEA 240324Z 34011KT 3SM -RA BR BKN005 OVC020 08/07 A2985 RMK AO2 P0002 T00780067","FM-16","7",,,,,,,,,,,,,,,,,,,,,,,,,,,"2007-05-17"
"72793024233","2020-10-23T19:53:00","FM-15","7",,,,,,,,,,,,,,,,,,,,,,,,,,,,,,,,,,,,,,,"29.86","44","46","0.01","BR:1 ||",,,"93","29.88","BKN:07 5 OVC:08 12","29.39","5.00","45","350",,"11",,,,,,,,,,,,,,,,,,,,,,,,,,,,,,,,,,,,,"MET11410/23/20 19:53:01 METAR KSEA 240353Z 35010KT 5SM BR BKN005 OVC012 08/07 A2986 RMK AO2 RAE50 SLP119 P0002 T00780067","FM-15","7",,,,,,,,,,,,,,,,,,,,,,,,,,,"2007-05-17"
"72793024233","2020-10-23T20:14:00","FM-16","7",,,,,,,,,,,,,,,,,,,,,,,,,,,,,,,,,,,,,,,"29.87","44","47",,,,,"90",,"SCT:04 5 BKN:07 13 OVC:08 29","29.41","7.00","46","350",,"14",,,,,,,,,,,,,,,,,,,,,,,,,,,,,,,,,,,,,"MET09910/23/20 20:14:01 SPECI KSEA 240414Z 35012KT 7SM SCT005 BKN013 OVC029 08/07 A2987 RMK AO2 T00830067","FM-16","7",,,,,,,,,,,,,,,,,,,,,,,,,,,"2007-05-17"
"72793024233","2020-10-23T20:53:00","FM-15","7",,,,,,,,,,,,,,,,,,,,,,,,,,,,,,,,,,,,,,,"29.88","43","46","0.00",,,,"89","29.91","FEW:02 5 BKN:07 13 OVC:08 31","29.41","10.00","45","340","25","16",,,,,,,,,,,,,,,,,,,,,,,,,,,,,,,,,,,,,"MET11010/23/20 20:53:01 METAR KSEA 240453Z 34014G22KT 10SM FEW005 BKN013 OVC031 08/06 A2988 RMK AO2 SLP127 T00780061","FM-15","7",,,,,,,,,,,,,,,,,,,,,,,,,,,"2007-05-17"
"72793024233","2020-10-23T21:09:00","FM-16","7",,,,,,,,,,,,,,,,,,,,,,,,,,,,,,,,,,,,,,,"29.89","42","46",,,,,"86",,"FEW:02 5 BKN:07 15 OVC:08 30","29.42","10.00","44","350",,"16",,,,,,,,,,,,,,,,,,,,,,,,,,,,,,,,,,,,,"MET10010/23/20 21:09:01 SPECI KSEA 240509Z 35014KT 10SM FEW005 BKN015 OVC030 08/06 A2989 RMK AO2 T00780056","FM-16","7",,,,,,,,,,,,,,,,,,,,,,,,,,,"2007-05-17"
"72793024233","2020-10-23T21:53:00","FM-15","7",,,,,,,,,,,,,,,,,,,,,,,,,,,,,,,,,,,,,,,"29.92","42","45","T","-RA:02 |RA |RA","-0.08","3","90","29.94","SCT:04 9 BKN:07 15 OVC:08 30","29.45","10.00","44","340","25","16",,,,,,,,,,,,,,,,,,,,,,,,,,,,,,,,,,,,,"MET16210/23/20 21:53:01 METAR KSEA 240553Z 34014G22KT 10SM -RA SCT009 BKN015 OVC030 07/06 A2992 RMK AO2 RAB47 SLP139 CIG 013V017 P0000 60005 T00720056 10106 20072 53027","FM-15","7",,,,,,,,,,,,,,,,,,,,,,,,,,,"2007-05-17"
"72793024233","2020-10-23T22:00:00","FM-12","4",,,,,,,,,,,,,,,,,,,,,,,,,,,,,,,,,,,,,,,,"42","45",,"||RA","-0.08","3","90","29.94","8","29.44","9.94","44","340",,"16",,,,,,,,,,,,,,,,,,,,,,,,,,,,,,,,,,,,,"SYN09872793 11366 83414 10072 20056 39969 40139 53027 60011 761// 90553 333 10106 20039 91022 555 92406=","FM-12","4",,,,,,,,,,,,,,,,,,,,,,,,,,,"2007-05-17"
"72793024233","2020-10-23T22:53:00","FM-15","7",,,,,,,,,,,,,,,,,,,,,,,,,,,,,,,,,,,,,,,"29.94","40","44","T","-RA:02 |RA |RA",,,"85","29.96","BKN:07 15 OVC:08 46","29.47","10.00","42","010",,"20",,,,,,,,,,,,,,,,,,,,,,,,,,,,,,,,,,,,,"MET12810/23/20 22:53:01 METAR KSEA 240653Z 01017KT 10SM -RA BKN015 OVC046 07/04 A2994 RMK AO2 PK WND 36026/0626 SLP147 P0000 T00670044","FM-15","7",,,,,,,,,,,,,,,,,,,,,,,,,,,"2007-05-17"
"72793024233","2020-10-23T23:53:00","FM-15","7",,,,,,,,,,,,,,,,,,,,,,,,,,,,,,,,,,,,,,,"29.95","41","45","0.01","-RA:02 |RA |RA",,,"86","29.98","BKN:07 15 OVC:08 40","29.48","10.00","43","020",,"13",,,,,,,,,,,,,,,,,,,,,,,,,,,,,,,,,,,,,"MET12010/23/20 23:53:01 METAR KSEA 240753Z 02011KT 10SM -RA BKN015 OVC040 07/05 A2995 RMK AO2 SLP152 P0001 T00720050 401060039","FM-15","7",,,,,,,,,,,,,,,,,,,,,,,,,,,"2007-05-17"
"72793024233","2020-10-23T23:59:00","SOD  ","6",,,,,,,,,,,,,,,,,"40","45","84","30.00","29.48","43","9.8","0","-5.8","20","51","39","360","30","0.11","0","0.0","360","23","RA BR",,,,,,,,,,,,,,,,,,,,,,,,,,,,,,,,,,,,,,,,,,,,,,,,,,,,,,,"SOD76024 HR PRECIPITATION (IN): 0.11 SNOW DEPTH (IN):0     24 HR SNOWFALL (IN):0.0  WEATHER(CODE):1  24 HR MAX TEMP (F): 5124 HR MIN TEMP (F): 39AVERAGE STATION PRESSURE(D):29.482 MINIMUM SEA LEVEL PRESSURE:29.79 TIME OF OCCURRENCE:1523 PEAK WIND SPEED (MPH): 30 PEAK WIND DIR (DEG):360 PEAK WIND TIME (LST):      FASTEST 2MIN SPEED (MPH): 23FASTEST 2MIN DIR (DEG):360 FASTEST 2MIN TIME (LST):     AVERAGE WIND SPEED (MPH): 9.8 24 HR AVG TEMP (F): 45DEPART FROM NORMAL: -6  HEATING DEGREE DAYS: 20 COOLING DEGREE DAYS:  0 LATEST DAY MAX TEMP (0700-1900 LST): 51 LATEST NIGHT MIN TEMP(1900-0800 LST):39 HOURLY INCREMENTAL PRECIPITATION VALUES (IN):0.00 0.00 0.00 0.00 0.00 0.00T     0.04 0.01 0.00 0.00 0.00 0.00 0.00 0.00 0.00 0.00 0.00 0.04 0.01 0.00T    T     0.01","SOD  ","6",,,,,,,,,,,,,,,,,,,,,,,,,"0641","1705","2007-05-17"
"72793024233","2020-10-24T00:53:00","FM-15","7",,,,,,,,,,,,,,,,,,,,,,,,,,,,,,,,,,,,,,,"29.99","38","45","T","-RA:02 |RA |RA","-0.07","3","77","30.01","BKN:07 23 OVC:08 40","29.52","10.00","42","360","25","18",,,,,,,,,,,,,,,,,,,,,,,,,,,,,,,,,,,,,"MET13010/24/20 00:53:02 METAR KSEA 240853Z 36016G22KT 10SM -RA BKN023 OVC040 07/03 A2999 RMK AO2 SLP163 P0000 60001 T00720033 53024 (MR)","FM-15","7",,,,,,,,,,,,,,,,,,,,,,,,,,,"2007-05-17"
"72793024233","2020-10-24T01:33:00","FM-16","7",,,,,,,,,,,,,,,,,,,,,,,,,,,,,,,,,,,,,,,"30.00","36","45","T",,,,"71",,"FEW:02 25 SCT:04 34 OVC:08 70","29.53","10.00","41","360",,"17",,,,,,,,,,,,,,,,,,,,,,,,,,,,,,,,,,,,,"MET11710/24/20 01:33:02 SPECI KSEA 240933Z 36015KT 10SM FEW025 SCT034 OVC070 07/02 A3000 RMK AO2 RAE33 P0000 T00720022 (MR)","FM-16","7",,,,,,,,,,,,,,,,,,,,,,,,,,,"2007-05-17"
"72793024233","2020-10-24T01:53:00","FM-15","7",,,,,,,,,,,,,,,,,,,,,,,,,,,,,,,,,,,,,,,"30.02","33","45","T",,,,"63","30.04","FEW:02 35 BKN:07 70","29.55","10.00","40","360","25","20",,,,,,,,,,,,,,,,,,,,,,,,,,,,,,,,,,,,,"MET12010/24/20 01:53:02 METAR KSEA 240953Z 36017G22KT 10SM FEW035 BKN070 07/01 A3002 RMK AO2 RAE33 SLP172 P0000 T00720006 (MR)","FM-15","7",,,,,,,,,,,,,,,,,,,,,,,,,,,"2007-05-17"
"72793024233","2020-10-24T02:53:00","FM-15","7",,,,,,,,,,,,,,,,,,,,,,,,,,,,,,,,,,,,,,,"30.04","31","44","0.00",,,,"60","30.06","BKN:07 39 OVC:08 70","29.57","10.00","39","360","28","21",,,,,,,,,,,,,,,,,,,,,,,,,,,,,,,,,,,,,"MET12710/24/20 02:53:02 METAR KSEA 241053Z 36018G24KT 10SM BKN039 OVC070 07/M01 A3004 RMK AO2 PK WND 35026/1042 SLP179 T00671006 (MR)","FM-15","7",,,,,,,,,,,,,,,,,,,,,,,,,,,"2007-05-17"
"72793024233","2020-10-24T03:53:00","FM-15","7",,,,,,,,,,,,,,,,,,,,,,,,,,,,,,,,,,,,,,,"30.06","30","43","0.00",,"-0.07","1","60","30.08","SCT:04 40 SCT:04 80","29.59","10.00","38","360","28","16",,,,,,,,,,,,,,,,,,,,,,,,,,,,,,,,,,,,,"MET15710/24/20 03:53:02 METAR KSEA 241153Z 36014G24KT 10SM SCT040 SCT080 06/M01 A3006 RMK AO2 PK WND 36027/1107 SLP187 60001 70011 T00611011 10072 20061 51024 (MR)","FM-15","7",,,,,,,,,,,,,,,,,,,,,,,,,,,"2007-05-17"
"72793024233","2020-10-24T04:00:00","FM-12","4",,,,,,,,,,,,,,,,,,,,,,,,,,,,,,,,,,,,,,,,"30","43",,,"-0.07","1","60","30.08","41","29.58","9.94","38","360",,"16",,,,,,,,,,,,,,,,,,,,,,,,,,,,,,,,,,,,,"SYN09872793 12666 43614 10061 21011 30016 40187 51024 69931 91153 333 10106 20061 70028 91024 555 92412=","FM-12","4",,,,,,,,,,,,,,,,,,,,,,,,,,,"2007-05-17"
"72793024233","2020-10-24T04:53:00","FM-15","7",,,,,,,,,,,,,,,,,,,,,,,,,,,,,,,,,,,,,,,"30.10","31","43","0.00",,,,"63","30.12","FEW:02 40 SCT:04 80","29.63","10.00","38","350","23","17",,,,,,,,,,,,,,,,,,,,,,,,,,,,,,,,,,,,,"MET10910/24/20 04:53:02 METAR KSEA 241253Z 35015G20KT 10SM FEW040 SCT080 06/M01 A3010 RMK AO2 SLP199 T00611006 (MR)","FM-15","7",,,,,,,,,,,,,,,,,,,,,,,,,,,"2007-05-17"
"72793024233","2020-10-24T05:53:00","FM-15","7",,,,,,,,,,,,,,,,,,,,,,,,,,,,,,,,,,,,,,,"30.12","30","42","0.00",,,,"62","30.14","FEW:02 40 SCT:04 80","29.65","10.00","37","010",,"14",,,,,,,,,,,,,,,,,,,,,,,,,,,,,,,,,,,,,"MET10610/24/20 05:53:02 METAR KSEA 241353Z 01012KT 10SM FEW040 SCT080 06/M01 A3012 RMK AO2 SLP208 T00561011 (TL)","FM-15","7",,,,,,,,,,,,,,,,,,,,,,,,,,,"2007-05-17"
"72793024233","2020-10-24T06:53:00","FM-15","7",,,,,,,,,,,,,,,,,,,,,,,,,,,,,,,,,,,,,,,"30.14","30","42","0.00",,"-0.08","1","62","30.16","SCT:04 45 BKN:07 50","29.67","10.00","37","340",,"16",,,,,,,,,,,,,,,,,,,,,,,,,,,,,,,,,,,,,"MET11210/24/20 06:53:02 METAR KSEA 241453Z 34014KT 10SM SCT045 BKN050 06/M01 A3014 RMK AO2 SLP215 T00561011 51027 (TL)","FM-15","7",,,,,,,,,,,,,,,,,,,,,,,,,,,"2007-05-17"
"72793024233","2020-10-24T07:53:00","FM-15","7",,,,,,,,,,,,,,,,,,,,,,,,,,,,,,,,,,,,,,,"30.17","31","43","0.00",,,,"63","30.19","BKN:07 38","29.70","10.00","38","360","22","16",,,,,,,,,,,,,,,,,,,,,,,,,,,,,,,,,,,,,"MET10210/24/20 07:53:02 METAR KSEA 241553Z 36014G19KT 10SM BKN038 06/M01 A3017 RMK AO2 SLP225 T00611006 (TL)","FM-15","7",,,,,,,,,,,,,,,,,,,,,,,,,,,"2007-05-17"
"72793024233","2020-10-24T08:53:00","FM-15","7",,,,,,,,,,,,,,,,,,,,,,,,,,,,,,,,,,,,,,,"30.20","31","44","0.00",,,,"60","30.23","SCT:04 20 BKN:07 38","29.73","10.00","39","010","28","21",,,,,,,,,,,,,,,,,,,,,,,,,,,,,,,,,,,,,"MET10910/24/20 08:53:02 METAR KSEA 241653Z 01018G24KT 10SM SCT020 BKN038 07/M01 A3020 RMK AO2 SLP236 T00671006 (TL)","FM-15","7",,,,,,,,,,,,,,,,,,,,,,,,,,,"2007-05-17"
"72793024233","2020-10-24T09:53:00","FM-15","7",,,,,,,,,,,,,,,,,,,,,,,,,,,,,,,,,,,,,,,"30.21","32","47","0.00",,"-0.06","1","56","30.23","FEW:02 38 SCT:04 50 SCT:04 65","29.74","10.00","41","360",,"18",,,,,,,,,,,,,,,,,,,,,,,,,,,,,,,,,,,,,"MET13010/24/20 09:53:02 METAR KSEA 241753Z 36016KT 10SM FEW038 SCT050 SCT065 08/00 A3021 RMK AO2 SLP238 T00830000 10083 20056 51022 (TL)","FM-15","7",,,,,,,,,,,,,,,,,,,,,,,,,,,"2007-05-17"
"72793024233","2020-10-24T10:00:00","FM-12","4",,,,,,,,,,,,,,,,,,,,,,,,,,,,,,,,,,,,,,,,"32","47",,,"-0.06","1","56","30.23","41","29.72","9.94","41","360",,"18",,,,,,,,,,,,,,,,,,,,,,,,,,,,,,,,,,,,,"SYN08072793 32666 43616 10083 20000 30066 40238 51022 91753 333 10083 20056 555 92418=","FM-12","4",,,,,,,,,,,,,,,,,,,,,,,,,,,"2007-05-17"
"72793024233","2020-10-24T10:53:00","FM-15","7",,,,,,,,,,,,,,,,,,,,,,,,,,,,,,,,,,,,,,,"30.22","31","49","0.00",,,,"50","30.24","SCT:04 38","29.75","10.00","41","010",,"20",,,,,,,,,,,,,,,,,,,,,,,,,,,,,,,,,,,,,"MET09910/24/20 10:53:02 METAR KSEA 241853Z 01017KT 10SM SCT038 09/M01 A3022 RMK AO2 SLP242 T00941006 (TL)","FM-15","7",,,,,,,,,,,,,,,,,,,,,,,,,,,"2007-05-17"
"72793024233","2020-10-24T11:53:00","FM-15","7",,,,,,,,,,,,,,,,,,,,,,,,,,,,,,,,,,,,,,,"30.24","30","48","0.00",,,,"50","30.26","FEW:02 38","29.77","10.00","40","360",,"22",,,,,,,,,,,,,,,,,,,,,,,,,,,,,,,,,,,,,"MET09910/24/20 11:53:02 METAR KSEA 241953Z 36019KT 10SM FEW038 09/M01 A3024 RMK AO2 SLP247 T00891011 (TL)","FM-15","7",,,,,,,,,,,,,,,,,,,,,,,,,,,"2007-05-17"
"72793024233","2020-10-24T12:53:00","FM-15","7",,,,,,,,,,,,,,,,,,,,,,,,,,,,,,,,,,,,,,,"30.23","30","49","0.00",,"-0.03","0","48","30.26","FEW:02 38 SCT:04 50","29.76","10.00","41","010",,"20",,,,,,,,,,,,,,,,,,,,,,,,,,,,,,,,,,,,,"MET13010/24/20 12:53:02 METAR KSEA 242053Z 01017KT 10SM FEW038 SCT050 09/M01 A3023 RMK AO2 PK WND 01026/1954 SLP246 T00941011 50009 (TL)","FM-15","7",,,,,,,,,,,,,,,,,,,,,,,,,,,"2007-05-17"
"72793024233","2020-10-24T13:53:00","FM-15","7",,,,,,,,,,,,,,,,,,,,,,,,,,,,,,,,,,,,,,,"30.25","30","49","0.00",,,,"48","30.27","FEW:02 37 BKN:07 70","29.78","10.00","41","020",,"18",,,,,,,,,,,,,,,,,,,,,,,,,,,,,,,,,,,,,"MET10610/24/20 13:53:02 METAR KSEA 242153Z 02016KT 10SM FEW037 BKN070 09/M01 A3025 RMK AO2 SLP252 T00941011 (JC)","FM-15","7",,,,,,,,,,,,,,,,,,,,,,,,,,,"2007-05-17"
"72793024233","2020-10-24T14:53:00","FM-15","7",,,,,,,,,,,,,,,,,,,,,,,,,,,,,,,,,,,,,,,"30.26","30","49","0.00",,,,"48","30.28","FEW:02 38 SCT:04 70","29.79","10.00","41","360",,"17",,,,,,,,,,,,,,,,,,,,,,,,,,,,,,,,,,,,,"MET10110/24/20 14:53:02 METAR KSEA 242253Z 36015KT 10SM FEW038 SCT070 09/M01 A3026 RMK AO2 SLP255 T00941011","FM-15","7",,,,,,,,,,,,,,,,,,,,,,,,,,,"2007-05-17"
"72793024233","2020-10-24T15:53:00","FM-15","7",,,,,,,,,,,,,,,,,,,,,,,,,,,,,,,,,,,,,,,"30.28","31","49","0.00",,"-0.04","3","50","30.30","FEW:02 38 SCT:04 70","29.81","10.00","41","030",,"16",,,,,,,,,,,,,,,,,,,,,,,,,,,,,,,,,,,,,"MET11910/24/20 15:53:02 METAR KSEA 242353Z 03014KT 10SM FEW038 SCT070 09/M01 A3028 RMK AO2 SLP262 T00941006 10100 20083 53015","FM-15","7",,,,,,,,,,,,,,,,,,,,,,,,,,,"2007-05-17"
"72793024233","2020-10-24T16:00:00","FM-12","4",,,,,,,,,,,,,,,,,,,,,,,,,,,,,,,,,,,,,,,,"31","49",,,"-0.04","3","50","30.30","41","29.80","9.94","41","030",,"16",,,,,,,,,,,,,,,,,,,,,,,,,,,,,,,,,,,,,"SYN08072793 32666 40314 10094 21006 30090 40262 53015 92353 333 10100 20061 555 92500=","FM-12","4",,,,,,,,,,,,,,,,,,,,,,,,,,,"2007-05-17"
"72793024233","2020-10-24T16:53:00","FM-15","7",,,,,,,,,,,,,,,,,,,,,,,,,,,,,,,,,,,,,,,"30.30","29","45","0.00",,,,"54","30.33","FEW:02 45 SCT:04 60","29.83","10.00","38","010",,"15",,,,,,,,,,,,,,,,,,,,,,,,,,,,,,,,,,,,,"MET10110/24/20 16:53:01 METAR KSEA 250053Z 01013KT 10SM FEW045 SCT060 07/M02 A3030 RMK AO2 SLP270 T00721017","FM-15","7",,,,,,,,,,,,,,,,,,,,,,,,,,,"2007-05-17"
"72793024233","2020-10-24T17:53:00","FM-15","7",,,,,,,,,,,,,,,,,,,,,,,,,,,,,,,,,,,,,,,"30.32","30","44","0.00",,,,"58","30.34","FEW:02 45 BKN:07 65","29.85","10.00","38","020",,"18",,,,,,,,,,,,,,,,,,,,,,,,,,,,,,,,,,,,,"MET10110/24/20 17:53:01 METAR KSEA 250153Z 02016KT 10SM FEW045 BKN065 07/M01 A3032 RMK AO2 SLP275 T00671011","FM-15","7",,,,,,,,,,,,,,,,,,,,,,,,,,,"2007-05-17"
"72793024233","2020-10-24T18:53:00","FM-15","6",,,,,,,,,,,,,,,,,,,,,,,,,,,,,,,,,,,,,,,"30.34","30","43","0.00",,"-0.06","1","60","30.36","BKN:07 50","29.87","10.00","38","020",,"11",,,,,,,,,,,,,,,,,,,,,,,,,,,,,,,,,,,,,"MET10010/24/20 18:53:01 METAR KSEA 250253Z 02010KT 10SM BKN050 06/M01 A3034 RMK AO2 SLP281 T00611011 51019","FM-15","6",,,,,,,,,,,,,,,,,,,,,,,,,,,"2007-05-17"
"72793024233","2020-10-24T19:53:00","FM-15","7",,,,,,,,,,,,,,,,,,,,,,,,,,,,,,,,,,,,,,,"30.36","29","43","0.00",,,,"58","30.39","SCT:04 50","29.89","10.00","37","040",,"9",,,,,,,,,,,,,,,,,,,,,,,,,,,,,,,,,,,,,"MET09410/24/20 19:53:01 METAR KSEA 250353Z 04008KT 10SM SCT050 06/M02 A3036 RMK AO2 SLP291 T00611017","FM-15","7",,,,,,,,,,,,,,,,,,,,,,,,,,,"2007-05-17"
"72793024233","2020-10-24T20:53:00","FM-15","7",,,,,,,,,,,,,,,,,,,,,,,,,,,,,,,,,,,,,,,"30.38","29","42","0.00",,,,"60","30.41","SCT:04 50","29.91","10.00","37","030",,"8",,,,,,,,,,,,,,,,,,,,,,,,,,,,,,,,,,,,,"MET09410/24/20 20:53:01 METAR KSEA 250453Z 03007KT 10SM SCT050 06/M02 A3038 RMK AO2 SLP297 T00561017","FM-15","7",,,,,,,,,,,,,,,,,,,,,,,,,,,"2007-05-17"
"72793024233","2020-10-24T21:53:00","FM-15","7",,,,,,,,,,,,,,,,,,,,,,,,,,,,,,,,,,,,,,,"30.40","29","41","0.00",,"-0.06","1","62","30.42","FEW:02 50","29.93","10.00","36","050",,"6",,,,,,,,,,,,,,,,,,,,,,,,,,,,,,,,,,,,,"MET11210/24/20 21:53:01 METAR KSEA 250553Z 05005KT 10SM FEW050 05/M02 A3040 RMK AO2 SLP302 T00501017 10094 20044 51020","FM-15","7",,,,,,,,,,,,,,,,,,,,,,,,,,,"2007-05-17"
"72793024233","2020-10-24T22:00:00","FM-12","4",,,,,,,,,,,,,,,,,,,,,,,,,,,,,,,,,,,,,,,,"29","41",,,"-0.06","1","62","30.42","57","29.91","9.94","36","050",,"6",,,,,,,,,,,,,,,,,,,,,,,,,,,,,,,,,,,,,"SYN08072793 32766 20505 10050 21017 30130 40302 51020 90553 333 10094 20044 555 92506=","FM-12","4",,,,,,,,,,,,,,,,,,,,,,,,,,,"2007-05-17"
"72793024233","2020-10-24T22:53:00","FM-15","7",,,,,,,,,,,,,,,,,,,,,,,,,,,,,,,,,,,,,,,"30.42","26","40","0.00",,,,"58","30.45","FEW:02 50","29.95","10.00","35","040",,"9",,,,,,,,,,,,,,,,,,,,,,,,,,,,,,,,,,,,,"MET09410/24/20 22:53:01 METAR KSEA 250653Z 04008KT 10SM FEW050 04/M03 A3042 RMK AO2 SLP310 T00441033","FM-15","7",,,,,,,,,,,,,,,,,,,,,,,,,,,"2007-05-17"
"72793024233","2020-10-24T23:53:00","FM-15","7",,,,,,,,,,,,,,,,,,,,,,,,,,,,,,,,,,,,,,,"30.43","24","40","0.00",,,,"53","30.45","CLR:00","29.96","10.00","34","040",,"9",,,,,,,,,,,,,,,,,,,,,,,,,,,,,,,,,,,,,"MET10110/24/20 23:53:01 METAR KSEA 250753Z 04008KT 10SM CLR 04/M04 A3043 RMK AO2 SLP312 T00441044 401000044","FM-15","7",,,,,,,,,,,,,,,,,,,,,,,,,,,"2007-05-17"
"72793024233","2020-10-24T23:59:00","SOD  ","6",,,,,,,,,,,,,,,,,"30","45","57","30.25","29.75","39","15.7","0","-5.5","20","50","40","360","31","T","0","0.0","350","25","RA",,,,,,,,,,,,,,,,,,,,,,,,,,,,,,,,,,,,,,,,,,,,,,,,,,,,,,,"SOD74324 HR PRECIPITATION (IN):    T SNOW DEPTH (IN):0     24 HR SNOWFALL (IN):0.0  24 HR MAX TEMP (F): 5024 HR MIN TEMP (F): 40AVERAGE STATION PRESSURE(D):29.750 MINIMUM SEA LEVEL PRESSURE:29.98 TIME OF OCCURRENCE:0003 PEAK WIND SPEED (MPH): 31 PEAK WIND DIR (DEG):360 PEAK WIND TIME (LST):      FASTEST 2MIN SPEED (MPH): 25FASTEST 2MIN DIR (DEG):350 FASTEST 2MIN TIME (LST):     AVERAGE WIND SPEED (MPH):15.7 24 HR AVG TEMP (F): 45DEPART FROM NORMAL: -5  HEATING DEGREE DAYS: 20 COOLING DEGREE DAYS:  0 LATEST DAY MAX TEMP (0700-1900 LST): 50 LATEST NIGHT MIN TEMP(1900-0800 LST):42 HOURLY INCREMENTAL PRECIPITATION VALUES (IN):    T     0.00 0.00 0.00 0.00 0.00 0.00 0.00 0.00 0.00 0.00 0.00 0.00 0.00 0.00 0.00 0.00 0.00 0.00 0.00 0.00 0.00 0.00","SOD  ","6",,,,,,,,,,,,,,,,,,,,,,,,,"0642","1704","2007-05-17"
"72793024233","2020-10-25T00:53:00","FM-15","7",,,,,,,,,,,,,,,,,,,,,,,,,,,,,,,,,,,,,,,"30.44","25","38","0.00",,"-0.04","1","60","30.47","CLR:00","29.97","10.00","33","040",,"8",,,,,,,,,,,,,,,,,,,,,,,,,,,,,,,,,,,,,"MET10210/25/20 00:53:02 METAR KSEA 250853Z 04007KT 10SM CLR 03/M04 A3044 RMK AO2 SLP317 T00331039 51015 (LC)","FM-15","7",,,,,,,,,,,,,,,,,,,,,,,,,,,"2007-05-17"
"72793024233","2020-10-25T01:53:00","FM-15","7",,,,,,,,,,,,,,,,,,,,,,,,,,,,,,,,,,,,,,,"30.46","23","39","0.00",,,,"53","30.49","CLR:00","29.99","10.00","33","050",,"8",,,,,,,,,,,,,,,,,,,,,,,,,,,,,,,,,,,,,"MET09810/25/20 01:53:02 METAR KSEA 250953Z 05007KT 10SM CLR 04/M05 A3046 RMK AO2 SLP324 T00391050 $ (LC)","FM-15","7",,,,,,,,,,,,,,,,,,,,,,,,,,,"2007-05-17"
"72793024233","2020-10-25T02:53:00","FM-15","7",,,,,,,,,,,,,,,,,,,,,,,,,,,,,,,,,,,,,,,"30.47","22","40","0.00",,,,"49","30.50","FEW:02 50","30.00","10.00","33","060",,"14",,,,,,,,,,,,,,,,,,,,,,,,,,,,,,,,,,,,,"MET10110/25/20 02:53:02 METAR KSEA 251053Z 06012KT 10SM FEW050 04/M06 A3047 RMK AO2 SLP328 T00441056 $ (LC)","FM-15","7",,,,,,,,,,,,,,,,,,,,,,,,,,,"2007-05-17"
"72793024233","2020-10-25T03:53:00","FM-15","7",,,,,,,,,,,,,,,,,,,,,,,,,,,,,,,,,,,,,,,"30.48","24","38","0.00",,"-0.04","1","57","30.51","FEW:02 50","30.01","10.00","33","040",,"9",,,,,,,,,,,,,,,,,,,,,,,,,,,,,,,,,,,,,"MET11910/25/20 03:53:02 METAR KSEA 251153Z 04008KT 10SM FEW050 03/M04 A3048 RMK AO2 SLP331 T00331044 10050 20033 51014 $ (LC)","FM-15","7",,,,,,,,,,,,,,,,,,,,,,,,,,,"2007-05-17"
"72793024233","2020-10-25T04:00:00","FM-12","4",,,,,,,,,,,,,,,,,,,,,,,,,,,,,,,,,,,,,,,,"24","38",,,"-0.04","1","57","30.51","57","29.99","9.94","33","040",,"9",,,,,,,,,,,,,,,,,,,,,,,,,,,,,,,,,,,,,"SYN08072793 32766 20408 10033 21044 30156 40331 51014 91153 333 10100 20033 555 92512=","FM-12","4",,,,,,,,,,,,,,,,,,,,,,,,,,,"2007-05-17"
"72793024233","2020-10-25T04:53:00","FM-15","7",,,,,,,,,,,,,,,,,,,,,,,,,,,,,,,,,,,,,,,"30.49","30","36","0.00",,,,"79","30.52","FEW:02 50","30.02","10.00","34","020",,"11",,,,,,,,,,,,,,,,,,,,,,,,,,,,,,,,,,,,,"MET10110/25/20 04:53:02 METAR KSEA 251253Z 02010KT 10SM FEW050 02/M01 A3049 RMK AO2 SLP336 T00221011 $ (LZ)","FM-15","7",,,,,,,,,,,,,,,,,,,,,,,,,,,"2007-05-17"
"72793024233","2020-10-25T05:53:00","FM-15","7",,,,,,,,,,,,,,,,,,,,,,,,,,,,,,,,,,,,,,,"30.52","29","35","0.00",,,,"78","30.55","FEW:02 50","30.05","10.00","33","010",,"9",,,,,,,,,,,,,,,,,,,,,,,,,,,,,,,,,,,,,"MET10110/25/20 05:53:02 METAR KSEA 251353Z 01008KT 10SM FEW050 02/M02 A3052 RMK AO2 SLP345 T00171017 $ (LZ)","FM-15","7",,,,,,,,,,,,,,,,,,,,,,,,,,,"2007-05-17"
"72793024233","2020-10-25T06:53:00","FM-15","7",,,,,,,,,,,,,,,,,,,,,,,,,,,,,,,,,,,,,,,"30.53","28","36","0.00",,"-0.05","1","73","30.56","FEW:02 50","30.06","10.00","33","030",,"9",,,,,,,,,,,,,,,,,,,,,,,,,,,,,,,,,,,,,"MET10710/25/20 06:53:02 METAR KSEA 251453Z 03008KT 10SM FEW050 02/M02 A3053 RMK AO2 SLP348 T00221022 51016 $ (LZ)","FM-15","7",,,,,,,,,,,,,,,,,,,,,,,,,,,"2007-05-17"
"72793024233","2020-10-25T07:53:00","FM-15","7",,,,,,,,,,,,,,,,,,,,,,,,,,,,,,,,,,,,,,,"30.55","29","38","0.00",,,,"70","30.58","FEW:02 50 SCT:04 160","30.08","10.00","34","020",,"11",,,,,,,,,,,,,,,,,,,,,,,,,,,,,,,,,,,,,"MET10810/25/20 07:53:02 METAR KSEA 251553Z 02010KT 10SM FEW050 SCT160 03/M02 A3055 RMK AO2 SLP354 T00331017 $ (LZ)","FM-15","7",,,,,,,,,,,,,,,,,,,,,,,,,,,"2007-05-17"
"72793024233","2020-10-25T08:53:00","FM-15","7",,,,,,,,,,,,,,,,,,,,,,,,,,,,,,,,,,,,,,,"30.56","27","40","0.00",,,,"60","30.58","FEW:02 60 BKN:07 190","30.09","10.00","35","030",,"8",,,,,,,,,,,,,,,,,,,,,,,,,,,,,,,,,,,,,"MET10810/25/20 08:53:02 METAR KSEA 251653Z 03007KT 10SM FEW060 BKN190 04/M03 A3056 RMK AO2 SLP357 T00441028 $ (LZ)","FM-15","7",,,,,,,,,,,,,,,,,,,,,,,,,,,"2007-05-17"
"72793024233","2020-10-25T09:53:00","FM-15","7",,,,,,,,,,,,,,,,,,,,,,,,,,,,,,,,,,,,,,,"30.55","21","43","0.00",,"-0.02","0","42","30.58","BKN:07 200","30.08","10.00","35","050",,"10",,,,,,,,,,,,,,,,,,,,,,,,,,,,,,,,,,,,,"MET11910/25/20 09:53:02 METAR KSEA 251753Z 05009KT 10SM BKN200 06/M06 A3055 RMK AO2 SLP355 T00611061 10061 20011 50008 $ (LZ)","FM-15","7",,,,,,,,,,,,,,,,,,,,,,,,,,,"2007-05-17"
"72793024233","2020-10-25T10:00:00","FM-12","4",,,,,,,,,,,,,,,,,,,,,,,,,,,,,,,,,,,,,,,,"21","43",,,"0.02","9","42","30.58",,"30.06","9.94","35","050",,"10",,,,,,,,,,,,,,,,,,,,,,,,,,,,,,,,,,,,,"SYN08072793 32966 60509 10061 21061 30180 40355 50008 91753 333 10061 20011 555 92518=","FM-12","4",,,,,,,,,,,,,,,,,,,,,,,,,,,"2007-05-17"
"72793024233","2020-10-25T10:53:00","FM-15","7",,,,,,,,,,,,,,,,,,,,,,,,,,,,,,,,,,,,,,,"30.55","24","45","0.00",,,,"44","30.58","BKN:07 200","30.08","10.00","37","020",,"11",,,,,,,,,,,,,,,,,,,,,,,,,,,,,,,,,,,,,"MET10110/25/20 10:53:02 METAR KSEA 251853Z 02010KT 10SM BKN200 07/M04 A3055 RMK AO2 SLP355 T00721044 $ (LZ)","FM-15","7",,,,,,,,,,,,,,,,,,,,,,,,,,,"2007-05-17"
"72793024233","2020-10-25T11:53:00","FM-15","7",,,,,,,,,,,,,,,,,,,,,,,,,,,,,,,,,,,,,,,"30.54","24","47","0.00",,,,"41","30.56","SCT:04 210","30.07","10.00","38","020",,"11",,,,,,,,,,,,,,,,,,,,,,,,,,,,,,,,,,,,,"MET10110/25/20 11:53:02 METAR KSEA 251953Z 02010KT 10SM SCT210 08/M04 A3054 RMK AO2 SLP350 T00831044 $ (LZ)","FM-15","7",,,,,,,,,,,,,,,,,,,,,,,,,,,"2007-05-17"
"72793024233","2020-10-25T12:53:00","FM-15","7",,,,,,,,,,,,,,,,,,,,,,,,,,,,,,,,,,,,,,,"30.54","23","48","0.00",,"+0.01","7","37","30.56","FEW:02 40 SCT:04 220","30.07","10.00","38","010",,"16",,,,,,,,,,,,,,,,,,,,,,,,,,,,,,,,,,,,,"MET11410/25/20 12:53:02 METAR KSEA 252053Z 01014KT 10SM FEW040 SCT220 09/M05 A3054 RMK AO2 SLP350 T00891050 57005 $ (LZ)","FM-15","7",,,,,,,,,,,,,,,,,,,,,,,,,,,"2007-05-17"
"72793024233","2020-10-25T13:53:00","FM-15","7",,,,,,,,,,,,,,,,,,,,,,,,,,,,,,,,,,,,,,,"30.52","23","48","0.00",,,,"37","30.55","FEW:02 80 BKN:07 200","30.05","10.00","38","010",,"11",,,,,,,,,,,,,,,,,,,,,,,,,,,,,,,,,,,,,"MET10810/25/20 13:53:02 METAR KSEA 252153Z 01010KT 10SM FEW080 BKN200 09/M05 A3052 RMK AO2 SLP345 T00891050 $ (TL)","FM-15","7",,,,,,,,,,,,,,,,,,,,,,,,,,,"2007-05-17"
"72793024233","2020-10-25T14:53:00","FM-15","7",,,,,,,,,,,,,,,,,,,,,,,,,,,,,,,,,,,,,,,"30.52","25","49","0.00",,,,"39","30.54","FEW:02 80 SCT:04 200","30.05","10.00","39","020",,"14",,,,,,,,,,,,,,,,,,,,,,,,,,,,,,,,,,,,,"MET10810/25/20 14:53:02 METAR KSEA 252253Z 02012KT 10SM FEW080 SCT200 09/M04 A3052 RMK AO2 SLP343 T00941039 $ (TL)","FM-15","7",,,,,,,,,,,,,,,,,,,,,,,,,,,"2007-05-17"
"72793024233","2020-10-25T15:53:00","FM-15","7",,,,,,,,,,,,,,,,,,,,,,,,,,,,,,,,,,,,,,,"30.52","27","47","0.00",,"+0.02","5","46","30.55","BKN:07 200","30.05","10.00","39","350",,"10",,,,,,,,,,,,,,,,,,,,,,,,,,,,,,,,,,,,,"MET11910/25/20 15:53:02 METAR KSEA 252353Z 35009KT 10SM BKN200 08/M03 A3052 RMK AO2 SLP344 T00831028 10094 20061 55006 $ (TL)","FM-15","7",,,,,,,,,,,,,,,,,,,,,,,,,,,"2007-05-17"
"72793024233","2020-10-25T16:00:00","FM-12","4",,,,,,,,,,,,,,,,,,,,,,,,,,,,,,,,,,,,,,,,"27","47",,,"+0.02","5","46","30.55",,"30.03","9.94","39","350",,"10",,,,,,,,,,,,,,,,,,,,,,,,,,,,,,,,,,,,,"SYN08072793 32966 63509 10083 21028 30170 40344 55006 92353 333 10094 20033 555 92600=","FM-12","4",,,,,,,,,,,,,,,,,,,,,,,,,,,"2007-05-17"
"72793024233","2020-10-25T16:53:00","FM-15","7",,,,,,,,,,,,,,,,,,,,,,,,,,,,,,,,,,,,,,,"30.52","28","44","0.00",,,,"53","30.54","SCT:04 200","30.05","10.00","38","340",,"8",,,,,,,,,,,,,,,,,,,,,,,,,,,,,,,,,,,,,"MET09610/25/20 16:53:01 METAR KSEA 260053Z 34007KT 10SM SCT200 07/M02 A3052 RMK AO2 SLP343 T00671022 $","FM-15","7",,,,,,,,,,,,,,,,,,,,,,,,,,,"2007-05-17"
"72793024233","2020-10-25T17:53:00","FM-15","7",,,,,,,,,,,,,,,,,,,,,,,,,,,,,,,,,,,,,,,"30.52","28","40","0.00",,,,"63","30.55","FEW:02 40","30.05","10.00","35","360",,"9",,,,,,,,,,,,,,,,,,,,,,,,,,,,,,,,,,,,,"MET09610/25/20 17:53:01 METAR KSEA 260153Z 36008KT 10SM FEW040 04/M02 A3052 RMK AO2 SLP345 T00441022 $","FM-15","7",,,,,,,,,,,,,,,,,,,,,,,,,,,"2007-05-17"
"72793024233","2020-10-25T18:53:00","FM-15","7",,,,,,,,,,,,,,,,,,,,,,,,,,,,,,,,,,,,,,,"30.53","27","42","0.00",,"-0.01","3","55","30.56","CLR:00","30.06","10.00","36","010",,"11",,,,,,,,,,,,,,,,,,,,,,,,,,,,,,,,,,,,,"MET09910/25/20 18:53:01 METAR KSEA 260253Z 01010KT 10SM CLR 06/M03 A3053 RMK AO2 SLP349 T00561028 53004 $","FM-15","7",,,,,,,,,,,,,,,,,,,,,,,,,,,"2007-05-17"
"72793024233","2020-10-25T19:53:00","FM-15","7",,,,,,,,,,,,,,,,,,,,,,,,,,,,,,,,,,,,,,,"30.52","28","39","0.00",,,,"65","30.55","CLR:00","30.05","10.00","35","020",,"5",,,,,,,,,,,,,,,,,,,,,,,,,,,,,,,,,,,,,"MET09310/25/20 19:53:01 METAR KSEA 260353Z 02004KT 10SM CLR 04/M02 A3052 RMK AO2 SLP345 T00391022 $","FM-15","7",,,,,,,,,,,,,,,,,,,,,,,,,,,"2007-05-17"
"72793024233","2020-10-25T20:53:00","FM-15","7",,,,,,,,,,,,,,,,,,,,,,,,,,,,,,,,,,,,,,,"30.53","29","40","0.00",,,,"65","30.56","CLR:00","30.06","10.00","36","030",,"10",,,,,,,,,,,,,,,,,,,,,,,,,,,,,,,,,,,,,"MET09310/25/20 20:53:01 METAR KSEA 260453Z 03009KT 10SM CLR 04/M02 A3053 RMK AO2 SLP350 T00441017 $","FM-15","7",,,,,,,,,,,,,,,,,,,,,,,,,,,"2007-05-17"
"72793024233","2020-10-25T21:53:00","FM-15","7",,,,,,,,,,,,,,,,,,,,,,,,,,,,,,,,,,,,,,,"30.52","28","39","0.00",,"+0.01","8","65","30.55","CLR:00","30.05","10.00","35","040",,"9",,,,,,,,,,,,,,,,,,,,,,,,,,,,,,,,,,,,,"MET11110/25/20 21:53:01 METAR KSEA 260553Z 04008KT 10SM CLR 04/M02 A3052 RMK AO2 SLP346 T00391022 10083 20033 58003 $","FM-15","7",,,,,,,,,,,,,,,,,,,,,,,,,,,"2007-05-17"
"72793024233","2020-10-25T22:00:00","FM-12","4",,,,,,,,,,,,,,,,,,,,,,,,,,,,,,,,,,,,,,,,"28","39",,,"+0.01","8","65","30.55",,"30.03","9.94","35","040",,"9",,,,,,,,,,,,,,,,,,,,,,,,,,,,,,,,,,,,,"SYN08072793 32966 00408 10039 21022 30170 40346 58003 90553 333 10083 20033 555 92606=","FM-12","4",,,,,,,,,,,,,,,,,,,,,,,,,,,"2007-05-17"
"72793024233","2020-10-25T22:53:00","FM-15","7",,,,,,,,,,,,,,,,,,,,,,,,,,,,,,,,,,,,,,,"30.52","28","38","0.00",,,,"68","30.55","CLR:00","30.05","10.00","34","040",,"7",,,,,,,,,,,,,,,,,,,,,,,,,,,,,,,,,,,,,"MET09310/25/20 22:53:01 METAR KSEA 260653Z 04006KT 10SM CLR 03/M02 A3052 RMK AO2 SLP344 T00331022 $","FM-15","7",,,,,,,,,,,,,,,,,,,,,,,,,,,"2007-05-17"
"72793024233","2020-10-25T23:53:00","FM-15","7",,,,,,,,,,,,,,,,,,,,,,,,,,,,,,,,,,,,,,,"30.52","27","35","0.00",,,,"72","30.55","CLR:00","30.05","10.00","32","360",,"3",,,,,,,,,,,,,,,,,,,,,,,,,,,,,,,,,,,,,"MET10310/25/20 23:53:01 METAR KSEA 260753Z 36003KT 10SM CLR 02/M03 A3052 RMK AO2 SLP344 T00171028 400940011 $","FM-15","7",,,,,,,,,,,,,,,,,,,,,,,,,,,"2007-05-17"
"72793024233","2020-10-25T23:59:00","SOD  ","6",,,,,,,,,,,,,,,,,"26","42","57","30.55","30.04","35","9.9","0","-8.3","23","49","34","030","20","0.00","0","0.0","030","16",,,,,,,,,,,,,,,,,,,,,,,,,,,,,,,,,,,,,,,,,,,,,,,,,,,,,,,,"SOD73924 HR PRECIPITATION (IN): 0.00 SNOW DEPTH (IN):0     24 HR SNOWFALL (IN):0.0  24 HR MAX TEMP (F): 4924 HR MIN TEMP (F): 34AVERAGE STATION PRESSURE:30.040 MINIMUM SEA LEVEL PRESSURE:30.45 TIME OF OCCURRENCE:0006 PEAK WIND SPEED (MPH): 20 PEAK WIND DIR (DEG): 30 PEAK WIND TIME (LST):      FASTEST 2MIN SPEED (MPH): 16FASTEST 2MIN DIR (DEG): 30 FASTEST 2MIN TIME (LST):     AVERAGE WIND SPEED (MPH): 9.9 24 HR AVG TEMP (F): 42DEPART FROM NORMAL: -8  HEATING DEGREE DAYS: 23 COOLING DEGREE DAYS:  0 LATEST DAY MAX TEMP (0700-1900 LST):49  LATEST NIGHT MIN TEMP(1900-0800 LST):34 HOURLY INCREMENTAL PRECIPITATION VALUES (IN):.00 0.00 0.00 0.00 0.00 0.00 0.00 0.00 0.00 0.00 0.00 0.00 0.00 0.00 0.00 0.00 0.00 0.00 0.00 0.00 0.00 0.00 0.00 0.00","SOD  ","6",,,,,,,,,,,,,,,,,,,,,,,,,"0644","1702","2007-05-17"
"72793024233","2020-10-26T00:53:00","FM-15","7",,,,,,,,,,,,,,,,,,,,,,,,,,,,,,,,,,,,,,,"30.52","30","38","0.00",,"-0.00","3","73","30.55","SCT:04 160","30.05","10.00","35","000",,"0",,,,,,,,,,,,,,,,,,,,,,,,,,,,,,,,,,,,,"MET10710/26/20 00:53:02 METAR KSEA 260853Z 00000KT 10SM SCT160 03/M01 A3052 RMK AO2 SLP345 T00331011 53000 $ (LC)","FM-15","7",,,,,,,,,,,,,,,,,,,,,,,,,,,"2007-05-17"
"72793024233","2020-10-26T01:53:00","FM-15","7",,,,,,,,,,,,,,,,,,,,,,,,,,,,,,,,,,,,,,,"30.52","31","39","0.00",,,,"73","30.54","BKN:07 90 BKN:07 160","30.05","10.00","36","080",,"5",,,,,,,,,,,,,,,,,,,,,,,,,,,,,,,,,,,,,"MET10810/26/20 01:53:02 METAR KSEA 260953Z 08004KT 10SM BKN090 BKN160 04/M01 A3052 RMK AO2 SLP342 T00391006 $ (LC)","FM-15","7",,,,,,,,,,,,,,,,,,,,,,,,,,,"2007-05-17"
"72793024233","2020-10-26T02:53:00","FM-15","7",,,,,,,,,,,,,,,,,,,,,,,,,,,,,,,,,,,,,,,"30.50","25","39","0.00",,,,"57","30.53","OVC:08 80","30.03","10.00","34","120",,"3",,,,,,,,,,,,,,,,,,,,,,,,,,,,,,,,,,,,,"MET10110/26/20 02:53:02 METAR KSEA 261053Z 12003KT 10SM OVC080 04/M04 A3050 RMK AO2 SLP338 T00391039 $ (LC)","FM-15","7",,,,,,,,,,,,,,,,,,,,,,,,,,,"2007-05-17"
"72793024233","2020-10-26T03:53:00","FM-15","7",,,,,,,,,,,,,,,,,,,,,,,,,,,,,,,,,,,,,,,"30.49","26","40","0.00",,"+0.03","8","58","30.52","OVC:08 70","30.02","10.00","35","090",,"6",,,,,,,,,,,,,,,,,,,,,,,,,,,,,,,,,,,,,"MET11910/26/20 03:53:02 METAR KSEA 261153Z 09005KT 10SM OVC070 04/M03 A3049 RMK AO2 SLP335 T00441033 10044 20011 58010 $ (LC)","FM-15","7",,,,,,,,,,,,,,,,,,,,,,,,,,,"2007-05-17"
"72793024233","2020-10-26T04:00:00","FM-12","4",,,,,,,,,,,,,,,,,,,,,,,,,,,,,,,,,,,,,,,,"26","40",,,"+0.03","8","58","30.52","74","30.00","9.94","35","090",,"6",,,,,,,,,,,,,,,,,,,,,,,,,,,,,,,,,,,,,"SYN08072793 32866 80905 10044 21033 30160 40335 58010 91153 333 10094 20011 555 92612=","FM-12","4",,,,,,,,,,,,,,,,,,,,,,,,,,,"2007-05-17"
"72793024233","2020-10-26T04:53:00","FM-15","7",,,,,,,,,,,,,,,,,,,,,,,,,,,,,,,,,,,,,,,"30.50","27","39","T",,,,"62","30.53","OVC:08 65","30.03","10.00","34","000",,"0",,,,,,,,,,,,,,,,,,,,,,,,,,,,,,,,,,,,,"MET11610/26/20 04:53:02 METAR KSEA 261253Z 00000KT 10SM OVC065 04/M03 A3050 RMK AO2 RAB43E52 SLP337 P0000 T00391028 $ (LC)","FM-15","7",,,,,,,,,,,,,,,,,,,,,,,,,,,"2007-05-17"
"72793024233","2020-10-26T05:53:00","FM-15","7",,,,,,,,,,,,,,,,,,,,,,,,,,,,,,,,,,,,,,,"30.49","32","39","0.00",,,,"76","30.52","OVC:08 60","30.02","10.00","36","000",,"0",,,,,,,,,,,,,,,,,,,,,,,,,,,,,,,,,,,,,"MET09810/26/20 05:53:02 METAR KSEA 261353Z 00000KT 10SM OVC060 04/00 A3049 RMK AO2 SLP334 T00390000 (LC)","FM-15","7",,,,,,,,,,,,,,,,,,,,,,,,,,,"2007-05-17"
"72793024233","2020-10-26T06:53:00","FM-15","7",,,,,,,,,,,,,,,,,,,,,,,,,,,,,,,,,,,,,,,"30.49","33","39","0.00",,"+0.00","8","79","30.52","OVC:08 60","30.02","10.00","37","350",,"3",,,,,,,,,,,,,,,,,,,,,,,,,,,,,,,,,,,,,"MET11010/26/20 06:53:02 METAR KSEA 261453Z 35003KT 10SM OVC060 04/01 A3049 RMK AO2 SLP335 60000 T00390006 58001 (JC)","FM-15","7",,,,,,,,,,,,,,,,,,,,,,,,,,,"2007-05-17"
"72793024233","2020-10-26T07:53:00","FM-15","7",,,,,,,,,,,,,,,,,,,,,,,,,,,,,,,,,,,,,,,"30.49","32","40","0.00",,,,"73","30.52","BKN:07 55","30.02","10.00","37","350",,"5",,,,,,,,,,,,,,,,,,,,,,,,,,,,,,,,,,,,,"MET09310/26/20 07:53:02 METAR KSEA 261553Z 35004KT 10SM BKN055 04/00 A3049 RMK AO2 SLP336 T00440000","FM-15","7",,,,,,,,,,,,,,,,,,,,,,,,,,,"2007-05-17"
"72793024233","2020-10-26T08:53:00","FM-15","7",,,,,,,,,,,,,,,,,,,,,,,,,,,,,,,,,,,,,,,"30.50","32","42","0.00",,,,"68","30.53","BKN:07 55","30.03","10.00","38","020",,"6",,,,,,,,,,,,,,,,,,,,,,,,,,,,,,,,,,,,,"MET09310/26/20 08:53:02 METAR KSEA 261653Z 02005KT 10SM BKN055 06/00 A3050 RMK AO2 SLP339 T00560000","FM-15","7",,,,,,,,,,,,,,,,,,,,,,,,,,,"2007-05-17"
"72793024233","2020-10-26T09:53:00","FM-15","7",,,,,,,,,,,,,,,,,,,,,,,,,,,,,,,,,,,,,,,"30.51","33","44","0.00",,"-0.02","3","65","30.53","BKN:07 50","30.04","10.00","39","350",,"9",,,,,,,,,,,,,,,,,,,,,,,,,,,,,,,,,,,,,"MET11710/26/20 09:53:02 METAR KSEA 261753Z 35008KT 10SM BKN050 07/01 A3051 RMK AO2 SLP340 60000 T00670006 10067 20033 53006","FM-15","7",,,,,,,,,,,,,,,,,,,,,,,,,,,"2007-05-17"
"72793024233","2020-10-26T10:00:00","FM-12","4",,,,,,,,,,,,,,,,,,,,,,,,,,,,,,,,,,,,,,,,"33","44",,,"-0.02","3","65","30.53","57","30.02","9.94","39","350",,"9",,,,,,,,,,,,,,,,,,,,,,,,,,,,,,,,,,,,,"SYN08672793 12766 63508 10067 20006 30166 40340 53006 69901 91753 333 10067 20033 555 92618=","FM-12","4",,,,,,,,,,,,,,,,,,,,,,,,,,,"2007-05-17"
"72793024233","2020-10-26T10:53:00","FM-15","7",,,,,,,,,,,,,,,,,,,,,,,,,,,,,,,,,,,,,,,"30.50","32","47","0.00",,,,"56","30.53","BKN:07 50","30.03","10.00","41","340",,"6",,,,,,,,,,,,,,,,,,,,,,,,,,,,,,,,,,,,,"MET09310/26/20 10:53:02 METAR KSEA 261853Z 34005KT 10SM BKN050 08/00 A3050 RMK AO2 SLP337 T00830000","FM-15","7",,,,,,,,,,,,,,,,,,,,,,,,,,,"2007-05-17"
"72793024233","2020-10-26T11:53:00","FM-15","7",,,,,,,,,,,,,,,,,,,,,,,,,,,,,,,,,,,,,,,"30.49","33","48","0.00",,,,"56","30.51","BKN:07 48 BKN:07 150 BKN:07 240","30.02","10.00","41","360",,"5",,,,,,,,,,,,,,,,,,,,,,,,,,,,,,,,,,,,,"MET12010/26/20 11:53:02 METAR KSEA 261953Z 36004KT 10SM BKN048 BKN150 BKN240 09/01 A3049 RMK AO2 SLP333 ACSL DSNT SE T00890006","FM-15","7",,,,,,,,,,,,,,,,,,,,,,,,,,,"2007-05-17"
"72793024233","2020-10-26T12:53:00","FM-15","7",,,,,,,,,,,,,,,,,,,,,,,,,,,,,,,,,,,,,,,"30.48","30","49","0.00",,"+0.04","8","48","30.50","BKN:07 48 BKN:07 150","30.01","10.00","41","010",,"8",,,,,,,,,,,,,,,,,,,,,,,,,,,,,,,,,,,,,"MET10710/26/20 12:53:02 METAR KSEA 262053Z 01007KT 10SM BKN048 BKN150 09/M01 A3048 RMK AO2 SLP329 T00941011 58012","FM-15","7",,,,,,,,,,,,,,,,,,,,,,,,,,,"2007-05-17"
"72793024233","2020-10-26T13:53:00","FM-15","7",,,,,,,,,,,,,,,,,,,,,,,,,,,,,,,,,,,,,,,"30.46","35","50","0.00",,,,"57","30.49","BKN:07 46 BKN:07 150","29.99","10.00","43","340",,"7",,,,,,,,,,,,,,,,,,,,,,,,,,,,,,,,,,,,,"MET10010/26/20 13:53:02 METAR KSEA 262153Z 34006KT 10SM BKN046 BKN150 10/02 A3046 RMK AO2 SLP324 T01000017","FM-15","7",,,,,,,,,,,,,,,,,,,,,,,,,,,"2007-05-17"
"72793024233","2020-10-26T14:53:00","FM-15","7",,,,,,,,,,,,,,,,,,,,,,,,,,,,,,,,,,,,,,,"30.46","35","52","0.00",,,,"53","30.48","BKN:07 49 BKN:07 150","29.99","10.00","44","330",,"8",,,,,,,,,,,,,,,,,,,,,,,,,,,,,,,,,,,,,"MET10010/26/20 14:53:02 METAR KSEA 262253Z 33007KT 10SM BKN049 BKN150 11/02 A3046 RMK AO2 SLP323 T01110017","FM-15","7",,,,,,,,,,,,,,,,,,,,,,,,,,,"2007-05-17"
"72793024233","2020-10-26T15:53:00","FM-15","7",,,,,,,,,,,,,,,,,,,,,,,,,,,,,,,,,,,,,,,"30.46","33","51","0.00",,"+0.01","5","50","30.48","SCT:04 49","29.99","10.00","43","010",,"5",,,,,,,,,,,,,,,,,,,,,,,,,,,,,,,,,,,,,"MET11110/26/20 15:53:02 METAR KSEA 262353Z 01004KT 10SM SCT049 11/01 A3046 RMK AO2 SLP323 T01060006 10111 20067 55005","FM-15","7",,,,,,,,,,,,,,,,,,,,,,,,,,,"2007-05-17"
"72793024233","2020-10-26T16:00:00","FM-12","4",,,,,,,,,,,,,,,,,,,,,,,,,,,,,,,,,,,,,,,,"33","51",,,"+0.01","5","50","30.48","41","29.97","9.94","43","010",,"5",,,,,,,,,,,,,,,,,,,,,,,,,,,,,,,,,,,,,"SYN08072793 32666 40104 10106 20006 30150 40323 55005 92353 333 10111 20011 555 92700=","FM-12","4",,,,,,,,,,,,,,,,,,,,,,,,,,,"2007-05-17"
"72793024233","2020-10-26T16:53:00","FM-15","7",,,,,,,,,,,,,,,,,,,,,,,,,,,,,,,,,,,,,,,"30.46","32","49","0.00",,,,"52","30.49","BKN:07 47","29.99","10.00","42","360",,"6",,,,,,,,,,,,,,,,,,,,,,,,,,,,,,,,,,,,,"MET09310/26/20 16:53:01 METAR KSEA 270053Z 36005KT 10SM BKN047 09/00 A3046 RMK AO2 SLP324 T00940000","FM-15","7",,,,,,,,,,,,,,,,,,,,,,,,,,,"2007-05-17"
"72793024233","2020-10-26T17:53:00","FM-15","7",,,,,,,,,,,,,,,,,,,,,,,,,,,,,,,,,,,,,,,"30.46","33","48","0.00",,,,"56","30.49","BKN:07 47","29.99","10.00","41","010",,"7",,,,,,,,,,,,,,,,,,,,,,,,,,,,,,,,,,,,,"MET09310/26/20 17:53:01 METAR KSEA 270153Z 01006KT 10SM BKN047 09/01 A3046 RMK AO2 SLP324 T00890006","FM-15","7",,,,,,,,,,,,,,,,,,,,,,,,,,,"2007-05-17"
"72793024233","2020-10-26T18:53:00","FM-15","7",,,,,,,,,,,,,,,,,,,,,,,,,,,,,,,,,,,,,,,"30.46","33","49","0.00",,"-0.00","2","55","30.49","BKN:07 45","29.99","10.00","42","010",,"6",,,,,,,,,,,,,,,,,,,,,,,,,,,,,,,,,,,,,"MET09910/26/20 18:53:01 METAR KSEA 270253Z 01005KT 10SM BKN045 09/01 A3046 RMK AO2 SLP324 T00940006 52001","FM-15","7",,,,,,,,,,,,,,,,,,,,,,,,,,,"2007-05-17"
"72793024233","2020-10-26T19:53:00","FM-15","7",,,,,,,,,,,,,,,,,,,,,,,,,,,,,,,,,,,,,,,"30.47","35","48","0.00",,,,"61","30.49","OVC:08 42","30.00","10.00","42","010",,"5",,,,,,,,,,,,,,,,,,,,,,,,,,,,,,,,,,,,,"MET09310/26/20 19:53:01 METAR KSEA 270353Z 01004KT 10SM OVC042 09/02 A3047 RMK AO2 SLP325 T00890017","FM-15","7",,,,,,,,,,,,,,,,,,,,,,,,,,,"2007-05-17"
"72793024233","2020-10-26T20:53:00","FM-15","7",,,,,,,,,,,,,,,,,,,,,,,,,,,,,,,,,,,,,,,"30.46","37","48","0.00",,,,"66","30.49","OVC:08 42","29.99","10.00","43","020",,"6",,,,,,,,,,,,,,,,,,,,,,,,,,,,,,,,,,,,,"MET09310/26/20 20:53:01 METAR KSEA 270453Z 02005KT 10SM OVC042 09/03 A3046 RMK AO2 SLP324 T00890028","FM-15","7",,,,,,,,,,,,,,,,,,,,,,,,,,,"2007-05-17"
"72793024233","2020-10-26T21:53:00","FM-15","7",,,,,,,,,,,,,,,,,,,,,,,,,,,,,,,,,,,,,,,"30.46","36","48","0.00",,"+0.01","8","63","30.48","OVC:08 39","29.99","10.00","43","000",,"0",,,,,,,,,,,,,,,,,,,,,,,,,,,,,,,,,,,,,"MET11110/26/20 21:53:01 METAR KSEA 270553Z 00000KT 10SM OVC039 09/02 A3046 RMK AO2 SLP322 T00890022 10106 20089 58002","FM-15","7",,,,,,,,,,,,,,,,,,,,,,,,,,,"2007-05-17"
"72793024233","2020-10-26T22:00:00","FM-12","4",,,,,,,,,,,,,,,,,,,,,,,,,,,,,,,,,,,,,,,,"36","48",,,"+0.01","8","63","30.48","41","29.97","9.94","43","000",,"0",,,,,,,,,,,,,,,,,,,,,,,,,,,,,,,,,,,,,"SYN08072793 32666 80000 10089 20022 30150 40322 58002 90553 333 10106 20011 555 92706=","FM-12","4",,,,,,,,,,,,,,,,,,,,,,,,,,,"2007-05-17"
"72793024233","2020-10-26T22:53:00","FM-15","7",,,,,,,,,,,,,,,,,,,,,,,,,,,,,,,,,,,,,,,"30.46","37","47","0.00",,,,"69","30.48","OVC:08 37","29.99","10.00","43","000",,"0",,,,,,,,,,,,,,,,,,,,,,,,,,,,,,,,,,,,,"MET09310/26/20 22:53:01 METAR KSEA 270653Z 00000KT 10SM OVC037 08/03 A3046 RMK AO2 SLP321 T00830028","FM-15","7",,,,,,,,,,,,,,,,,,,,,,,,,,,"2007-05-17"
"72793024233","2020-10-26T23:53:00","FM-15","7",,,,,,,,,,,,,,,,,,,,,,,,,,,,,,,,,,,,,,,"30.45","37","47","0.00",,,,"69","30.47","OVC:08 35","29.98","10.00","43","000",,"0",,,,,,,,,,,,,,,,,,,,,,,,,,,,,,,,,,,,,"MET10310/26/20 23:53:01 METAR KSEA 270753Z 00000KT 10SM OVC035 08/03 A3045 RMK AO2 SLP318 T00830028 401110017","FM-15","7",,,,,,,,,,,,,,,,,,,,,,,,,,,"2007-05-17"
"72793024233","2020-10-26T23:59:00","SOD  ","6",,,,,,,,,,,,,,,,,"32","44","62","30.51","30.01","40","4.3","0","-6.1","21","52","35","310","12","T","0","0.0","300","9",,,,,,,,,,,,,,,,,,,,,,,,,,,,,,,,,,,,,,,,,,,,,,,,,,,,,,,,"SOD74324 HR PRECIPITATION (IN):    T SNOW DEPTH (IN):0     24 HR SNOWFALL (IN):0.0  24 HR MAX TEMP (F): 5224 HR MIN TEMP (F): 35AVERAGE STATION PRESSURE(D):30.009 MINIMUM SEA LEVEL PRESSURE:30.47 TIME OF OCCURRENCE:2359 PEAK WIND SPEED (MPH): 12 PEAK WIND DIR (DEG):310 PEAK WIND TIME (LST):      FASTEST 2MIN SPEED (MPH):  9FASTEST 2MIN DIR (DEG):300 FASTEST 2MIN TIME (LST):     AVERAGE WIND SPEED (MPH): 4.3 24 HR AVG TEMP (F): 44DEPART FROM NORMAL: -6  HEATING DEGREE DAYS: 21 COOLING DEGREE DAYS:  0 LATEST DAY MAX TEMP (0700-1900 LST): 52 LATEST NIGHT MIN TEMP(1900-0800 LST):34 HOURLY INCREMENTAL PRECIPITATION VALUES (IN):0.00 0.00 0.00 0.00T     0.00 0.00 0.00 0.00 0.00 0.00 0.00 0.00 0.00 0.00 0.00 0.00 0.00 0.00 0.00 0.00 0.00 0.00 0.00","SOD  ","6",,,,,,,,,,,,,,,,,,,,,,,,,"0645","1700","2007-05-17"
"72793024233","2020-10-27T00:53:00","FM-15","7",,,,,,,,,,,,,,,,,,,,,,,,,,,,,,,,,,,,,,,"30.44","37","47","0.00",,"+0.02","8","69","30.46","OVC:08 35","29.97","10.00","43","000",,"0",,,,,,,,,,,,,,,,,,,,,,,,,,,,,,,,,,,,,"MET10610/27/20 00:53:02 METAR KSEA 270853Z 00000KT 10SM OVC035 08/03 A3044 RMK AO2 SLP315 T00830028 58006 $ (MR)","FM-15","7",,,,,,,,,,,,,,,,,,,,,,,,,,,"2007-05-17"
"72793024233","2020-10-27T01:53:00","FM-15","7",,,,,,,,,,,,,,,,,,,,,,,,,,,,,,,,,,,,,,,"30.44","38","46","0.00",,,,"73","30.47","OVC:08 33","29.97","10.00","42","000",,"0",,,,,,,,,,,,,,,,,,,,,,,,,,,,,,,,,,,,,"MET10010/27/20 01:53:02 METAR KSEA 270953Z 00000KT 10SM OVC033 08/03 A3044 RMK AO2 SLP317 T00780033 $ (MR)","FM-15","7",,,,,,,,,,,,,,,,,,,,,,,,,,,"2007-05-17"
"72793024233","2020-10-27T02:53:00","FM-15","7",,,,,,,,,,,,,,,,,,,,,,,,,,,,,,,,,,,,,,,"30.43","38","46","0.00",,,,"73","30.45","OVC:08 34","29.96","10.00","42","000",,"0",,,,,,,,,,,,,,,,,,,,,,,,,,,,,,,,,,,,,"MET10010/27/20 02:53:02 METAR KSEA 271053Z 00000KT 10SM OVC034 08/03 A3043 RMK AO2 SLP312 T00780033 $ (MR)","FM-15","7",,,,,,,,,,,,,,,,,,,,,,,,,,,"2007-05-17"
"72793024233","2020-10-27T03:53:00","FM-15","7",,,,,,,,,,,,,,,,,,,,,,,,,,,,,,,,,,,,,,,"30.43","39","45","0.00",,"+0.01","8","80","30.45","OVC:08 35","29.96","10.00","42","350",,"3",,,,,,,,,,,,,,,,,,,,,,,,,,,,,,,,,,,,,"MET10610/27/20 03:53:02 METAR KSEA 271153Z 35003KT 10SM OVC035 07/04 A3043 RMK AO2 SLP311 T00720039 58004 $ (MR)","FM-15","7",,,,,,,,,,,,,,,,,,,,,,,,,,,"2007-05-17"
"72793024233","2020-10-27T04:00:00","FM-12","4",,,,,,,,,,,,,,,,,,,,,,,,,,,,,,,,,,,,,,,,"39","45",,,"+0.01","8","80","30.45","41","29.94","9.94","42","350",,"3",,,,,,,,,,,,,,,,,,,,,,,,,,,,,,,,,,,,,"SYN07472793 32666 83503 10072 20039 30140 40311 58004 91153 333 10111 555 92712=","FM-12","4",,,,,,,,,,,,,,,,,,,,,,,,,,,"2007-05-17"
"72793024233","2020-10-27T04:53:00","FM-15","7",,,,,,,,,,,,,,,,,,,,,,,,,,,,,,,,,,,,,,,"30.41","38","46","0.00",,,,"73","30.44","OVC:08 34","29.94","10.00","42","000",,"0",,,,,,,,,,,,,,,,,,,,,,,,,,,,,,,,,,,,,"MET10010/27/20 04:53:02 METAR KSEA 271253Z 00000KT 10SM OVC034 08/03 A3041 RMK AO2 SLP307 T00780033 $ (MR)","FM-15","7",,,,,,,,,,,,,,,,,,,,,,,,,,,"2007-05-17"
"72793024233","2020-10-27T05:53:00","FM-15","7",,,,,,,,,,,,,,,,,,,,,,,,,,,,,,,,,,,,,,,"30.41","38","46","0.00",,,,"73","30.43","OVC:08 35","29.94","10.00","42","000",,"0",,,,,,,,,,,,,,,,,,,,,,,,,,,,,,,,,,,,,"MET09510/27/20 05:53:02 METAR KSEA 271353Z 00000KT 10SM OVC035 08/03 A3041 RMK AO2 SLP306 T00780033 $","FM-15","7",,,,,,,,,,,,,,,,,,,,,,,,,,,"2007-05-17"
"72793024233","2020-10-27T06:53:00","FM-15","7",,,,,,,,,,,,,,,,,,,,,,,,,,,,,,,,,,,,,,,"30.41","40","45","0.00",,"+0.01","5","83","30.43","BKN:07 36 BKN:07 250","29.94","10.00","43","150",,"5",,,,,,,,,,,,,,,,,,,,,,,,,,,,,,,,,,,,,"MET11310/27/20 06:53:02 METAR KSEA 271453Z 15004KT 10SM BKN036 BKN250 07/04 A3041 RMK AO2 SLP306 T00720044 55005 $ (JC)","FM-15","7",,,,,,,,,,,,,,,,,,,,,,,,,,,"2007-05-17"
"72793024233","2020-10-27T07:53:00","FM-15","7",,,,,,,,,,,,,,,,,,,,,,,,,,,,,,,,,,,,,,,"30.42","41","46","0.00",,,,"83","30.44","SCT:04 28 BKN:07 37","29.95","10.00","44","150",,"3",,,,,,,,,,,,,,,,,,,,,,,,,,,,,,,,,,,,,"MET10710/27/20 07:53:02 METAR KSEA 271553Z 15003KT 10SM SCT028 BKN037 08/05 A3042 RMK AO2 SLP307 T00780050 $ (JC)","FM-15","7",,,,,,,,,,,,,,,,,,,,,,,,,,,"2007-05-17"
"72793024233","2020-10-27T08:53:00","FM-15","7",,,,,,,,,,,,,,,,,,,,,,,,,,,,,,,,,,,,,,,"30.42","41","46","0.00",,,,"83",,"SCT:04 28 BKN:07 37","29.95","10.00","44","120",,"3",,,,,,,,,,,,,,,,,,,,,,,,,,,,,,,,,,,,,"MET09910/27/20 08:53:02 METAR KSEA 271653Z 12003KT 10SM SCT028 BKN037 08/05 A3042 RMK AO2 SLPNO T00780050","FM-15","7",,,,,,,,,,,,,,,,,,,,,,,,,,,"2007-05-17"
"72793024233","2020-10-27T08:55:00","FM-16","7",,,,,,,,,,,,,,,,,,,,,,,,,,,,,,,,,,,,,,,,"41","46",,,,,"83",,"SCT:04 28 BKN:07 37",,"10.00",,"120",,"3",,,,,,,,,,,,,,,,,,,,,,,,,,,,,,,,,,,,,"MET09410/27/20 08:55:02 SPECI KSEA 271655Z 12003KT 10SM SCT028 BKN037 08/05 RMK AO2 T00780050 $ (JC)","FM-16","7",,,,,,,,,,,,,,,,,,,,,,,,,,,"2007-05-17"
"72793024233","2020-10-27T08:58:00","FM-16","7",,,,,,,,,,,,,,,,,,,,,,,,,,,,,,,,,,,,,,,"30.42","41","46",,,,,"83",,"SCT:04 28 BKN:07 37","29.95","10.00","44","120",,"3",,,,,,,,,,,,,,,,,,,,,,,,,,,,,,,,,,,,,"MET10010/27/20 08:58:02 SPECI KSEA 271658Z 12003KT 10SM SCT028 BKN037 08/05 A3042 RMK AO2 T00780050 $ (JC)","FM-16","7",,,,,,,,,,,,,,,,,,,,,,,,,,,"2007-05-17"
"72793024233","2020-10-27T09:53:00","FM-15","7",,,,,,,,,,,,,,,,,,,,,,,,,,,,,,,,,,,,,,,"30.41","41","48","0.00",,,,"77",,"SCT:04 28 SCT:04 37 BKN:07 250","29.94","10.00","45","000",,"0",,,,,,,,,,,,,,,,,,,,,,,,,,,,,,,,,,,,,"MET10610/27/20 09:53:02 METAR KSEA 271753Z 00000KT 10SM SCT028 SCT037 BKN250 09/05 A3041 RMK AO2 SLPNO T00890050","FM-15","7",,,,,,,,,,,,,,,,,,,,,,,,,,,"2007-05-17"
"72793024233","2020-10-27T10:00:00","FM-12","4",,,,,,,,,,,,,,,,,,,,,,,,,,,,,,,,,,,,,,,,"41","48",,,,,"77",,"26","29.92","9.94","45","000",,"0",,,,,,,,,,,,,,,,,,,,,,,,,,,,,,,,,,,,,"SYN05272793 32566 60000 10089 20050 30133 91753 555 92718=","FM-12","4",,,,,,,,,,,,,,,,,,,,,,,,,,,"2007-05-17"
"72793024233","2020-10-27T10:01:00","FM-16","7",,,,,,,,,,,,,,,,,,,,,,,,,,,,,,,,,,,,,,,"30.41","41","48",,,,,"77",,"SCT:04 28 SCT:04 36 BKN:07 250","29.94","10.00","45","000",,"0",,,,,,,,,,,,,,,,,,,,,,,,,,,,,,,,,,,,,"MET10710/27/20 10:01:02 SPECI KSEA 271801Z 00000KT 10SM SCT028 SCT036 BKN250 09/05 A3041 RMK AO2 T00890050 $ (JC)","FM-16","7",,,,,,,,,,,,,,,,,,,,,,,,,,,"2007-05-17"
"72793024233","2020-10-27T10:53:00","FM-15","7",,,,,,,,,,,,,,,,,,,,,,,,,,,,,,,,,,,,,,,"30.41","42","49","0.00",,,,"77","30.43","BKN:07 34","29.94","10.00","46","240",,"7",,,,,,,,,,,,,,,,,,,,,,,,,,,,,,,,,,,,,"MET10010/27/20 10:53:02 METAR KSEA 271853Z 24006KT 10SM BKN034 09/06 A3041 RMK AO2 SLP304 T00940056 $ (JC)","FM-15","7",,,,,,,,,,,,,,,,,,,,,,,,,,,"2007-05-17"
"72793024233","2020-10-27T11:53:00","FM-15","7",,,,,,,,,,,,,,,,,,,,,,,,,,,,,,,,,,,,,,,"30.39","42","51","0.00",,,,"71","30.41","BKN:07 34 BKN:07 250","29.92","10.00","47","200",,"6",,,,,,,,,,,,,,,,,,,,,,,,,,,,,,,,,,,,,"MET10710/27/20 11:53:02 METAR KSEA 271953Z 20005KT 10SM BKN034 BKN250 11/06 A3039 RMK AO2 SLP298 T01060056 $ (JC)","FM-15","7",,,,,,,,,,,,,,,,,,,,,,,,,,,"2007-05-17"
"72793024233","2020-10-27T12:53:00","FM-15","7",,,,,,,,,,,,,,,,,,,,,,,,,,,,,,,,,,,,,,,"30.36","41","54",,,,,"62","30.38","BKN:07 33 BKN:07 250","29.89","10.00","48","200",,"7",,,,,,,,,,,,,,,,,,,,,,,,,,,,,,,,,,,,,"MET10510/27/20 12:53:02 METAR KSEA 272053Z 20006KT 10SM BKN033 BKN250 12/05 A3036 RMK AO2 SLP288 T01220050 (JC)","FM-15","7",,,,,,,,,,,,,,,,,,,,,,,,,,,"2007-05-17"
"72793024233","2020-10-27T13:53:00","FM-15","7",,,,,,,,,,,,,,,,,,,,,,,,,,,,,,,,,,,,,,,"30.35","40","57","0.00",,,,"53",,"FEW:02 33 FEW:02 150 BKN:07 250","29.88","10.00","49","260",,"6",,,,,,,,,,,,,,,,,,,,,,,,,,,,,,,,,,,,,"MET11110/27/20 13:53:02 METAR KSEA 272153Z 26005KT 10SM FEW033 FEW150 BKN250 14/04 A3035 RMK AO2 SLPNO T01390044 (RS)","FM-15","7",,,,,,,,,,,,,,,,,,,,,,,,,,,"2007-05-17"
"72793024233","2020-10-27T14:53:00","FM-15","7",,,,,,,,,,,,,,,,,,,,,,,,,,,,,,,,,,,,,,,"30.34","42","57","0.00",,,,"58","30.36","FEW:02 35 FEW:02 160 BKN:07 250","29.87","10.00","50","270",,"9",,,,,,,,,,,,,,,,,,,,,,,,,,,,,,,,,,,,,"MET11210/27/20 14:53:02 METAR KSEA 272253Z 27008KT 10SM FEW035 FEW160 BKN250 14/06 A3034 RMK AO2 SLP281 T01390056 (RS)","FM-15","7",,,,,,,,,,,,,,,,,,,,,,,,,,,"2007-05-17"
"72793024233","2020-10-27T15:53:00","FM-15","7",,,,,,,,,,,,,,,,,,,,,,,,,,,,,,,,,,,,,,,"30.33","41","56","0.00",,"+0.03","6","57",,"FEW:02 41 FEW:02 160 BKN:07 250","29.86","10.00","49","250",,"6",,,,,,,,,,,,,,,,,,,,,,,,,,,,,,,,,,,,,"MET11710/27/20 15:53:02 METAR KSEA 272353Z 25005KT 10SM FEW041 FEW160 BKN250 13/05 A3033 RMK AO2 SLPNO T01330050 56009 (RS)","FM-15","7",,,,,,,,,,,,,,,,,,,,,,,,,,,"2007-05-17"
"72793024233","2020-10-27T16:00:00","FM-12","4",,,,,,,,,,,,,,,,,,,,,,,,,,,,,,,,,,,,,,,,"41","56",,,"+0.03","6","57",,"41","29.84","9.94","49","250",,"6",,,,,,,,,,,,,,,,,,,,,,,,,,,,,,,,,,,,,"SYN05872793 32666 62505 10133 20050 30106 56009 92353 555 92800=","FM-12","4",,,,,,,,,,,,,,,,,,,,,,,,,,,"2007-05-17"
"72793024233","2020-10-27T16:53:00","FM-15","7",,,,,,,,,,,,,,,,,,,,,,,,,,,,,,,,,,,,,,,"30.32","41","53","0.00",,,,"64",,"FEW:02 41 FEW:02 180 SCT:04 250","29.85","10.00","47","190",,"6",,,,,,,,,,,,,,,,,,,,,,,,,,,,,,,,,,,,,"MET10610/27/20 16:53:01 METAR KSEA 280053Z 19005KT 10SM FEW041 FEW180 SCT250 12/05 A3032 RMK AO2 SLPNO T01170050","FM-15","7",,,,,,,,,,,,,,,,,,,,,,,,,,,"2007-05-17"
"72793024233","2020-10-27T17:53:00","FM-15","7",,,,,,,,,,,,,,,,,,,,,,,,,,,,,,,,,,,,,,,"30.32","40","50","0.00",,,,"68","30.34","FEW:02 41 FEW:02 180 SCT:04 250","29.85","10.00","45","160",,"5",,,,,,,,,,,,,,,,,,,,,,,,,,,,,,,,,,,,,"MET10710/27/20 17:53:01 METAR KSEA 280153Z 16004KT 10SM FEW041 FEW180 SCT250 10/04 A3032 RMK AO2 SLP274 T01000044","FM-15","7",,,,,,,,,,,,,,,,,,,,,,,,,,,"2007-05-17"
"72793024233","2020-10-27T18:53:00","FM-15","7",,,,,,,,,,,,,,,,,,,,,,,,,,,,,,,,,,,,,,,"30.31","41","50","0.00",,"+0.02","6","71","30.33","FEW:02 43 SCT:04 250","29.84","10.00","46","130",,"6",,,,,,,,,,,,,,,,,,,,,,,,,,,,,,,,,,,,,"MET10610/27/20 18:53:01 METAR KSEA 280253Z 13005KT 10SM FEW043 SCT250 10/05 A3031 RMK AO2 SLP271 T01000050 56008","FM-15","7",,,,,,,,,,,,,,,,,,,,,,,,,,,"2007-05-17"
"72793024233","2020-10-27T19:53:00","FM-15","7",,,,,,,,,,,,,,,,,,,,,,,,,,,,,,,,,,,,,,,"30.31","41","50","0.00",,,,"71","30.33","FEW:02 250","29.84","10.00","46","150",,"7",,,,,,,,,,,,,,,,,,,,,,,,,,,,,,,,,,,,,"MET09310/27/20 19:53:01 METAR KSEA 280353Z 15006KT 10SM FEW250 10/05 A3031 RMK AO2 SLP270 T01000050","FM-15","7",,,,,,,,,,,,,,,,,,,,,,,,,,,"2007-05-17"
"72793024233","2020-10-27T20:53:00","FM-15","7",,,,,,,,,,,,,,,,,,,,,,,,,,,,,,,,,,,,,,,"30.31","41","50","0.00",,,,"71","30.33","CLR:00","29.84","10.00","46","140",,"9",,,,,,,,,,,,,,,,,,,,,,,,,,,,,,,,,,,,,"MET09010/27/20 20:53:01 METAR KSEA 280453Z 14008KT 10SM CLR 10/05 A3031 RMK AO2 SLP270 T01000050","FM-15","7",,,,,,,,,,,,,,,,,,,,,,,,,,,"2007-05-17"
"72793024233","2020-10-27T21:53:00","FM-15","7",,,,,,,,,,,,,,,,,,,,,,,,,,,,,,,,,,,,,,,"30.31","41","48","0.00",,"+0.00","5","77","30.33","FEW:02 250","29.84","10.00","45","140",,"8",,,,,,,,,,,,,,,,,,,,,,,,,,,,,,,,,,,,,"MET11110/27/20 21:53:01 METAR KSEA 280553Z 14007KT 10SM FEW250 09/05 A3031 RMK AO2 SLP270 T00890050 10133 20089 55000","FM-15","7",,,,,,,,,,,,,,,,,,,,,,,,,,,"2007-05-17"
"72793024233","2020-10-27T22:00:00","FM-12","4",,,,,,,,,,,,,,,,,,,,,,,,,,,,,,,,,,,,,,,,"41","48",,,"+0.00","5","77","30.33",,"29.83","9.94","45","140",,"8",,,,,,,,,,,,,,,,,,,,,,,,,,,,,,,,,,,,,"SYN06472793 32966 21407 10089 20050 30100 40270 55000 90553 555 92806=","FM-12","4",,,,,,,,,,,,,,,,,,,,,,,,,,,"2007-05-17"
"72793024233","2020-10-27T22:53:00","FM-15","7",,,,,,,,,,,,,,,,,,,,,,,,,,,,,,,,,,,,,,,"30.31","41","47","0.00",,,,"80",,"FEW:02 12","29.84","10.00","44","140",,"8",,,,,,,,,,,,,,,,,,,,,,,,,,,,,,,,,,,,,"MET09210/27/20 22:53:01 METAR KSEA 280653Z 14007KT 10SM FEW012 08/05 A3031 RMK AO2 SLPNO T00830050","FM-15","7",,,,,,,,,,,,,,,,,,,,,,,,,,,"2007-05-17"
"72793024233","2020-10-27T23:53:00","FM-15","7",,,,,,,,,,,,,,,,,,,,,,,,,,,,,,,,,,,,,,,"30.30","41","46","0.00",,,,"83","30.32","FEW:02 20","29.83","10.00","44","140",,"8",,,,,,,,,,,,,,,,,,,,,,,,,,,,,,,,,,,,,"MET10310/27/20 23:53:01 METAR KSEA 280753Z 14007KT 10SM FEW020 08/05 A3030 RMK AO2 SLP267 T00780050 401390072","FM-15","7",,,,,,,,,,,,,,,,,,,,,,,,,,,"2007-05-17"
"72793024233","2020-10-27T23:59:00","SOD  ","6",,,,,,,,,,,,,,,,,"40","51","72","30.41","29.88","45","4.5","0","1.2","14","57","45","140","13","0.00","0","0.0","140","10",,,,,,,,,,,,,,,,,,,,,,,,,,,,,,,,,,,,,,,,,,,,,,,,,,,,,,,,"SOD69924 HR PRECIPITATION (IN): 0.00 SNOW DEPTH (IN):0     24 HR SNOWFALL (IN):0.0  24 HR MAX TEMP (F): 5724 HR MIN TEMP (F): 45AVERAGE STATION PRESSURE:29.880 MINIMUM SEA LEVEL PRESSURE:30.32 TIME OF OCCURRENCE:2359 PEAK WIND SPEED (MPH): 13 PEAK WIND DIR (DEG):140 PEAK WIND TIME (LST):      FASTEST 2MIN SPEED (MPH): 10FASTEST 2MIN DIR (DEG):140 FASTEST 2MIN TIME (LST):     AVERAGE WIND SPEED (MPH): 4.5 24 HR AVG TEMP (F): 51DEPART FROM NORMAL:  1  HEATING DEGREE DAYS: 14 COOLING DEGREE DAYS:  0 LATEST DAY MAX TEMP (0700-1900 LST):57( HOURLY INCREMENTAL PRECIPITATION VALUES (IN):.00 0.00 0.00 0.00 0.00 0.00 0.00 0.00 0.00 0.00 0.00 0.00 M    0.00 0.00 0.00 0.00 0.00 0.00 0.00 0.00 0.00 0.00 0.00","SOD  ","6",,,,,,,,,,,,,,,,,,,,,,,,,"0647","1659","2007-05-17"
"72793024233","2020-10-28T00:14:00","FM-16","7",,,,,,,,,,,,,,,,,,,,,,,,,,,,,,,,,,,,,,,"30.30","42","47",,,,,"83",,"BKN:07 29","29.83","10.00","45","140",,"9",,,,,,,,,,,,,,,,,,,,,,,,,,,,,,,,,,,,,"MET09110/28/20 00:14:02 SPECI KSEA 280814Z 14008KT 10SM BKN029 08/06 A3030 RMK AO2 T00830056 (TL)","FM-16","7",,,,,,,,,,,,,,,,,,,,,,,,,,,"2007-05-17"
"72793024233","2020-10-28T00:53:00","FM-15","7",,,,,,,,,,,,,,,,,,,,,,,,,,,,,,,,,,,,,,,"30.29","42","48","0.00",,"+0.02","8","80","30.31","OVC:08 24","29.82","10.00","45","140",,"9",,,,,,,,,,,,,,,,,,,,,,,,,,,,,,,,,,,,,"MET10410/28/20 00:53:02 METAR KSEA 280853Z 14008KT 10SM OVC024 09/06 A3029 RMK AO2 SLP263 T00890056 58006 (TL)","FM-15","7",,,,,,,,,,,,,,,,,,,,,,,,,,,"2007-05-17"
"72793024233","2020-10-28T01:45:00","FM-16","7",,,,,,,,,,,,,,,,,,,,,,,,,,,,,,,,,,,,,,,"30.29","43","48",,,,,"83",,"BKN:07 9 OVC:08 26","29.82","10.00","46","150",,"5",,,,,,,,,,,,,,,,,,,,,,,,,,,,,,,,,,,,,"MET09810/28/20 01:45:02 SPECI KSEA 280945Z 15004KT 10SM BKN009 OVC026 09/06 A3029 RMK AO2 T00890061 (TL)","FM-16","7",,,,,,,,,,,,,,,,,,,,,,,,,,,"2007-05-17"
"72793024233","2020-10-28T01:53:00","FM-15","7",,,,,,,,,,,,,,,,,,,,,,,,,,,,,,,,,,,,,,,"30.29","43","48","0.00",,,,"83","30.30","BKN:07 9 OVC:08 26","29.82","10.00","46","140",,"5",,,,,,,,,,,,,,,,,,,,,,,,,,,,,,,,,,,,,"MET10510/28/20 01:53:02 METAR KSEA 280953Z 14004KT 10SM BKN009 OVC026 09/06 A3029 RMK AO2 SLP262 T00890061 (TL)","FM-15","7",,,,,,,,,,,,,,,,,,,,,,,,,,,"2007-05-17"
"72793024233","2020-10-28T02:03:00","FM-16","7",,,,,,,,,,,,,,,,,,,,,,,,,,,,,,,,,,,,,,,"30.28","42","49",,,,,"77",,"SCT:04 10 OVC:08 15","29.81","10.00","46","140",,"6",,,,,,,,,,,,,,,,,,,,,,,,,,,,,,,,,,,,,"MET09810/28/20 02:03:02 SPECI KSEA 281003Z 14005KT 10SM SCT010 OVC015 09/06 A3028 RMK AO2 T00940056 (TL)","FM-16","7",,,,,,,,,,,,,,,,,,,,,,,,,,,"2007-05-17"
"72793024233","2020-10-28T02:41:00","FM-16","7",,,,,,,,,,,,,,,,,,,,,,,,,,,,,,,,,,,,,,,"30.27","42","49",,,,,"77",,"OVC:08 11","29.80","10.00","46","130",,"8",,,,,,,,,,,,,,,,,,,,,,,,,,,,,,,,,,,,,"MET09110/28/20 02:41:02 SPECI KSEA 281041Z 13007KT 10SM OVC011 09/06 A3027 RMK AO2 T00940056 (TL)","FM-16","7",,,,,,,,,,,,,,,,,,,,,,,,,,,"2007-05-17"
"72793024233","2020-10-28T02:53:00","FM-15","7",,,,,,,,,,,,,,,,,,,,,,,,,,,,,,,,,,,,,,,"30.27","42","49","0.00",,,,"77","30.29","OVC:08 11","29.80","10.00","46","130",,"7",,,,,,,,,,,,,,,,,,,,,,,,,,,,,,,,,,,,,"MET09810/28/20 02:53:02 METAR KSEA 281053Z 13006KT 10SM OVC011 09/06 A3027 RMK AO2 SLP258 T00940056 (TL)","FM-15","7",,,,,,,,,,,,,,,,,,,,,,,,,,,"2007-05-17"
"72793024233","2020-10-28T03:53:00","FM-15","7",,,,,,,,,,,,,,,,,,,,,,,,,,,,,,,,,,,,,,,"30.28","42","49","0.00",,"+0.01","5","77","30.29","OVC:08 14","29.81","10.00","46","120",,"6",,,,,,,,,,,,,,,,,,,,,,,,,,,,,,,,,,,,,"MET11610/28/20 03:53:02 METAR KSEA 281153Z 12005KT 10SM OVC014 09/06 A3028 RMK AO2 SLP259 T00940056 10094 20078 55003 (TL)","FM-15","7",,,,,,,,,,,,,,,,,,,,,,,,,,,"2007-05-17"
"72793024233","2020-10-28T04:00:00","FM-12","4",,,,,,,,,,,,,,,,,,,,,,,,,,,,,,,,,,,,,,,,"42","49",,,"+0.01","5","77","30.29","15","29.80","9.94","46","120",,"6",,,,,,,,,,,,,,,,,,,,,,,,,,,,,,,,,,,,,"SYN08072793 32466 81205 10094 20056 30090 40259 55003 91153 333 10139 20078 555 92812=","FM-12","4",,,,,,,,,,,,,,,,,,,,,,,,,,,"2007-05-17"
"72793024233","2020-10-28T04:53:00","FM-15","7",,,,,,,,,,,,,,,,,,,,,,,,,,,,,,,,,,,,,,,"30.28","42","48","0.00",,,,"80","30.30","OVC:08 14","29.81","10.00","45","140",,"7",,,,,,,,,,,,,,,,,,,,,,,,,,,,,,,,,,,,,"MET09810/28/20 04:53:02 METAR KSEA 281253Z 14006KT 10SM OVC014 09/06 A3028 RMK AO2 SLP260 T00890056 (JC)","FM-15","7",,,,,,,,,,,,,,,,,,,,,,,,,,,"2007-05-17"
"72793024233","2020-10-28T05:34:00","FM-16","7",,,,,,,,,,,,,,,,,,,,,,,,,,,,,,,,,,,,,,,"30.27","42","48",,,,,"80",,"SCT:04 13 BKN:07 19","29.80","10.00","45","150",,"7",,,,,,,,,,,,,,,,,,,,,,,,,,,,,,,,,,,,,"MET09810/28/20 05:34:02 SPECI KSEA 281334Z 15006KT 10SM SCT013 BKN019 09/06 A3027 RMK AO2 T00890056 (JC)","FM-16","7",,,,,,,,,,,,,,,,,,,,,,,,,,,"2007-05-17"
"72793024233","2020-10-28T05:53:00","FM-15","7",,,,,,,,,,,,,,,,,,,,,,,,,,,,,,,,,,,,,,,"30.26","42","47","0.00",,,,"83","30.29","SCT:04 13 SCT:04 22","29.79","10.00","45","150",,"8",,,,,,,,,,,,,,,,,,,,,,,,,,,,,,,,,,,,,"MET10510/28/20 05:53:02 METAR KSEA 281353Z 15007KT 10SM SCT013 SCT022 08/06 A3026 RMK AO2 SLP256 T00830056 (JC)","FM-15","7",,,,,,,,,,,,,,,,,,,,,,,,,,,"2007-05-17"
"72793024233","2020-10-28T06:43:00","FM-16","7",,,,,,,,,,,,,,,,,,,,,,,,,,,,,,,,,,,,,,,"30.26","42","48",,,,,"80",,"BKN:07 16 BKN:07 28 BKN:07 150","29.79","10.00","45","140",,"7",,,,,,,,,,,,,,,,,,,,,,,,,,,,,,,,,,,,,"MET11810/28/20 06:43:02 SPECI KSEA 281443Z 14006KT 10SM BKN016 BKN028 BKN150 09/06 A3026 RMK AO2 ACSL DSNT SE T00890056 (JC)","FM-16","7",,,,,,,,,,,,,,,,,,,,,,,,,,,"2007-05-17"
"72793024233","2020-10-28T06:53:00","FM-15","7",,,,,,,,,,,,,,,,,,,,,,,,,,,,,,,,,,,,,,,"30.26","42","48","0.00",,"+0.02","8","80","30.28","BKN:07 16 BKN:07 28 BKN:07 150","29.79","10.00","45","140",,"9",,,,,,,,,,,,,,,,,,,,,,,,,,,,,,,,,,,,,"MET13110/28/20 06:53:02 METAR KSEA 281453Z 14008KT 10SM BKN016 BKN028 BKN150 09/06 A3026 RMK AO2 SLP254 ACSL DSNT SE T00890056 58006 (JC)","FM-15","7",,,,,,,,,,,,,,,,,,,,,,,,,,,"2007-05-17"
"72793024233","2020-10-28T07:53:00","FM-15","7",,,,,,,,,,,,,,,,,,,,,,,,,,,,,,,,,,,,,,,"30.27","42","48","0.00",,,,"80","30.29","OVC:08 16","29.80","10.00","45","170",,"6",,,,,,,,,,,,,,,,,,,,,,,,,,,,,,,,,,,,,"MET09810/28/20 07:53:02 METAR KSEA 281553Z 17005KT 10SM OVC016 09/06 A3027 RMK AO2 SLP258 T00890056 (JC)","FM-15","7",,,,,,,,,,,,,,,,,,,,,,,,,,,"2007-05-17"
"72793024233","2020-10-28T08:39:00","FM-16","7",,,,,,,,,,,,,,,,,,,,,,,,,,,,,,,,,,,,,,,"30.27","42","50",,,,,"74",,"OVC:08 14","29.80","10.00","46","160",,"7",,,,,,,,,,,,,,,,,,,,,,,,,,,,,,,,,,,,,"MET09110/28/20 08:39:02 SPECI KSEA 281639Z 16006KT 10SM OVC014 10/06 A3027 RMK AO2 T01000056 (JC)","FM-16","7",,,,,,,,,,,,,,,,,,,,,,,,,,,"2007-05-17"
"72793024233","2020-10-28T08:53:00","FM-15","7",,,,,,,,,,,,,,,,,,,,,,,,,,,,,,,,,,,,,,,"30.28","43","51","0.00",,,,"74","30.30","OVC:08 14","29.81","10.00","47","160",,"5",,,,,,,,,,,,,,,,,,,,,,,,,,,,,,,,,,,,,"MET09810/28/20 08:53:02 METAR KSEA 281653Z 16004KT 10SM OVC014 11/06 A3028 RMK AO2 SLP260 T01060061 (JC)","FM-15","7",,,,,,,,,,,,,,,,,,,,,,,,,,,"2007-05-17"
"72793024233","2020-10-28T09:02:00","FM-16","7",,,,,,,,,,,,,,,,,,,,,,,,,,,,,,,,,,,,,,,"30.27","43","51",,,,,"74",,"OVC:08 16","29.80","10.00","47","180",,"6",,,,,,,,,,,,,,,,,,,,,,,,,,,,,,,,,,,,,"MET09110/28/20 09:02:02 SPECI KSEA 281702Z 18005KT 10SM OVC016 11/06 A3027 RMK AO2 T01060061 (JC)","FM-16","7",,,,,,,,,,,,,,,,,,,,,,,,,,,"2007-05-17"
"72793024233","2020-10-28T09:53:00","FM-15","7",,,,,,,,,,,,,,,,,,,,,,,,,,,,,,,,,,,,,,,"30.27","44","52","0.00",,"-0.01","0","75","30.29","OVC:08 16","29.80","10.00","48","130",,"5",,,,,,,,,,,,,,,,,,,,,,,,,,,,,,,,,,,,,"MET11610/28/20 09:53:02 METAR KSEA 281753Z 13004KT 10SM OVC016 11/07 A3027 RMK AO2 SLP258 T01110067 10117 20083 50003 (JC)","FM-15","7",,,,,,,,,,,,,,,,,,,,,,,,,,,"2007-05-17"
"72793024233","2020-10-28T10:00:00","FM-12","4",,,,,,,,,,,,,,,,,,,,,,,,,,,,,,,,,,,,,,,,"44","52",,,"0.01","9","75","30.29","15","29.78","9.94","48","130",,"5",,,,,,,,,,,,,,,,,,,,,,,,,,,,,,,,,,,,,"SYN07472793 32466 81304 10111 20067 30086 40258 50003 91753 333 10117 555 92818=","FM-12","4",,,,,,,,,,,,,,,,,,,,,,,,,,,"2007-05-17"
"72793024233","2020-10-28T10:11:00","FM-16","7",,,,,,,,,,,,,,,,,,,,,,,,,,,,,,,,,,,,,,,"30.26","46","53",,,,,"77",,"OVC:08 13","29.79","10.00","49","180",,"7",,,,,,,,,,,,,,,,,,,,,,,,,,,,,,,,,,,,,"MET09110/28/20 10:11:02 SPECI KSEA 281811Z 18006KT 10SM OVC013 12/08 A3026 RMK AO2 T01170078 (JC)","FM-16","7",,,,,,,,,,,,,,,,,,,,,,,,,,,"2007-05-17"
"72793024233","2020-10-28T10:53:00","FM-15","7",,,,,,,,,,,,,,,,,,,,,,,,,,,,,,,,,,,,,,,"30.25","46","54","0.00",,,,"75","30.27","OVC:08 13","29.78","10.00","50","200",,"7",,,,,,,,,,,,,,,,,,,,,,,,,,,,,,,,,,,,,"MET09810/28/20 10:53:02 METAR KSEA 281853Z 20006KT 10SM OVC013 12/08 A3025 RMK AO2 SLP252 T01220078 (JC)","FM-15","7",,,,,,,,,,,,,,,,,,,,,,,,,,,"2007-05-17"
"72793024233","2020-10-28T11:53:00","FM-15","7",,,,,,,,,,,,,,,,,,,,,,,,,,,,,,,,,,,,,,,"30.24","47","54","0.00",,,,"77","30.26","OVC:08 14","29.77","10.00","50","170",,"7",,,,,,,,,,,,,,,,,,,,,,,,,,,,,,,,,,,,,"MET09810/28/20 11:53:02 METAR KSEA 281953Z 17006KT 10SM OVC014 12/08 A3024 RMK AO2 SLP247 T01220083 (JC)","FM-15","7",,,,,,,,,,,,,,,,,,,,,,,,,,,"2007-05-17"
"72793024233","2020-10-28T12:53:00","FM-15","7",,,,,,,,,,,,,,,,,,,,,,,,,,,,,,,,,,,,,,,"30.22","48","53","0.00",,"+0.04","6","83","30.24","BKN:07 12 BKN:07 250","29.75","10.00","50","220",,"6",,,,,,,,,,,,,,,,,,,,,,,,,,,,,,,,,,,,,"MET11110/28/20 12:53:02 METAR KSEA 282053Z 22005KT 10SM BKN012 BKN250 12/09 A3022 RMK AO2 SLP242 T01170089 56015 (JC)","FM-15","7",,,,,,,,,,,,,,,,,,,,,,,,,,,"2007-05-17"
"72793024233","2020-10-28T13:33:00","FM-16","7",,,,,,,,,,,,,,,,,,,,,,,,,,,,,,,,,,,,,,,"30.21","49","54",,,,,"83",,"BKN:07 8 BKN:07 250","29.74","10.00","51","280",,"6",,,,,,,,,,,,,,,,,,,,,,,,,,,,,,,,,,,,,"MET09810/28/20 13:33:02 SPECI KSEA 282133Z 28005KT 10SM BKN008 BKN250 12/09 A3021 RMK AO2 T01220094 (JC)","FM-16","7",,,,,,,,,,,,,,,,,,,,,,,,,,,"2007-05-17"
"72793024233","2020-10-28T13:53:00","FM-15","7",,,,,,,,,,,,,,,,,,,,,,,,,,,,,,,,,,,,,,,"30.21","49","54","0.00",,,,"83","30.23","BKN:07 8 BKN:07 250","29.74","10.00","51","250",,"6",,,,,,,,,,,,,,,,,,,,,,,,,,,,,,,,,,,,,"MET10510/28/20 13:53:02 METAR KSEA 282153Z 25005KT 10SM BKN008 BKN250 12/09 A3021 RMK AO2 SLP236 T01220094 (RS)","FM-15","7",,,,,,,,,,,,,,,,,,,,,,,,,,,"2007-05-17"
"72793024233","2020-10-28T14:36:00","FM-16","7",,,,,,,,,,,,,,,,,,,,,,,,,,,,,,,,,,,,,,,"30.20","49","54",,,,,"83",,"BKN:07 11 BKN:07 250","29.73","10.00","51","270",,"5",,,,,,,,,,,,,,,,,,,,,,,,,,,,,,,,,,,,,"MET09810/28/20 14:36:02 SPECI KSEA 282236Z 27004KT 10SM BKN011 BKN250 12/09 A3020 RMK AO2 T01220094 (RS)","FM-16","7",,,,,,,,,,,,,,,,,,,,,,,,,,,"2007-05-17"
"72793024233","2020-10-28T14:53:00","FM-15","7",,,,,,,,,,,,,,,,,,,,,,,,,,,,,,,,,,,,,,,"30.19","49","54","0.00",,,,"83","30.21","BKN:07 11 BKN:07 250","29.72","10.00","51","240",,"5",,,,,,,,,,,,,,,,,,,,,,,,,,,,,,,,,,,,,"MET10510/28/20 14:53:02 METAR KSEA 282253Z 24004KT 10SM BKN011 BKN250 12/09 A3019 RMK AO2 SLP231 T01220094 (RS)","FM-15","7",,,,,,,,,,,,,,,,,,,,,,,,,,,"2007-05-17"
"72793024233","2020-10-28T15:51:00","FM-16","6",,,,,,,,,,,,,,,,,,,,,,,,,,,,,,,,,,,,,,,"30.18","50","54",,,,,"88",,"BKN:07 9 BKN:07 250","29.71","10.00","52","000",,"0",,,,,,,,,,,,,,,,,,,,,,,,,,,,,,,,,,,,,"MET09310/28/20 15:51:02 SPECI KSEA 282351Z 00000KT 10SM BKN009 BKN250 12/10 A3018 RMK AO2 FIBI (RS)","FM-16","6",,,,,,,,,,,,,,,,,,,,,,,,,,,"2007-05-17"
"72793024233","2020-10-28T15:53:00","FM-15","7",,,,,,,,,,,,,,,,,,,,,,,,,,,,,,,,,,,,,,,"30.18","50","54","0.00",,"+0.04","6","87","30.20","BKN:07 9 BKN:07 250","29.71","10.00","52","000",,"0",,,,,,,,,,,,,,,,,,,,,,,,,,,,,,,,,,,,,"MET12310/28/20 15:53:02 METAR KSEA 282353Z 00000KT 10SM BKN009 BKN250 12/10 A3018 RMK AO2 SLP227 T01220100 10128 20111 56014 (RS)","FM-15","7",,,,,,,,,,,,,,,,,,,,,,,,,,,"2007-05-17"
"72793024233","2020-10-28T16:00:00","FM-12","4",,,,,,,,,,,,,,,,,,,,,,,,,,,,,,,,,,,,,,,,"50","54",,,"+0.04","6","87","30.20","8","29.70","9.94","52","000",,"0",,,,,,,,,,,,,,,,,,,,,,,,,,,,,,,,,,,,,"SYN08072793 32366 60000 10122 20100 30056 40227 56014 92353 333 10128 20078 555 92900=","FM-12","4",,,,,,,,,,,,,,,,,,,,,,,,,,,"2007-05-17"
"72793024233","2020-10-28T16:53:00","FM-15","7",,,,,,,,,,,,,,,,,,,,,,,,,,,,,,,,,,,,,,,"30.18","50","55","0.00",,,,"83","30.20","BKN:07 9 BKN:07 250","29.71","10.00","52","210",,"5",,,,,,,,,,,,,,,,,,,,,,,,,,,,,,,,,,,,,"MET10010/28/20 16:53:01 METAR KSEA 290053Z 21004KT 10SM BKN009 BKN250 13/10 A3018 RMK AO2 SLP226 T01280100","FM-15","7",,,,,,,,,,,,,,,,,,,,,,,,,,,"2007-05-17"
"72793024233","2020-10-28T17:53:00","FM-15","7",,,,,,,,,,,,,,,,,,,,,,,,,,,,,,,,,,,,,,,"30.17","50","54","0.00",,,,"87","30.19","OVC:08 9","29.70","10.00","52","180",,"3",,,,,,,,,,,,,,,,,,,,,,,,,,,,,,,,,,,,,"MET09310/28/20 17:53:01 METAR KSEA 290153Z 18003KT 10SM OVC009 12/10 A3017 RMK AO2 SLP224 T01220100","FM-15","7",,,,,,,,,,,,,,,,,,,,,,,,,,,"2007-05-17"
"72793024233","2020-10-28T18:53:00","FM-15","7",,,,,,,,,,,,,,,,,,,,,,,,,,,,,,,,,,,,,,,"30.18","51","55","0.00",,"+0.01","5","87","30.19","OVC:08 9","29.71","10.00","53","150",,"5",,,,,,,,,,,,,,,,,,,,,,,,,,,,,,,,,,,,,"MET09910/28/20 18:53:01 METAR KSEA 290253Z 15004KT 10SM OVC009 13/11 A3018 RMK AO2 SLP225 T01280106 55002","FM-15","7",,,,,,,,,,,,,,,,,,,,,,,,,,,"2007-05-17"
"72793024233","2020-10-28T19:23:00","FM-16","7",,,,,,,,,,,,,,,,,,,,,,,,,,,,,,,,,,,,,,,"30.18","50","54",,,,,"87",,"OVC:08 10","29.71","10.00","52","140",,"5",,,,,,,,,,,,,,,,,,,,,,,,,,,,,,,,,,,,,"MET08610/28/20 19:23:01 SPECI KSEA 290323Z 14004KT 10SM OVC010 12/10 A3018 RMK AO2 T01220100","FM-16","7",,,,,,,,,,,,,,,,,,,,,,,,,,,"2007-05-17"
"72793024233","2020-10-28T19:53:00","FM-15","7",,,,,,,,,,,,,,,,,,,,,,,,,,,,,,,,,,,,,,,"30.17","50","54","0.00",,,,"87","30.19","OVC:08 12","29.70","10.00","52","150",,"6",,,,,,,,,,,,,,,,,,,,,,,,,,,,,,,,,,,,,"MET09310/28/20 19:53:01 METAR KSEA 290353Z 15005KT 10SM OVC012 12/10 A3017 RMK AO2 SLP225 T01220100","FM-15","7",,,,,,,,,,,,,,,,,,,,,,,,,,,"2007-05-17"
"72793024233","2020-10-28T20:53:00","FM-15","7",,,,,,,,,,,,,,,,,,,,,,,,,,,,,,,,,,,,,,,"30.18","51","54","0.00",,,,"90","30.20","OVC:08 11","29.71","10.00","52","180",,"3",,,,,,,,,,,,,,,,,,,,,,,,,,,,,,,,,,,,,"MET09310/28/20 20:53:01 METAR KSEA 290453Z 18003KT 10SM OVC011 12/11 A3018 RMK AO2 SLP227 T01220106","FM-15","7",,,,,,,,,,,,,,,,,,,,,,,,,,,"2007-05-17"
"72793024233","2020-10-28T21:53:00","FM-15","7",,,,,,,,,,,,,,,,,,,,,,,,,,,,,,,,,,,,,,,"30.19","50","54","0.00",,"-0.01","3","87","30.21","OVC:08 12","29.72","10.00","52","200",,"7",,,,,,,,,,,,,,,,,,,,,,,,,,,,,,,,,,,,,"MET11110/28/20 21:53:01 METAR KSEA 290553Z 20006KT 10SM OVC012 12/10 A3019 RMK AO2 SLP230 T01220100 10128 20122 53005","FM-15","7",,,,,,,,,,,,,,,,,,,,,,,,,,,"2007-05-17"
"72793024233","2020-10-28T22:00:00","FM-12","4",,,,,,,,,,,,,,,,,,,,,,,,,,,,,,,,,,,,,,,,"50","54",,,"-0.01","3","87","30.21","15","29.71","9.94","52","200",,"7",,,,,,,,,,,,,,,,,,,,,,,,,,,,,,,,,,,,,"SYN08072793 32466 82006 10122 20100 30060 40230 53005 90553 333 10128 20078 555 92906=","FM-12","4",,,,,,,,,,,,,,,,,,,,,,,,,,,"2007-05-17"
"72793024233","2020-10-28T22:27:00","FM-16","7",,,,,,,,,,,,,,,,,,,,,,,,,,,,,,,,,,,,,,,"30.19","50","54",,,,,"87",,"OVC:08 16","29.72","10.00","52","110",,"6",,,,,,,,,,,,,,,,,,,,,,,,,,,,,,,,,,,,,"MET08610/28/20 22:27:01 SPECI KSEA 290627Z 11005KT 10SM OVC016 12/10 A3019 RMK AO2 T01220100","FM-16","7",,,,,,,,,,,,,,,,,,,,,,,,,,,"2007-05-17"
"72793024233","2020-10-28T22:53:00","FM-15","7",,,,,,,,,,,,,,,,,,,,,,,,,,,,,,,,,,,,,,,"30.19","50","53","0.00",,,,"89","30.21","OVC:08 16","29.72","10.00","51","120",,"8",,,,,,,,,,,,,,,,,,,,,,,,,,,,,,,,,,,,,"MET09310/28/20 22:53:01 METAR KSEA 290653Z 12007KT 10SM OVC016 12/10 A3019 RMK AO2 SLP230 T01170100","FM-15","7",,,,,,,,,,,,,,,,,,,,,,,,,,,"2007-05-17"
"72793024233","2020-10-28T23:19:00","FM-16","7",,,,,,,,,,,,,,,,,,,,,,,,,,,,,,,,,,,,,,,"30.19","50","54",,,,,"87",,"OVC:08 13","29.72","10.00","52","150",,"7",,,,,,,,,,,,,,,,,,,,,,,,,,,,,,,,,,,,,"MET08610/28/20 23:19:01 SPECI KSEA 290719Z 15006KT 10SM OVC013 12/10 A3019 RMK AO2 T01220100","FM-16","7",,,,,,,,,,,,,,,,,,,,,,,,,,,"2007-05-17"
"72793024233","2020-10-28T23:53:00","FM-15","7",,,,,,,,,,,,,,,,,,,,,,,,,,,,,,,,,,,,,,,"30.19","50","53","0.00",,,,"89","30.20","OVC:08 14","29.72","10.00","51","140",,"7",,,,,,,,,,,,,,,,,,,,,,,,,,,,,,,,,,,,,"MET10310/28/20 23:53:01 METAR KSEA 290753Z 14006KT 10SM OVC014 12/10 A3019 RMK AO2 SLP228 T01170100 401280083","FM-15","7",,,,,,,,,,,,,,,,,,,,,,,,,,,"2007-05-17"
"72793024233","2020-10-28T23:59:00","SOD  ","6",,,,,,,,,,,,,,,,,"46","51","82","30.25","29.75","49","5.8","0","1.4","14","55","47","200","16","0.00","0","0.0","200","10",,,,,,,,,,,,,,,,,,,,,,,,,,,,,,,,,,,,,,,,,,,,,,,,,,,,,,,,"SOD73924 HR PRECIPITATION (IN): 0.00 SNOW DEPTH (IN):0     24 HR SNOWFALL (IN):0.0  24 HR MAX TEMP (F): 5524 HR MIN TEMP (F): 47AVERAGE STATION PRESSURE:29.755 MINIMUM SEA LEVEL PRESSURE:29.76 TIME OF OCCURRENCE:1731 PEAK WIND SPEED (MPH): 16 PEAK WIND DIR (DEG):200 PEAK WIND TIME (LST):      FASTEST 2MIN SPEED (MPH): 10FASTEST 2MIN DIR (DEG):200 FASTEST 2MIN TIME (LST):     AVERAGE WIND SPEED (MPH): 5.8 24 HR AVG TEMP (F): 51DEPART FROM NORMAL:  1  HEATING DEGREE DAYS: 14 COOLING DEGREE DAYS:  0 LATEST DAY MAX TEMP (0700-1900 LST):55  LATEST NIGHT MIN TEMP(1900-0800 LST):46 HOURLY INCREMENTAL PRECIPITATION VALUES (IN):.00 0.00 0.00 0.00 0.00 0.00 0.00 0.00 0.00 0.00 0.00 0.00 0.00 0.00 0.00 0.00 0.00 0.00 0.00 0.00 0.00 0.00 0.00 0.00","SOD  ","6",,,,,,,,,,,,,,,,,,,,,,,,,"0648","1657","2007-05-17"
"72793024233","2020-10-29T00:53:00","FM-15","7",,,,,,,,,,,,,,,,,,,,,,,,,,,,,,,,,,,,,,,"30.19","50","53","0.00","BR:1 ||","+0.00","5","89","30.21","OVC:08 13","29.72","6.00","51","190",,"8",,,,,,,,,,,,,,,,,,,,,,,,,,,,,,,,,,,,,"MET10610/29/20 00:53:02 METAR KSEA 290853Z 19007KT 6SM BR OVC013 12/10 A3019 RMK AO2 SLP230 T01170100 55000 (TL)","FM-15","7",,,,,,,,,,,,,,,,,,,,,,,,,,,"2007-05-17"
"72793024233","2020-10-29T01:53:00","FM-15","7",,,,,,,,,,,,,,,,,,,,,,,,,,,,,,,,,,,,,,,"30.20","49","53","T","-DZ:01 |DZ |DZ",,,"86","30.22","OVC:08 12","29.73","8.00","51","180",,"7",,,,,,,,,,,,,,,,,,,,,,,,,,,,,,,,,,,,,"MET11310/29/20 01:53:02 METAR KSEA 290953Z 18006KT 8SM -DZ OVC012 12/09 A3020 RMK AO2 DZB51 SLP232 P0000 T01170094 (TL)","FM-15","7",,,,,,,,,,,,,,,,,,,,,,,,,,,"2007-05-17"
"72793024233","2020-10-29T02:41:00","FM-16","7",,,,,,,,,,,,,,,,,,,,,,,,,,,,,,,,,,,,,,,"30.19","50","52","0.01","-DZ:01 BR:1 |DZ |DZ",,,"93",,"OVC:08 8","29.72","4.00","51","180",,"6",,,,,,,,,,,,,,,,,,,,,,,,,,,,,,,,,,,,,"MET10310/29/20 02:41:02 SPECI KSEA 291041Z 18005KT 4SM -DZ BR OVC008 11/10 A3019 RMK AO2 P0001 T01110100 (TL)","FM-16","7",,,,,,,,,,,,,,,,,,,,,,,,,,,"2007-05-17"
"72793024233","2020-10-29T02:53:00","FM-15","7",,,,,,,,,,,,,,,,,,,,,,,,,,,,,,,,,,,,,,,"30.20","50","52","0.01","-DZ:01 BR:1 |DZ |DZ",,,"93","30.22","OVC:08 8","29.73","4.00","51","170",,"7",,,,,,,,,,,,,,,,,,,,,,,,,,,,,,,,,,,,,"MET11010/29/20 02:53:02 METAR KSEA 291053Z 17006KT 4SM -DZ BR OVC008 11/10 A3020 RMK AO2 SLP232 P0001 T01110100 (TL)","FM-15","7",,,,,,,,,,,,,,,,,,,,,,,,,,,"2007-05-17"
"72793024233","2020-10-29T03:53:00","FM-15","7",,,,,,,,,,,,,,,,,,,,,,,,,,,,,,,,,,,,,,,"30.19","50","52","0.01",,"-0.00","0","93","30.21","OVC:08 6","29.72","10.00","51","150",,"5",,,,,,,,,,,,,,,,,,,,,,,,,,,,,,,,,,,,,"MET14010/29/20 03:53:02 METAR KSEA 291153Z 15004KT 10SM OVC006 11/10 A3019 RMK AO2 DZE45 SLP230 P0001 60002 70002 T01110100 10122 20111 50000 (TL)","FM-15","7",,,,,,,,,,,,,,,,,,,,,,,,,,,"2007-05-17"
"72793024233","2020-10-29T04:00:00","FM-12","4",,,,,,,,,,,,,,,,,,,,,,,,,,,,,,,,,,,,,,,,"50","52",,,"0.00","9","93","30.21","5","29.71","9.94","51","150",,"5",,,,,,,,,,,,,,,,,,,,,,,,,,,,,,,,,,,,,"SYN09272793 12266 81504 10111 20100 30060 40230 50000 69951 91153 333 10128 20111 70005 555 92912=","FM-12","4",,,,,,,,,,,,,,,,,,,,,,,,,,,"2007-05-17"
"72793024233","2020-10-29T04:53:00","FM-15","7",,,,,,,,,,,,,,,,,,,,,,,,,,,,,,,,,,,,,,,"30.19","50","52","T","-DZ:01 BR:1 |DZ |DZ",,,"93","30.21","OVC:08 8","29.72","4.00","51","150",,"5",,,,,,,,,,,,,,,,,,,,,,,,,,,,,,,,,,,,,"MET11610/29/20 04:53:02 METAR KSEA 291253Z 15004KT 4SM -DZ BR OVC008 11/10 A3019 RMK AO2 DZB34 SLP230 P0000 T01110100 (JC)","FM-15","7",,,,,,,,,,,,,,,,,,,,,,,,,,,"2007-05-17"
"72793024233","2020-10-29T05:19:00","FM-16","7",,,,,,,,,,,,,,,,,,,,,,,,,,,,,,,,,,,,,,,"30.20","50","52","T",,,,"93",,"FEW:02 7 OVC:08 11","29.73","10.00","51","160",,"6",,,,,,,,,,,,,,,,,,,,,,,,,,,,,,,,,,,,,"MET11010/29/20 05:19:02 SPECI KSEA 291319Z 16005KT 10SM FEW007 OVC011 11/10 A3020 RMK AO2 DZE19 P0000 T01110100 (JC)","FM-16","7",,,,,,,,,,,,,,,,,,,,,,,,,,,"2007-05-17"
"72793024233","2020-10-29T05:53:00","FM-15","7",,,,,,,,,,,,,,,,,,,,,,,,,,,,,,,,,,,,,,,"30.20","50","52","T",,,,"93","30.22","FEW:02 8 OVC:08 11","29.73","10.00","51","140",,"5",,,,,,,,,,,,,,,,,,,,,,,,,,,,,,,,,,,,,"MET11710/29/20 05:53:02 METAR KSEA 291353Z 14004KT 10SM FEW008 OVC011 11/10 A3020 RMK AO2 DZE19 SLP232 P0000 T01110100 (JC)","FM-15","7",,,,,,,,,,,,,,,,,,,,,,,,,,,"2007-05-17"
"72793024233","2020-10-29T06:53:00","FM-15","7",,,,,,,,,,,,,,,,,,,,,,,,,,,,,,,,,,,,,,,"30.19","50","53","0.00",,"+0.00","8","89","30.21","FEW:02 7 BKN:07 11 OVC:08 27","29.72","10.00","51","150",,"7",,,,,,,,,,,,,,,,,,,,,,,,,,,,,,,,,,,,,"MET12410/29/20 06:53:02 METAR KSEA 291453Z 15006KT 10SM FEW007 BKN011 OVC027 12/10 A3019 RMK AO2 SLP230 60000 T01170100 58000 (JC)","FM-15","7",,,,,,,,,,,,,,,,,,,,,,,,,,,"2007-05-17"
"72793024233","2020-10-29T07:36:00","FM-16","7",,,,,,,,,,,,,,,,,,,,,,,,,,,,,,,,,,,,,,,"30.19","50","53","T","-DZ:01 |DZ |DZ",,,"89",,"SCT:04 10 BKN:07 17 OVC:08 29","29.72","10.00","51","170",,"6",,,,,,,,,,,,,,,,,,,,,,,,,,,,,,,,,,,,,"MET12110/29/20 07:36:02 SPECI KSEA 291536Z 17005KT 10SM -DZ SCT010 BKN017 OVC029 12/10 A3019 RMK AO2 DZB36 P0000 T01170100 (JC)","FM-16","7",,,,,,,,,,,,,,,,,,,,,,,,,,,"2007-05-17"
"72793024233","2020-10-29T07:53:00","FM-15","7",,,,,,,,,,,,,,,,,,,,,,,,,,,,,,,,,,,,,,,"30.19","50","53","T",,,,"89","30.21","FEW:02 11 SCT:04 17 OVC:08 29","29.72","10.00","51","160",,"7",,,,,,,,,,,,,,,,,,,,,,,,,,,,,,,,,,,,,"MET12710/29/20 07:53:02 METAR KSEA 291553Z 16006KT 10SM FEW011 SCT017 OVC029 12/10 A3019 RMK AO2 DZB36E48 SLP230 P0000 T01170100 (JC)","FM-15","7",,,,,,,,,,,,,,,,,,,,,,,,,,,"2007-05-17"
"72793024233","2020-10-29T08:18:00","FM-16","7",,,,,,,,,,,,,,,,,,,,,,,,,,,,,,,,,,,,,,,"30.20","50","52",,,,,"93",,"FEW:02 8 SCT:04 17 OVC:08 25","29.73","9.00","51","160",,"7",,,,,,,,,,,,,,,,,,,,,,,,,,,,,,,,,,,,,"MET10410/29/20 08:18:02 SPECI KSEA 291618Z 16006KT 9SM FEW008 SCT017 OVC025 11/10 A3020 RMK AO2 T01110100 (JC)","FM-16","7",,,,,,,,,,,,,,,,,,,,,,,,,,,"2007-05-17"
"72793024233","2020-10-29T08:53:00","FM-15","7",,,,,,,,,,,,,,,,,,,,,,,,,,,,,,,,,,,,,,,"30.20","50","53","0.00",,,,"89","30.22","FEW:02 8 BKN:07 15 OVC:08 27","29.73","10.00","51","170",,"3",,,,,,,,,,,,,,,,,,,,,,,,,,,,,,,,,,,,,"MET11210/29/20 08:53:02 METAR KSEA 291653Z 17003KT 10SM FEW008 BKN015 OVC027 12/10 A3020 RMK AO2 SLP233 T01170100 (JC)","FM-15","7",,,,,,,,,,,,,,,,,,,,,,,,,,,"2007-05-17"
"72793024233","2020-10-29T09:05:00","FM-16","7",,,,,,,,,,,,,,,,,,,,,,,,,,,,,,,,,,,,,,,"30.20","50","53",,,,,"89",,"FEW:02 8 BKN:07 14 OVC:08 27","29.73","10.00","51","000",,"0",,,,,,,,,,,,,,,,,,,,,,,,,,,,,,,,,,,,,"MET10510/29/20 09:05:02 SPECI KSEA 291705Z 00000KT 10SM FEW008 BKN014 OVC027 12/10 A3020 RMK AO2 T01170100 (JC)","FM-16","7",,,,,,,,,,,,,,,,,,,,,,,,,,,"2007-05-17"
"72793024233","2020-10-29T09:46:00","FM-16","7",,,,,,,,,,,,,,,,,,,,,,,,,,,,,,,,,,,,,,,"30.20","49","54",,,,,"83",,"FEW:02 8 BKN:07 16 OVC:08 31","29.73","10.00","51","250",,"3",,,,,,,,,,,,,,,,,,,,,,,,,,,,,,,,,,,,,"MET10510/29/20 09:46:02 SPECI KSEA 291746Z 25003KT 10SM FEW008 BKN016 OVC031 12/09 A3020 RMK AO2 T01220094 (JC)","FM-16","7",,,,,,,,,,,,,,,,,,,,,,,,,,,"2007-05-17"
"72793024233","2020-10-29T09:53:00","FM-15","7",,,,,,,,,,,,,,,,,,,,,,,,,,,,,,,,,,,,,,,"30.20","49","54","0.00",,"-0.01","0","83","30.22","FEW:02 8 BKN:07 16 OVC:08 29","29.73","10.00","51","000",,"0",,,,,,,,,,,,,,,,,,,,,,,,,,,,,,,,,,,,,"MET13610/29/20 09:53:02 METAR KSEA 291753Z 00000KT 10SM FEW008 BKN016 OVC029 12/09 A3020 RMK AO2 SLP232 60000 T01220094 10122 20111 50002 (JC)","FM-15","7",,,,,,,,,,,,,,,,,,,,,,,,,,,"2007-05-17"
"72793024233","2020-10-29T10:00:00","FM-12","4",,,,,,,,,,,,,,,,,,,,,,,,,,,,,,,,,,,,,,,,"49","54",,,"0.01","9","83","30.22","8","29.72","9.94","51","000",,"0",,,,,,,,,,,,,,,,,,,,,,,,,,,,,,,,,,,,,"SYN08672793 12366 80000 10122 20094 30063 40232 50002 69901 91753 333 10122 20111 555 92918=","FM-12","4",,,,,,,,,,,,,,,,,,,,,,,,,,,"2007-05-17"
"72793024233","2020-10-29T10:53:00","FM-15","7",,,,,,,,,,,,,,,,,,,,,,,,,,,,,,,,,,,,,,,"30.19","50","54","T",,,,"87","30.21","FEW:02 8 SCT:04 15 OVC:08 24","29.72","10.00","52","000",,"0",,,,,,,,,,,,,,,,,,,,,,,,,,,,,,,,,,,,,"MET12710/29/20 10:53:02 METAR KSEA 291853Z 00000KT 10SM FEW008 SCT015 OVC024 12/10 A3019 RMK AO2 DZB21E48 SLP231 P0000 T01220100 (JC)","FM-15","7",,,,,,,,,,,,,,,,,,,,,,,,,,,"2007-05-17"
"72793024233","2020-10-29T11:34:00","FM-16","7",,,,,,,,,,,,,,,,,,,,,,,,,,,,,,,,,,,,,,,"30.18","51","55",,,,,"87",,"SCT:04 8 BKN:07 12 BKN:07 26","29.71","10.00","53","190",,"5",,,,,,,,,,,,,,,,,,,,,,,,,,,,,,,,,,,,,"MET10510/29/20 11:34:02 SPECI KSEA 291934Z 19004KT 10SM SCT008 BKN012 BKN026 13/11 A3018 RMK AO2 T01280106 (JC)","FM-16","7",,,,,,,,,,,,,,,,,,,,,,,,,,,"2007-05-17"
"72793024233","2020-10-29T11:53:00","FM-15","7",,,,,,,,,,,,,,,,,,,,,,,,,,,,,,,,,,,,,,,"30.18","51","56","0.00",,,,"84","30.19","SCT:04 8 BKN:07 12 BKN:07 37","29.71","10.00","53","250",,"5",,,,,,,,,,,,,,,,,,,,,,,,,,,,,,,,,,,,,"MET11210/29/20 11:53:02 METAR KSEA 291953Z 25004KT 10SM SCT008 BKN012 BKN037 13/11 A3018 RMK AO2 SLP225 T01330106 (JC)","FM-15","7",,,,,,,,,,,,,,,,,,,,,,,,,,,"2007-05-17"
"72793024233","2020-10-29T12:07:00","FM-16","7",,,,,,,,,,,,,,,,,,,,,,,,,,,,,,,,,,,,,,,"30.17","50","56",,,,,"81",,"SCT:04 9 SCT:04 16 BKN:07 37","29.70","10.00","53","220",,"3",,,,,,,,,,,,,,,,,,,,,,,,,,,,,,,,,,,,,"MET10510/29/20 12:07:02 SPECI KSEA 292007Z 22003KT 10SM SCT009 SCT016 BKN037 13/10 A3017 RMK AO2 T01330100 (JC)","FM-16","7",,,,,,,,,,,,,,,,,,,,,,,,,,,"2007-05-17"
"72793024233","2020-10-29T12:53:00","FM-15","7",,,,,,,,,,,,,,,,,,,,,,,,,,,,,,,,,,,,,,,"30.15","50","58","0.00",,"+0.04","8","75","30.17","FEW:02 9 SCT:04 18 SCT:04 120","29.68","10.00","54","250",,"8",,,,,,,,,,,,,,,,,,,,,,,,,,,,,,,,,,,,,"MET12410/29/20 12:53:02 METAR KSEA 292053Z 25007KT 10SM FEW009 SCT018 SCT120 14/10 A3015 RMK AO2 SLP218 60000 T01440100 58014 (JC)","FM-15","7",,,,,,,,,,,,,,,,,,,,,,,,,,,"2007-05-17"
"72793024233","2020-10-29T13:53:00","FM-15","7",,,,,,,,,,,,,,,,,,,,,,,,,,,,,,,,,,,,,,,"30.13","50","59","0.00",,,,"72","30.15","SCT:04 17 SCT:04 120 SCT:04 250","29.66","10.00","54","VRB",,"5",,,,,,,,,,,,,,,,,,,,,,,,,,,,,,,,,,,,,"MET11210/29/20 13:53:02 METAR KSEA 292153Z VRB04KT 10SM SCT017 SCT120 SCT250 15/10 A3013 RMK AO2 SLP211 T01500100 (RS)","FM-15","7",,,,,,,,,,,,,,,,,,,,,,,,,,,"2007-05-17"
"72793024233","2020-10-29T14:53:00","FM-15","7",,,,,,,,,,,,,,,,,,,,,,,,,,,,,,,,,,,,,,,"30.12","48","59","0.00",,,,"67","30.14","FEW:02 17 SCT:04 35 SCT:04 250","29.65","10.00","53","200",,"6",,,,,,,,,,,,,,,,,,,,,,,,,,,,,,,,,,,,,"MET11210/29/20 14:53:02 METAR KSEA 292253Z 20005KT 10SM FEW017 SCT035 SCT250 15/09 A3012 RMK AO2 SLP205 T01500089 (RS)","FM-15","7",,,,,,,,,,,,,,,,,,,,,,,,,,,"2007-05-17"
"72793024233","2020-10-29T15:53:00","FM-15","7",,,,,,,,,,,,,,,,,,,,,,,,,,,,,,,,,,,,,,,"30.10","48","59","0.00",,"+0.06","7","67","30.12","FEW:02 35 SCT:04 250","29.63","10.00","53","220",,"7",,,,,,,,,,,,,,,,,,,,,,,,,,,,,,,,,,,,,"MET12910/29/20 15:53:02 METAR KSEA 292353Z 22006KT 10SM FEW035 SCT250 15/09 A3010 RMK AO2 SLP199 60000 T01500089 10150 20117 57019 (RS)","FM-15","7",,,,,,,,,,,,,,,,,,,,,,,,,,,"2007-05-17"
"72793024233","2020-10-29T16:00:00","FM-12","4",,,,,,,,,,,,,,,,,,,,,,,,,,,,,,,,,,,,,,,,"48","59",,,"+0.06","7","67","30.12","41","29.62","9.94","53","220",,"7",,,,,,,,,,,,,,,,,,,,,,,,,,,,,,,,,,,,,"SYN08672793 12666 42206 10150 20089 30029 40199 57019 69901 92353 333 10150 20111 555 93000=","FM-12","4",,,,,,,,,,,,,,,,,,,,,,,,,,,"2007-05-17"
"72793024233","2020-10-29T16:53:00","FM-15","7",,,,,,,,,,,,,,,,,,,,,,,,,,,,,,,,,,,,,,,"30.07","48","56","0.00",,,,"75","30.09","FEW:02 35 SCT:04 250","29.60","10.00","52","190",,"3",,,,,,,,,,,,,,,,,,,,,,,,,,,,,,,,,,,,,"MET10010/29/20 16:53:01 METAR KSEA 300053Z 19003KT 10SM FEW035 SCT250 13/09 A3007 RMK AO2 SLP188 T01330089","FM-15","7",,,,,,,,,,,,,,,,,,,,,,,,,,,"2007-05-17"
"72793024233","2020-10-29T17:53:00","FM-15","7",,,,,,,,,,,,,,,,,,,,,,,,,,,,,,,,,,,,,,,"30.05","47","53","0.00",,,,"80","30.07","FEW:02 35 FEW:02 250","29.58","10.00","50","000",,"0",,,,,,,,,,,,,,,,,,,,,,,,,,,,,,,,,,,,,"MET10010/29/20 17:53:01 METAR KSEA 300153Z 00000KT 10SM FEW035 FEW250 12/08 A3005 RMK AO2 SLP182 T01170083","FM-15","7",,,,,,,,,,,,,,,,,,,,,,,,,,,"2007-05-17"
"72793024233","2020-10-29T18:53:00","FM-15","7",,,,,,,,,,,,,,,,,,,,,,,,,,,,,,,,,,,,,,,"30.04","46","52","0.00",,"+0.05","6","80","30.06","FEW:02 35","29.57","10.00","49","000",,"0",,,,,,,,,,,,,,,,,,,,,,,,,,,,,,,,,,,,,"MET09910/29/20 18:53:01 METAR KSEA 300253Z 00000KT 10SM FEW035 11/08 A3004 RMK AO2 SLP180 T01110078 56018","FM-15","7",,,,,,,,,,,,,,,,,,,,,,,,,,,"2007-05-17"
"72793024233","2020-10-29T19:53:00","FM-15","7",,,,,,,,,,,,,,,,,,,,,,,,,,,,,,,,,,,,,,,"30.02","46","53","0.00",,,,"77","30.04","CLR:00","29.55","10.00","49","120",,"6",,,,,,,,,,,,,,,,,,,,,,,,,,,,,,,,,,,,,"MET09010/29/20 19:53:02 METAR KSEA 300353Z 12005KT 10SM CLR 12/08 A3002 RMK AO2 SLP173 T01170078","FM-15","7",,,,,,,,,,,,,,,,,,,,,,,,,,,"2007-05-17"
"72793024233","2020-10-29T20:53:00","FM-15","7",,,,,,,,,,,,,,,,,,,,,,,,,,,,,,,,,,,,,,,"30.01","46","51","0.00",,,,"83","30.03","FEW:02 250","29.54","10.00","48","130",,"7",,,,,,,,,,,,,,,,,,,,,,,,,,,,,,,,,,,,,"MET09310/29/20 20:53:02 METAR KSEA 300453Z 13006KT 10SM FEW250 11/08 A3001 RMK AO2 SLP168 T01060078","FM-15","7",,,,,,,,,,,,,,,,,,,,,,,,,,,"2007-05-17"
"72793024233","2020-10-29T21:53:00","FM-15","7",,,,,,,,,,,,,,,,,,,,,,,,,,,,,,,,,,,,,,,"29.99","46","50","0.00",,"+0.05","6","86","30.01","FEW:02 100 SCT:04 250","29.52","10.00","48","140",,"10",,,,,,,,,,,,,,,,,,,,,,,,,,,,,,,,,,,,,"MET11810/29/20 21:53:02 METAR KSEA 300553Z 14009KT 10SM FEW100 SCT250 10/08 A2999 RMK AO2 SLP163 T01000078 10150 20100 56017","FM-15","7",,,,,,,,,,,,,,,,,,,,,,,,,,,"2007-05-17"
"72793024233","2020-10-29T22:00:00","FM-12","4",,,,,,,,,,,,,,,,,,,,,,,,,,,,,,,,,,,,,,,,"46","50",,,"+0.05","6","86","30.01",,"29.51","9.94","48","140",,"10",,,,,,,,,,,,,,,,,,,,,,,,,,,,,,,,,,,,,"SYN08072793 32966 41409 10100 20078 39993 40163 56017 90553 333 10150 20100 555 93006=","FM-12","4",,,,,,,,,,,,,,,,,,,,,,,,,,,"2007-05-17"
"72793024233","2020-10-29T22:53:00","FM-15","7",,,,,,,,,,,,,,,,,,,,,,,,,,,,,,,,,,,,,,,"29.97","45","49","0.00",,,,"86","29.98","FEW:02 100 BKN:07 200","29.50","10.00","47","140",,"9",,,,,,,,,,,,,,,,,,,,,,,,,,,,,,,,,,,,,"MET10010/29/20 22:53:02 METAR KSEA 300653Z 14008KT 10SM FEW100 BKN200 09/07 A2997 RMK AO2 SLP154 T00940072","FM-15","7",,,,,,,,,,,,,,,,,,,,,,,,,,,"2007-05-17"
"72793024233","2020-10-29T23:53:00","FM-15","7",,,,,,,,,,,,,,,,,,,,,,,,,,,,,,,,,,,,,,,"29.94","45","48","0.00",,,,"89","29.96","BKN:07 220","29.47","10.00","47","140",,"11",,,,,,,,,,,,,,,,,,,,,,,,,,,,,,,,,,,,,"MET10310/29/20 23:53:02 METAR KSEA 300753Z 14010KT 10SM BKN220 09/07 A2994 RMK AO2 SLP144 T00890072 401500083","FM-15","7",,,,,,,,,,,,,,,,,,,,,,,,,,,"2007-05-17"
"72793024233","2020-10-29T23:59:00","SOD  ","6",,,,,,,,,,,,,,,,,"49","53","83","30.14","29.65","51","5.2","0","3.6","12","59","47",,,"0.02","0","0.0","140","10","DZ BR",,,,,,,,,,,,,,,,,,,,,,,,,,,,,,,,,,,,,,,,,,,,,,,,,,,,,,,"SOD68024 HR PRECIPITATION (IN): 0.02 SNOW DEPTH (IN):0     24 HR SNOWFALL (IN):0.0  WEATHER(CODE):1  24 HR MAX TEMP (F): 5924 HR MIN TEMP (F): 47AVERAGE STATION PRESSURE:29.645 MINIMUM SEA LEVEL PRESSURE:29.95 TIME OF OCCURRENCE:0000  FASTEST 2MIN SPEED (MPH): 10FASTEST 2MIN DIR (DEG):140 FASTEST 2MIN TIME (LST):     AVERAGE WIND SPEED (MPH): 5.2 24 HR AVG TEMP (F): 53DEPART FROM NORMAL:  4  HEATING DEGREE DAYS: 12 COOLING DEGREE DAYS:  0 LATEST DAY MAX TEMP (0700-1900 LST):59  LATEST NIGHT MIN TEMP(1900-0800 LST):52 HOURLY INCREMENTAL PRECIPITATION VALUES (IN):.00 T    0.01 0.01 T    T    0.00 T    0.00 0.00 T    0.00 0.00 0.00 0.00 0.00 0.00 0.00 0.00 0.00 0.00 0.00 0.00 0.00","SOD  ","6",,,,,,,,,,,,,,,,,,,,,,,,,"0650","1655","2007-05-17"
"72793024233","2020-10-30T00:53:00","FM-15","7",,,,,,,,,,,,,,,,,,,,,,,,,,,,,,,,,,,,,,,"29.93","46","51","0.00",,"+0.06","6","83","29.94","BKN:07 37","29.47","10.00","48","180",,"11",,,,,,,,,,,,,,,,,,,,,,,,,,,,,,,,,,,,,"MET10410/30/20 00:53:02 METAR KSEA 300853Z 18010KT 10SM BKN037 11/08 A2993 RMK AO2 SLP140 T01060078 56022 (TL)","FM-15","7",,,,,,,,,,,,,,,,,,,,,,,,,,,"2007-05-17"
"72793024233","2020-10-30T01:53:00","FM-15","7",,,,,,,,,,,,,,,,,,,,,,,,,,,,,,,,,,,,,,,"29.92","47","51","0.00",,,,"86","29.93","SCT:04 28 OVC:08 34","29.45","10.00","49","180",,"15",,,,,,,,,,,,,,,,,,,,,,,,,,,,,,,,,,,,,"MET10510/30/20 01:53:02 METAR KSEA 300953Z 18013KT 10SM SCT028 OVC034 11/08 A2992 RMK AO2 SLP137 T01060083 (TL)","FM-15","7",,,,,,,,,,,,,,,,,,,,,,,,,,,"2007-05-17"
"72793024233","2020-10-30T02:53:00","FM-15","7",,,,,,,,,,,,,,,,,,,,,,,,,,,,,,,,,,,,,,,"29.90","47","53","0.00",,,,"80","29.91","OVC:08 30","29.44","10.00","50","180",,"15",,,,,,,,,,,,,,,,,,,,,,,,,,,,,,,,,,,,,"MET09810/30/20 02:53:02 METAR KSEA 301053Z 18013KT 10SM OVC030 12/08 A2990 RMK AO2 SLP129 T01170083 (TL)","FM-15","7",,,,,,,,,,,,,,,,,,,,,,,,,,,"2007-05-17"
"72793024233","2020-10-30T03:41:00","FM-16","7",,,,,,,,,,,,,,,,,,,,,,,,,,,,,,,,,,,,,,,"29.89","47","54","T","-RA:02 |RA |RA",,,"77",,"OVC:08 26","29.42","10.00","50","190","26","18",,,,,,,,,,,,,,,,,,,,,,,,,,,,,,,,,,,,,"MET11010/30/20 03:41:02 SPECI KSEA 301141Z 19016G23KT 10SM -RA OVC026 12/08 A2989 RMK AO2 RAB41 P0000 T01220083 (TL)","FM-16","7",,,,,,,,,,,,,,,,,,,,,,,,,,,"2007-05-17"
"72793024233","2020-10-30T03:53:00","FM-15","7",,,,,,,,,,,,,,,,,,,,,,,,,,,,,,,,,,,,,,,"29.89","48","53","0.01","-RA:02 |RA |RA","+0.04","6","83","29.91","OVC:08 24","29.42","10.00","50","190","24","13",,,,,,,,,,,,,,,,,,,,,,,,,,,,,,,,,,,,,"MET14110/30/20 03:53:02 METAR KSEA 301153Z 19011G21KT 10SM -RA OVC024 12/09 A2989 RMK AO2 RAB41 SLP127 P0000 60000 T01170089 10122 20083 56014 (TL)","FM-15","7",,,,,,,,,,,,,,,,,,,,,,,,,,,"2007-05-17"
"72793024233","2020-10-30T04:00:00","FM-12","4",,,,,,,,,,,,,,,,,,,,,,,,,,,,,,,,,,,,,,,,"48","53",,"||RA","+0.04","6","83","29.91","26","29.41","9.94","50","190",,"13",,,,,,,,,,,,,,,,,,,,,,,,,,,,,,,,,,,,,"SYN09872793 11566 81911 10117 20089 39959 40127 56014 69901 761// 91153 333 10150 20083 91021 555 93012=","FM-12","4",,,,,,,,,,,,,,,,,,,,,,,,,,,"2007-05-17"
"72793024233","2020-10-30T04:53:00","FM-15","7",,,,,,,,,,,,,,,,,,,,,,,,,,,,,,,,,,,,,,,"29.89","49","53","0.03","-RA:02 |RA |RA",,,"86","29.90","BKN:07 16 OVC:08 85","29.42","10.00","51","210","34","21",,,,,,,,,,,,,,,,,,,,,,,,,,,,,,,,,,,,,"MET13610/30/20 04:53:02 METAR KSEA 301253Z 21018G30KT 10SM -RA BKN016 OVC085 12/09 A2989 RMK AO2 PK WND 21030/1251 SLP126 P0004 T01170094 (LZ)","FM-15","7",,,,,,,,,,,,,,,,,,,,,,,,,,,"2007-05-17"
"72793024233","2020-10-30T05:53:00","FM-15","7",,,,,,,,,,,,,,,,,,,,,,,,,,,,,,,,,,,,,,,"29.88","50","53","0.00",,,,"89","29.89","SCT:04 11 BKN:07 18 BKN:07 120","29.41","10.00","51","200","30","23",,,,,,,,,,,,,,,,,,,,,,,,,,,,,,,,,,,,,"MET14710/30/20 05:53:02 METAR KSEA 301353Z 20020G26KT 10SM SCT011 BKN018 BKN120 12/10 A2988 RMK AO2 PK WND 20028/1315 RAE1256 SLP123 P0000 T01170100 (LZ)","FM-15","7",,,,,,,,,,,,,,,,,,,,,,,,,,,"2007-05-17"
"72793024233","2020-10-30T06:53:00","FM-15","7",,,,,,,,,,,,,,,,,,,,,,,,,,,,,,,,,,,,,,,"29.93","49","53","0.00",,"-0.04","3","86","29.95","FEW:02 11 BKN:07 15 BKN:07 120","29.47","10.00","51","200","24","15",,,,,,,,,,,,,,,,,,,,,,,,,,,,,,,,,,,,,"MET13410/30/20 06:53:02 METAR KSEA 301453Z 20013G21KT 10SM FEW011 BKN015 BKN120 12/09 A2993 RMK AO2 PRESRR SLP142 60004 T01170094 53015 (LZ)","FM-15","7",,,,,,,,,,,,,,,,,,,,,,,,,,,"2007-05-17"
"72793024233","2020-10-30T07:53:00","FM-15","7",,,,,,,,,,,,,,,,,,,,,,,,,,,,,,,,,,,,,,,"29.96","48","53","0.00",,,,"83","29.98","FEW:02 11 BKN:07 17 BKN:07 120","29.49","10.00","50","220",,"13",,,,,,,,,,,,,,,,,,,,,,,,,,,,,,,,,,,,,"MET11910/30/20 07:53:02 METAR KSEA 301553Z 22011KT 10SM FEW011 BKN017 BKN120 12/09 A2996 RMK AO2 PRESRR SLP151 T01170089 (LZ)","FM-15","7",,,,,,,,,,,,,,,,,,,,,,,,,,,"2007-05-17"
"72793024233","2020-10-30T08:23:00","FM-16","7",,,,,,,,,,,,,,,,,,,,,,,,,,,,,,,,,,,,,,,"29.97","48","54",,,,,"80",,"FEW:02 10 SCT:04 17","29.50","10.00","51","210",,"15",,,,,,,,,,,,,,,,,,,,,,,,,,,,,,,,,,,,,"MET09810/30/20 08:23:02 SPECI KSEA 301623Z 21013KT 10SM FEW010 SCT017 12/09 A2997 RMK AO2 T01220089 (LZ)","FM-16","7",,,,,,,,,,,,,,,,,,,,,,,,,,,"2007-05-17"
"72793024233","2020-10-30T08:53:00","FM-15","7",,,,,,,,,,,,,,,,,,,,,,,,,,,,,,,,,,,,,,,"29.99","47","54","0.00",,,,"77","30.00","FEW:02 10 SCT:04 17","29.52","10.00","50","230",,"16",,,,,,,,,,,,,,,,,,,,,,,,,,,,,,,,,,,,,"MET10510/30/20 08:53:02 METAR KSEA 301653Z 23014KT 10SM FEW010 SCT017 12/08 A2999 RMK AO2 SLP160 T01220083 (LZ)","FM-15","7",,,,,,,,,,,,,,,,,,,,,,,,,,,"2007-05-17"
"72793024233","2020-10-30T09:53:00","FM-15","7",,,,,,,,,,,,,,,,,,,,,,,,,,,,,,,,,,,,,,,"30.01","45","56","0.00",,"-0.08","2","67","30.03","FEW:02 17 FEW:02 120","29.54","10.00","50","240",,"8",,,,,,,,,,,,,,,,,,,,,,,,,,,,,,,,,,,,,"MET12910/30/20 09:53:02 METAR KSEA 301753Z 24007KT 10SM FEW017 FEW120 13/07 A3001 RMK AO2 SLP169 60004 T01330072 10133 20117 52027 (LZ)","FM-15","7",,,,,,,,,,,,,,,,,,,,,,,,,,,"2007-05-17"
"72793024233","2020-10-30T10:00:00","FM-12","4",,,,,,,,,,,,,,,,,,,,,,,,,,,,,,,,,,,,,,,,"45","56",,,"-0.08","2","67","30.03","15","29.53","9.94","50","240",,"8",,,,,,,,,,,,,,,,,,,,,,,,,,,,,,,,,,,,,"SYN08672793 12466 22407 10133 20072 39999 40169 52027 60011 91753 333 10133 20117 555 93018=","FM-12","4",,,,,,,,,,,,,,,,,,,,,,,,,,,"2007-05-17"
"72793024233","2020-10-30T10:53:00","FM-15","7",,,,,,,,,,,,,,,,,,,,,,,,,,,,,,,,,,,,,,,"30.05","44","57","0.00",,,,"62","30.06","FEW:02 32 FEW:02 100","29.58","10.00","50","210",,"14",,,,,,,,,,,,,,,,,,,,,,,,,,,,,,,,,,,,,"MET10510/30/20 10:53:02 METAR KSEA 301853Z 21012KT 10SM FEW032 FEW100 14/07 A3005 RMK AO2 SLP181 T01390067 (LZ)","FM-15","7",,,,,,,,,,,,,,,,,,,,,,,,,,,"2007-05-17"
"72793024233","2020-10-30T11:53:00","FM-15","7",,,,,,,,,,,,,,,,,,,,,,,,,,,,,,,,,,,,,,,"30.08","45","58","0.00",,,,"62","30.10","FEW:02 32","29.61","10.00","51","210","22","13",,,,,,,,,,,,,,,,,,,,,,,,,,,,,,,,,,,,,"MET10110/30/20 11:53:02 METAR KSEA 301953Z 21011G19KT 10SM FEW032 14/07 A3008 RMK AO2 SLP192 T01440072 (LZ)","FM-15","7",,,,,,,,,,,,,,,,,,,,,,,,,,,"2007-05-17"
"72793024233","2020-10-30T12:53:00","FM-15","7",,,,,,,,,,,,,,,,,,,,,,,,,,,,,,,,,,,,,,,"30.09","42","58","0.00",,"-0.08","1","56","30.11","SCT:04 32","29.62","10.00","50","200","22","13",,,,,,,,,,,,,,,,,,,,,,,,,,,,,,,,,,,,,"MET10710/30/20 12:53:02 METAR KSEA 302053Z 20011G19KT 10SM SCT032 14/06 A3009 RMK AO2 SLP196 T01440056 51026 (LZ)","FM-15","7",,,,,,,,,,,,,,,,,,,,,,,,,,,"2007-05-17"
"72793024233","2020-10-30T13:53:00","FM-15","7",,,,,,,,,,,,,,,,,,,,,,,,,,,,,,,,,,,,,,,"30.09","42","59","0.00",,,,"54","30.11","SCT:04 35","29.62","10.00","50","200",,"13",,,,,,,,,,,,,,,,,,,,,,,,,,,,,,,,,,,,,"MET09810/30/20 13:53:02 METAR KSEA 302153Z 20011KT 10SM SCT035 15/06 A3009 RMK AO2 SLP197 T01500056 (RS)","FM-15","7",,,,,,,,,,,,,,,,,,,,,,,,,,,"2007-05-17"
"72793024233","2020-10-30T14:53:00","FM-15","7",,,,,,,,,,,,,,,,,,,,,,,,,,,,,,,,,,,,,,,"30.11","39","59","0.00",,,,"48","30.13","SCT:04 35","29.64","10.00","49","200",,"15",,,,,,,,,,,,,,,,,,,,,,,,,,,,,,,,,,,,,"MET09810/30/20 14:53:02 METAR KSEA 302253Z 20013KT 10SM SCT035 15/04 A3011 RMK AO2 SLP202 T01500039 (RS)","FM-15","7",,,,,,,,,,,,,,,,,,,,,,,,,,,"2007-05-17"
"72793024233","2020-10-30T15:53:00","FM-15","7",,,,,,,,,,,,,,,,,,,,,,,,,,,,,,,,,,,,,,,"30.12","41","57","0.00",,"-0.04","3","55","30.14","FEW:02 35 SCT:04 50","29.65","10.00","49","200",,"13",,,,,,,,,,,,,,,,,,,,,,,,,,,,,,,,,,,,,"MET12310/30/20 15:53:02 METAR KSEA 302353Z 20011KT 10SM FEW035 SCT050 14/05 A3012 RMK AO2 SLP207 T01390050 10156 20128 53012 (RS)","FM-15","7",,,,,,,,,,,,,,,,,,,,,,,,,,,"2007-05-17"
"72793024233","2020-10-30T16:00:00","FM-12","4",,,,,,,,,,,,,,,,,,,,,,,,,,,,,,,,,,,,,,,,"41","57",,,"-0.04","3","55","30.14","41","29.64","9.94","49","200",,"13",,,,,,,,,,,,,,,,,,,,,,,,,,,,,,,,,,,,,"SYN08072793 32666 42011 10139 20050 30036 40207 53012 92353 333 10156 20083 555 93100=","FM-12","4",,,,,,,,,,,,,,,,,,,,,,,,,,,"2007-05-17"
"72793024233","2020-10-30T16:53:00","FM-15","7",,,,,,,,,,,,,,,,,,,,,,,,,,,,,,,,,,,,,,,"30.16","40","54","0.00",,,,"59","30.18","FEW:02 35 SCT:04 55","29.69","10.00","47","220",,"9",,,,,,,,,,,,,,,,,,,,,,,,,,,,,,,,,,,,,"MET10010/30/20 16:53:01 METAR KSEA 310053Z 22008KT 10SM FEW035 SCT055 12/04 A3016 RMK AO2 SLP219 T01220044","FM-15","7",,,,,,,,,,,,,,,,,,,,,,,,,,,"2007-05-17"
"72793024233","2020-10-30T17:53:00","FM-15","7",,,,,,,,,,,,,,,,,,,,,,,,,,,,,,,,,,,,,,,"30.19","41","53","0.00",,,,"64","30.21","SCT:04 40","29.72","10.00","47","060",,"13",,,,,,,,,,,,,,,,,,,,,,,,,,,,,,,,,,,,,"MET09310/30/20 17:53:01 METAR KSEA 310153Z 06011KT 10SM SCT040 12/05 A3019 RMK AO2 SLP229 T01170050","FM-15","7",,,,,,,,,,,,,,,,,,,,,,,,,,,"2007-05-17"
"72793024233","2020-10-30T18:53:00","FM-15","7",,,,,,,,,,,,,,,,,,,,,,,,,,,,,,,,,,,,,,,"30.22","40","52","0.00",,"-0.09","1","64","30.24","BKN:07 44","29.75","10.00","46","060",,"11",,,,,,,,,,,,,,,,,,,,,,,,,,,,,,,,,,,,,"MET09910/30/20 18:53:01 METAR KSEA 310253Z 06010KT 10SM BKN044 11/04 A3022 RMK AO2 SLP240 T01110044 51032","FM-15","7",,,,,,,,,,,,,,,,,,,,,,,,,,,"2007-05-17"
"72793024233","2020-10-30T19:53:00","FM-15","7",,,,,,,,,,,,,,,,,,,,,,,,,,,,,,,,,,,,,,,"30.24","40","51","0.00",,,,"66","30.26","BKN:07 49","29.77","10.00","46","050",,"9",,,,,,,,,,,,,,,,,,,,,,,,,,,,,,,,,,,,,"MET09310/30/20 19:53:01 METAR KSEA 310353Z 05008KT 10SM BKN049 11/04 A3024 RMK AO2 SLP246 T01060044","FM-15","7",,,,,,,,,,,,,,,,,,,,,,,,,,,"2007-05-17"
"72793024233","2020-10-30T20:53:00","FM-15","7",,,,,,,,,,,,,,,,,,,,,,,,,,,,,,,,,,,,,,,"30.27","39","51","0.00",,,,"64","30.28","BKN:07 48","29.80","10.00","45","060",,"7",,,,,,,,,,,,,,,,,,,,,,,,,,,,,,,,,,,,,"MET09310/30/20 20:53:01 METAR KSEA 310453Z 06006KT 10SM BKN048 11/04 A3027 RMK AO2 SLP255 T01060039","FM-15","7",,,,,,,,,,,,,,,,,,,,,,,,,,,"2007-05-17"
"72793024233","2020-10-30T21:53:00","FM-15","7",,,,,,,,,,,,,,,,,,,,,,,,,,,,,,,,,,,,,,,"30.29","39","50","0.00",,"-0.06","2","66","30.30","BKN:07 50","29.82","10.00","45","040",,"7",,,,,,,,,,,,,,,,,,,,,,,,,,,,,,,,,,,,,"MET11110/30/20 21:53:01 METAR KSEA 310553Z 04006KT 10SM BKN050 10/04 A3029 RMK AO2 SLP262 T01000039 10139 20100 52022","FM-15","7",,,,,,,,,,,,,,,,,,,,,,,,,,,"2007-05-17"
"72793024233","2020-10-30T22:00:00","FM-12","4",,,,,,,,,,,,,,,,,,,,,,,,,,,,,,,,,,,,,,,,"39","50",,,"-0.06","2","66","30.30","57","29.80","9.94","45","040",,"7",,,,,,,,,,,,,,,,,,,,,,,,,,,,,,,,,,,,,"SYN08072793 32766 60406 10100 20039 30093 40262 52022 90553 333 10139 20083 555 93106=","FM-12","4",,,,,,,,,,,,,,,,,,,,,,,,,,,"2007-05-17"
"72793024233","2020-10-30T22:53:00","FM-15","7",,,,,,,,,,,,,,,,,,,,,,,,,,,,,,,,,,,,,,,"30.31","39","50","0.00",,,,"66","30.33","BKN:07 50","29.84","10.00","45","060",,"3",,,,,,,,,,,,,,,,,,,,,,,,,,,,,,,,,,,,,"MET09310/30/20 22:53:01 METAR KSEA 310653Z 06003KT 10SM BKN050 10/04 A3031 RMK AO2 SLP270 T01000039","FM-15","7",,,,,,,,,,,,,,,,,,,,,,,,,,,"2007-05-17"
"72793024233","2020-10-30T23:53:00","FM-15","7",,,,,,,,,,,,,,,,,,,,,,,,,,,,,,,,,,,,,,,"30.32","40","49","0.00",,,,"71","30.34","BKN:07 55","29.85","10.00","45","060",,"5",,,,,,,,,,,,,,,,,,,,,,,,,,,,,,,,,,,,,"MET10310/30/20 23:53:01 METAR KSEA 310753Z 06004KT 10SM BKN055 09/04 A3032 RMK AO2 SLP273 T00940044 401560083","FM-15","7",,,,,,,,,,,,,,,,,,,,,,,,,,,"2007-05-17"
"72793024233","2020-10-30T23:59:00","SOD  ","6",,,,,,,,,,,,,,,,,"44","54","69","30.09","29.60","49","12.2","0","4.9","11","60","47","210","35","0.04","0","0.0","210","25","RA",,,,,,,,,,,,,,,,,,,,,,,,,,,,,,,,,,,,,,,,,,,,,,,,,,,,,,,"SOD75624 HR PRECIPITATION (IN): 0.04 SNOW DEPTH (IN):0     24 HR SNOWFALL (IN):0.0  WEATHER(CODE):1  24 HR MAX TEMP (F): 6024 HR MIN TEMP (F): 47AVERAGE STATION PRESSURE:29.605 MINIMUM SEA LEVEL PRESSURE:29.89 TIME OF OCCURRENCE:0554 PEAK WIND SPEED (MPH): 35 PEAK WIND DIR (DEG):210 PEAK WIND TIME (LST):      FASTEST 2MIN SPEED (MPH): 25FASTEST 2MIN DIR (DEG):210 FASTEST 2MIN TIME (LST):     AVERAGE WIND SPEED (MPH):12.2 24 HR AVG TEMP (F): 54DEPART FROM NORMAL:  5  HEATING DEGREE DAYS: 11 COOLING DEGREE DAYS:  0 LATEST DAY MAX TEMP (0700-1900 LST):60  LATEST NIGHT MIN TEMP(1900-0800 LST):47 HOURLY INCREMENTAL PRECIPITATION VALUES (IN):.00 0.00 0.00 0.01 0.03 0.00 0.00 0.00 0.00 0.00 0.00 0.00 0.00 0.00 0.00 0.00 0.00 0.00 0.00 0.00 0.00 0.00 0.00 0.00","SOD  ","6",,,,,,,,,,,,,,,,,,,,,,,,,"0651","1654","2007-05-17"
"72793024233","2020-10-31T00:53:00","FM-15","7",,,,,,,,,,,,,,,,,,,,,,,,,,,,,,,,,,,,,,,"30.34","40","47","0.00",,"-0.05","1","77","30.36","BKN:07 55","29.87","10.00","44","010",,"6",,,,,,,,,,,,,,,,,,,,,,,,,,,,,,,,,,,,,"MET10410/31/20 00:53:02 METAR KSEA 310853Z 01005KT 10SM BKN055 08/04 A3034 RMK AO2 SLP280 T00830044 51017 (MR)","FM-15","7",,,,,,,,,,,,,,,,,,,,,,,,,,,"2007-05-17"
"72793024233","2020-10-31T01:53:00","FM-15","7",,,,,,,,,,,,,,,,,,,,,,,,,,,,,,,,,,,,,,,"30.34","39","45","0.00",,,,"80","30.36","FEW:02 55","29.87","10.00","42","010",,"8",,,,,,,,,,,,,,,,,,,,,,,,,,,,,,,,,,,,,"MET09810/31/20 01:53:02 METAR KSEA 310953Z 01007KT 10SM FEW055 07/04 A3034 RMK AO2 SLP280 T00720039 (MR)","FM-15","7",,,,,,,,,,,,,,,,,,,,,,,,,,,"2007-05-17"
"72793024233","2020-10-31T02:53:00","FM-15","7",,,,,,,,,,,,,,,,,,,,,,,,,,,,,,,,,,,,,,,"30.34","39","45","0.00",,,,"80","30.36","FEW:02 200","29.87","10.00","42","040",,"6",,,,,,,,,,,,,,,,,,,,,,,,,,,,,,,,,,,,,"MET09810/31/20 02:53:02 METAR KSEA 311053Z 04005KT 10SM FEW200 07/04 A3034 RMK AO2 SLP282 T00720039 (MR)","FM-15","7",,,,,,,,,,,,,,,,,,,,,,,,,,,"2007-05-17"
"72793024233","2020-10-31T03:53:00","FM-15","7",,,,,,,,,,,,,,,,,,,,,,,,,,,,,,,,,,,,,,,"30.36","39","44","0.00",,"-0.02","3","83","30.38","SCT:04 200","29.89","10.00","42","120",,"5",,,,,,,,,,,,,,,,,,,,,,,,,,,,,,,,,,,,,"MET12210/31/20 03:53:02 METAR KSEA 311153Z 12004KT 10SM SCT200 07/04 A3036 RMK AO2 SLP288 70004 T00670039 10100 20061 53007 (MR)","FM-15","7",,,,,,,,,,,,,,,,,,,,,,,,,,,"2007-05-17"
"72793024233","2020-10-31T04:00:00","FM-12","4",,,,,,,,,,,,,,,,,,,,,,,,,,,,,,,,,,,,,,,,"39","44",,,"-0.02","3","83","30.38",,"29.87","9.94","42","120",,"5",,,,,,,,,,,,,,,,,,,,,,,,,,,,,,,,,,,,,"SYN08672793 32966 41204 10067 20039 30116 40288 53007 91153 333 10156 20061 70010 555 93112=","FM-12","4",,,,,,,,,,,,,,,,,,,,,,,,,,,"2007-05-17"
"72793024233","2020-10-31T04:53:00","FM-15","7",,,,,,,,,,,,,,,,,,,,,,,,,,,,,,,,,,,,,,,"30.37","39","43","0.00",,,,"86","30.39","SCT:04 250","29.90","10.00","41","000",,"0",,,,,,,,,,,,,,,,,,,,,,,,,,,,,,,,,,,,,"MET09810/31/20 04:53:02 METAR KSEA 311253Z 00000KT 10SM SCT250 06/04 A3037 RMK AO2 SLP290 T00610039 (TL)","FM-15","7",,,,,,,,,,,,,,,,,,,,,,,,,,,"2007-05-17"
"72793024233","2020-10-31T05:53:00","FM-15","7",,,,,,,,,,,,,,,,,,,,,,,,,,,,,,,,,,,,,,,"30.38","38","42","0.00",,,,"85","30.40","SCT:04 250","29.91","10.00","40","000",,"0",,,,,,,,,,,,,,,,,,,,,,,,,,,,,,,,,,,,,"MET09810/31/20 05:53:02 METAR KSEA 311353Z 00000KT 10SM SCT250 06/03 A3038 RMK AO2 SLP295 T00560033 (TL)","FM-15","7",,,,,,,,,,,,,,,,,,,,,,,,,,,"2007-05-17"
"72793024233","2020-10-31T06:53:00","FM-15","7",,,,,,,,,,,,,,,,,,,,,,,,,,,,,,,,,,,,,,,"30.38","39","43","0.00",,"-0.02","1","86","30.40","SCT:04 250","29.91","10.00","41","020",,"5",,,,,,,,,,,,,,,,,,,,,,,,,,,,,,,,,,,,,"MET10410/31/20 06:53:02 METAR KSEA 311453Z 02004KT 10SM SCT250 06/04 A3038 RMK AO2 SLP296 T00610039 51008 (TL)","FM-15","7",,,,,,,,,,,,,,,,,,,,,,,,,,,"2007-05-17"
"72793024233","2020-10-31T07:51:00","FM-16","6",,,,,,,,,,,,,,,,,,,,,,,,,,,,,,,,,,,,,,,"30.40","39","43",,,,,"87",,"FEW:02 7 SCT:04 250","29.93","10.00","41","000",,"0",,,,,,,,,,,,,,,,,,,,,,,,,,,,,,,,,,,,,"MET09510/31/20 07:51:02 SPECI KSEA 311551Z 00000KT 10SM FEW007 SCT250 06/04 A3040 RMK AO2 $ FIBI (TL)","FM-16","6",,,,,,,,,,,,,,,,,,,,,,,,,,,"2007-05-17"
"72793024233","2020-10-31T07:53:00","FM-15","7",,,,,,,,,,,,,,,,,,,,,,,,,,,,,,,,,,,,,,,"30.40","40","43","0.00",,,,"89","30.42","FEW:02 7 SCT:04 250","29.93","10.00","42","000",,"0",,,,,,,,,,,,,,,,,,,,,,,,,,,,,,,,,,,,,"MET10710/31/20 07:53:02 METAR KSEA 311553Z 00000KT 10SM FEW007 SCT250 06/04 A3040 RMK AO2 SLP301 T00610044 $ (TL)","FM-15","7",,,,,,,,,,,,,,,,,,,,,,,,,,,"2007-05-17"
"72793024233","2020-10-31T08:53:00","FM-15","7",,,,,,,,,,,,,,,,,,,,,,,,,,,,,,,,,,,,,,,"30.42","42","46","0.00",,,,"86","30.44","SCT:04 8 SCT:04 250","29.95","10.00","44","000",,"0",,,,,,,,,,,,,,,,,,,,,,,,,,,,,,,,,,,,,"MET10710/31/20 08:53:02 METAR KSEA 311653Z 00000KT 10SM SCT008 SCT250 08/06 A3042 RMK AO2 SLP309 T00780056 $ (TL)","FM-15","7",,,,,,,,,,,,,,,,,,,,,,,,,,,"2007-05-17"
"72793024233","2020-10-31T09:53:00","FM-15","7",,,,,,,,,,,,,,,,,,,,,,,,,,,,,,,,,,,,,,,"30.41","43","50","0.00",,"-0.03","0","77","30.43","FEW:02 8 SCT:04 250","29.94","10.00","47","020",,"3",,,,,,,,,,,,,,,,,,,,,,,,,,,,,,,,,,,,,"MET12510/31/20 09:53:02 METAR KSEA 311753Z 02003KT 10SM FEW008 SCT250 10/06 A3041 RMK AO2 SLP306 T01000061 10100 20050 50010 $ (TL)","FM-15","7",,,,,,,,,,,,,,,,,,,,,,,,,,,"2007-05-17"
"72793024233","2020-10-31T10:00:00","FM-12","4",,,,,,,,,,,,,,,,,,,,,,,,,,,,,,,,,,,,,,,,"43","50",,,"0.03","9","77","30.43","8","29.92","9.94","47","020",,"3",,,,,,,,,,,,,,,,,,,,,,,,,,,,,,,,,,,,,"SYN08072793 32366 40203 10100 20061 30133 40306 50010 91753 333 10100 20050 555 93118=","FM-12","4",,,,,,,,,,,,,,,,,,,,,,,,,,,"2007-05-17"
"72793024233","2020-10-31T10:53:00","FM-15","7",,,,,,,,,,,,,,,,,,,,,,,,,,,,,,,,,,,,,,,"30.41","42","53","0.00",,,,"66","30.43","FEW:02 8 SCT:04 250","29.94","10.00","48","VRB",,"6",,,,,,,,,,,,,,,,,,,,,,,,,,,,,,,,,,,,,"MET10710/31/20 10:53:02 METAR KSEA 311853Z VRB05KT 10SM FEW008 SCT250 12/06 A3041 RMK AO2 SLP304 T01170056 $ (TL)","FM-15","7",,,,,,,,,,,,,,,,,,,,,,,,,,,"2007-05-17"
"72793024233","2020-10-31T11:53:00","FM-15","7",,,,,,,,,,,,,,,,,,,,,,,,,,,,,,,,,,,,,,,"30.40","40","54","0.00",,,,"59","30.42","SCT:04 250","29.93","10.00","47","020",,"6",,,,,,,,,,,,,,,,,,,,,,,,,,,,,,,,,,,,,"MET10010/31/20 11:53:02 METAR KSEA 311953Z 02005KT 10SM SCT250 12/04 A3040 RMK AO2 SLP301 T01220044 $ (TL)","FM-15","7",,,,,,,,,,,,,,,,,,,,,,,,,,,"2007-05-17"
"72793024233","2020-10-31T12:53:00","FM-15","7",,,,,,,,,,,,,,,,,,,,,,,,,,,,,,,,,,,,,,,"30.38","38","54","0.00",,"+0.04","8","55","30.40","BKN:07 250","29.91","10.00","46","020",,"13",,,,,,,,,,,,,,,,,,,,,,,,,,,,,,,,,,,,,"MET10610/31/20 12:53:02 METAR KSEA 312053Z 02011KT 10SM BKN250 12/03 A3038 RMK AO2 SLP294 T01220033 58012 $ (JC)","FM-15","7",,,,,,,,,,,,,,,,,,,,,,,,,,,"2007-05-17"
"72793024233","2020-10-31T13:53:00","FM-15","7",,,,,,,,,,,,,,,,,,,,,,,,,,,,,,,,,,,,,,,"30.36","40","56","0.00",,,,"55","30.38","BKN:07 250","29.89","10.00","48","010",,"9",,,,,,,,,,,,,,,,,,,,,,,,,,,,,,,,,,,,,"MET10010/31/20 13:53:02 METAR KSEA 312153Z 01008KT 10SM BKN250 13/04 A3036 RMK AO2 SLP289 T01330044 $ (JC)","FM-15","7",,,,,,,,,,,,,,,,,,,,,,,,,,,"2007-05-17"
"72793024233","2020-10-31T14:53:00","FM-15","7",,,,,,,,,,,,,,,,,,,,,,,,,,,,,,,,,,,,,,,"30.34","40","57","0.00",,,,"53","30.37","BKN:07 250","29.87","10.00","49","340",,"8",,,,,,,,,,,,,,,,,,,,,,,,,,,,,,,,,,,,,"MET10010/31/20 14:53:02 METAR KSEA 312253Z 34007KT 10SM BKN250 14/04 A3034 RMK AO2 SLP283 T01390044 $ (JC)","FM-15","7",,,,,,,,,,,,,,,,,,,,,,,,,,,"2007-05-17"
"72793024233","2020-10-31T15:53:00","FM-15","7",,,,,,,,,,,,,,,,,,,,,,,,,,,,,,,,,,,,,,,"30.34","41","54","0.00",,"+0.04","6","62","30.36","BKN:07 250","29.87","10.00","48","360",,"10",,,,,,,,,,,,,,,,,,,,,,,,,,,,,,,,,,,,,"MET11810/31/20 15:53:02 METAR KSEA 312353Z 36009KT 10SM BKN250 12/05 A3034 RMK AO2 SLP282 T01220050 10139 20100 56012 $ (JC)","FM-15","7",,,,,,,,,,,,,,,,,,,,,,,,,,,"2007-05-17"
"72793024233","2020-10-31T16:00:00","FM-12","4",,,,,,,,,,,,,,,,,,,,,,,,,,,,,,,,,,,,,,,,"41","54",,,"+0.04","6","62","30.36",,"29.85","9.94","48","360",,"10",,,,,,,,,,,,,,,,,,,,,,,,,,,,,,,,,,,,,"SYN08072793 32966 63609 10122 20050 30110 40282 56012 92353 333 10139 20050 555 90100=","FM-12","4",,,,,,,,,,,,,,,,,,,,,,,,,,,"2007-05-17"
"72793024233","2020-10-31T16:53:00","FM-15","7",,,,,,,,,,,,,,,,,,,,,,,,,,,,,,,,,,,,,,,"30.33","41","50","0.00",,,,"71","30.35","BKN:07 250","29.86","10.00","46","340",,"7",,,,,,,,,,,,,,,,,,,,,,,,,,,,,,,,,,,,,"MET10010/31/20 16:53:03 METAR KSEA 010053Z 34006KT 10SM BKN250 10/05 A3033 RMK AO2 SLP279 T01000050 $ (JC)","FM-15","7",,,,,,,,,,,,,,,,,,,,,,,,,,,"2007-05-17"
"72793024233","2020-10-31T17:53:00","FM-15","7",,,,,,,,,,,,,,,,,,,,,,,,,,,,,,,,,,,,,,,"30.33","42","49","0.00",,,,"77","30.36","SCT:04 250","29.86","10.00","46","350",,"9",,,,,,,,,,,,,,,,,,,,,,,,,,,,,,,,,,,,,"MET10010/31/20 17:53:03 METAR KSEA 010153Z 35008KT 10SM SCT250 09/06 A3033 RMK AO2 SLP280 T00940056 $ (JC)","FM-15","7",,,,,,,,,,,,,,,,,,,,,,,,,,,"2007-05-17"
"72793024233","2020-10-31T18:53:00","FM-15","7",,,,,,,,,,,,,,,,,,,,,,,,,,,,,,,,,,,,,,,"30.33","41","49","0.00",,"+0.01","5","74","30.36","SCT:04 250","29.86","10.00","45","010",,"11",,,,,,,,,,,,,,,,,,,,,,,,,,,,,,,,,,,,,"MET10610/31/20 18:53:03 METAR KSEA 010253Z 01010KT 10SM SCT250 09/05 A3033 RMK AO2 SLP280 T00940050 55003 $ (JC)","FM-15","7",,,,,,,,,,,,,,,,,,,,,,,,,,,"2007-05-17"
"72793024233","2020-10-31T19:53:00","FM-15","7",,,,,,,,,,,,,,,,,,,,,,,,,,,,,,,,,,,,,,,"30.33","41","47","0.00",,,,"80","30.35","FEW:02 250","29.86","10.00","44","010",,"10",,,,,,,,,,,,,,,,,,,,,,,,,,,,,,,,,,,,,"MET10010/31/20 19:53:03 METAR KSEA 010353Z 01009KT 10SM FEW250 08/05 A3033 RMK AO2 SLP278 T00830050 $ (JC)","FM-15","7",,,,,,,,,,,,,,,,,,,,,,,,,,,"2007-05-17"
"72793024233","2020-10-31T20:53:00","FM-15","7",,,,,,,,,,,,,,,,,,,,,,,,,,,,,,,,,,,,,,,"30.32","42","47","0.00",,,,"83","30.35","FEW:02 250","29.85","10.00","45","020",,"8",,,,,,,,,,,,,,,,,,,,,,,,,,,,,,,,,,,,,"MET10010/31/20 20:53:03 METAR KSEA 010453Z 02007KT 10SM FEW250 08/06 A3032 RMK AO2 SLP276 T00830056 $ (MR)","FM-15","7",,,,,,,,,,,,,,,,,,,,,,,,,,,"2007-05-17"
"72793024233","2020-10-31T21:53:00","FM-15","7",,,,,,,,,,,,,,,,,,,,,,,,,,,,,,,,,,,,,,,"30.31","41","46","0.00",,"+0.02","8","83","30.33","CLR:00","29.84","10.00","44","360",,"10",,,,,,,,,,,,,,,,,,,,,,,,,,,,,,,,,,,,,"MET11510/31/20 21:53:03 METAR KSEA 010553Z 36009KT 10SM CLR 08/05 A3031 RMK AO2 SLP272 T00780050 10122 20078 58007 $ (MR)","FM-15","7",,,,,,,,,,,,,,,,,,,,,,,,,,,"2007-05-17"
"72793024233","2020-10-31T22:00:00","FM-12","4",,,,,,,,,,,,,,,,,,,,,,,,,,,,,,,,,,,,,,,,"41","46",,,"+0.02","8","83","30.33",,"29.83","9.94","44","360",,"10",,,,,,,,,,,,,,,,,,,,,,,,,,,,,,,,,,,,,"SYN08072793 32966 03609 10078 20050 30100 40272 58007 90553 333 10122 20050 555 90106=","FM-12","4",,,,,,,,,,,,,,,,,,,,,,,,,,,"2007-05-17"
"72793024233","2020-10-31T22:53:00","FM-15","7",,,,,,,,,,,,,,,,,,,,,,,,,,,,,,,,,,,,,,,"30.30","41","45","0.00",,,,"86","30.32","CLR:00","29.83","10.00","43","360",,"10",,,,,,,,,,,,,,,,,,,,,,,,,,,,,,,,,,,,,"MET09710/31/20 22:53:03 METAR KSEA 010653Z 36009KT 10SM CLR 07/05 A3030 RMK AO2 SLP268 T00720050 $ (MR)","FM-15","7",,,,,,,,,,,,,,,,,,,,,,,,,,,"2007-05-17"
"72793024233","2020-10-31T23:53:00","FM-15","7",,,,,,,,,,,,,,,,,,,,,,,,,,,,,,,,,,,,,,,"30.29","42","45","0.00",,,,"90","30.31","CLR:00","29.82","10.00","44","360",,"10",,,,,,,,,,,,,,,,,,,,,,,,,,,,,,,,,,,,,"MET10710/31/20 23:53:03 METAR KSEA 010753Z 36009KT 10SM CLR 07/06 A3029 RMK AO2 SLP263 T00720056 401390050 $ (MR)","FM-15","7",,,,,,,,,,,,,,,,,,,,,,,,,,,"2007-05-17"
"72793024233","2020-10-31T23:59:00","SOD  ","6",,,,,,,,,,,,,,,,,"40","49","75","30.38","29.88","45","6.7","0","0.1","16","57","41","360","16","0.00","0","0.0","360","14",,,,,,,,,,,,,,,,,,,,,,,,,,,,,,,,,,,,,,,,,,,,,,,,,,,,,,,,"SOD73924 HR PRECIPITATION (IN): 0.00 SNOW DEPTH (IN):0     24 HR SNOWFALL (IN):0.0  24 HR MAX TEMP (F): 5724 HR MIN TEMP (F): 41AVERAGE STATION PRESSURE:29.880 MINIMUM SEA LEVEL PRESSURE:30.31 TIME OF OCCURRENCE:2359 PEAK WIND SPEED (MPH): 16 PEAK WIND DIR (DEG):360 PEAK WIND TIME (LST):      FASTEST 2MIN SPEED (MPH): 14FASTEST 2MIN DIR (DEG):360 FASTEST 2MIN TIME (LST):     AVERAGE WIND SPEED (MPH): 6.7 24 HR AVG TEMP (F): 49DEPART FROM NORMAL:  0  HEATING DEGREE DAYS: 16 COOLING DEGREE DAYS:  0 LATEST DAY MAX TEMP (0700-1900 LST):57  LATEST NIGHT MIN TEMP(1900-0800 LST):41 HOURLY INCREMENTAL PRECIPITATION VALUES (IN):.00 0.00 0.00 0.00 0.00 0.00 0.00 0.00 0.00 0.00 0.00 0.00 0.00 0.00 0.00 0.00 0.00 0.00 0.00 0.00 0.00 0.00 0.00 0.00","SOD  ","6",,,,,,,,,,,,,,,,,,,,,,,,,"0653","1652","2007-05-17"
"72793024233","2020-10-31T23:59:00","SOM  ","6","7.8",,,,,,,,,,,"313","0","0",,,,,,,,,,,,,,,,,,,,,,,"423","331",,,,,,,,,,,,,,,,,,"12","5","0","0","0","0","1.5","0","-49","0.5","2.7","-0.90",,"1.01","09-10","0",,"0.0",,"30.62","15","1131","60.2","54.3","29.56","10","0553","48.5","30.16","28.82","2.58",,,"-7777","380","SOM794PCP MTOT:2.58 PCP GT 24HRS:1.01 DATE(S):9-10 DAYS W/PCP >=.01:11 DAYS W/PCP >=.10:5  DAYS W/ PCP >=.50:3 DAYS W/PCP >=1.00:0 MSDP AMTS W/DATE-TIME TAGS:MIN:5 0.04  13/0346 MIN:10 0.07  13/0351 MIN:15 0.10  13/0355 MIN:20 0.12  13/0357 MIN:30 0.16  13/0357 MIN:45 0.21  13/0413 MIN:60 0.27  09/2230 MIN:80 0.32  09/2250 MIN:100 0.38  09/2304 MIN:120 0.42  09/2323 MIN:150 0.46  09/2354 MIN:180 0.50  09/2358 AVG DLY MIN:48.5  AVG DLY MAX:60.2  AVG MLY TMP:54.4  MIN TMP:34 DATE(S):25 MAX TMP:73  DATE(S):06 02 DAYS MAX <=32:0 DAYS MAX >=90:0  DAYS MIN <=32:0  DAYS MIN  <=0:0  AVG STP:28.825 LWST SLP:29.55 DATE/TIME:100540 HGST SLP:30.62 DATE/TIME:151131 HDD MTH TOT:324 DEP NORM:-2553 SEASON(JUL 1-JUN 30):340 DEP NORM:-25536 CDD MTH TOT:0 DEP NORM:-2553 SEASON(JAN 1-DEC 31):3 DEP NORM:-25536","SOM  ","6","2020-10-13 03:46","2020-10-13 03:51","2020-10-13 03:55","2020-10-13 03:57","2020-10-13 03:57","2020-10-13 04:13","2020-10-09 22:30","2020-10-09 22:50","2020-10-09 23:04","2020-10-09 23:23","2020-10-09 23:54","2020-10-09 23:58","0.04","0.07","0.10","0.12","0.16","0.21","0.27","0.32","0.38","0.42","0.46","0.50",,,"2007-05-17"
"72793024233","2020-11-01T00:53:00","FM-15","7",,,,,,,,,,,,,,,,,,,,,,,,,,,,,,,,,,,,,,,"30.28","42","45","0.00",,"+0.03","6","90","30.30","CLR:00","29.81","10.00","44","360",,"9",,,,,,,,,,,,,,,,,,,,,,,,,,,,,,,,,,,,,"MET10311/01/20 00:53:02 METAR KSEA 010853Z 36008KT 10SM CLR 07/06 A3028 RMK AO2 SLP262 T00720056 56010 $ (MR)","FM-15","7",,,,,,,,,,,,,,,,,,,,,,,,,,,"2007-05-17"
"72793024233","2020-11-01T01:53:00","FM-15","7",,,,,,,,,,,,,,,,,,,,,,,,,,,,,,,,,,,,,,,"30.28","42","45","0.00",,,,"90","30.30","CLR:00","29.81","10.00","44","020",,"14",,,,,,,,,,,,,,,,,,,,,,,,,,,,,,,,,,,,,"MET09711/01/20 01:53:02 METAR KSEA 010953Z 02012KT 10SM CLR 07/06 A3028 RMK AO2 SLP260 T00720056 $ (MR)","FM-15","7",,,,,,,,,,,,,,,,,,,,,,,,,,,"2007-05-17"
"72793024233","2020-11-01T02:53:00","FM-15","7",,,,,,,,,,,,,,,,,,,,,,,,,,,,,,,,,,,,,,,"30.27","42","44","0.00",,,,"93","30.29","CLR:00","29.80","10.00","43","020",,"13",,,,,,,,,,,,,,,,,,,,,,,,,,,,,,,,,,,,,"MET09711/01/20 02:53:02 METAR KSEA 011053Z 02011KT 10SM CLR 07/06 A3027 RMK AO2 SLP258 T00670056 $ (MR)","FM-15","7",,,,,,,,,,,,,,,,,,,,,,,,,,,"2007-05-17"
"72793024233","2020-11-01T03:53:00","FM-15","7",,,,,,,,,,,,,,,,,,,,,,,,,,,,,,,,,,,,,,,"30.27","42","44","0.00",,"+0.01","6","93","30.29","CLR:00","29.80","10.00","43","010",,"15",,,,,,,,,,,,,,,,,,,,,,,,,,,,,,,,,,,,,"MET11511/01/20 03:53:02 METAR KSEA 011153Z 01013KT 10SM CLR 07/06 A3027 RMK AO2 SLP257 T00670056 10078 20067 56005 $ (MR)","FM-15","7",,,,,,,,,,,,,,,,,,,,,,,,,,,"2007-05-17"
"72793024233","2020-11-01T04:00:00","FM-12","4",,,,,,,,,,,,,,,,,,,,,,,,,,,,,,,,,,,,,,,,"42","44",,,"+0.01","6","93","30.29",,"29.78","9.94","43","010",,"15",,,,,,,,,,,,,,,,,,,,,,,,,,,,,,,,,,,,,"SYN08072793 32966 00113 10067 20056 30086 40257 56005 91153 333 10139 20067 555 90112=","FM-12","4",,,,,,,,,,,,,,,,,,,,,,,,,,,"2007-05-17"
"72793024233","2020-11-01T04:53:00","FM-15","7",,,,,,,,,,,,,,,,,,,,,,,,,,,,,,,,,,,,,,,"30.26","41","44","0.00",,,,"89","30.28","CLR:00","29.79","9.00","43","010",,"13",,,,,,,,,,,,,,,,,,,,,,,,,,,,,,,,,,,,,"MET09611/01/20 04:53:02 METAR KSEA 011253Z 01011KT 9SM CLR 07/05 A3026 RMK AO2 SLP254 T00670050 $ (MR)","FM-15","7",,,,,,,,,,,,,,,,,,,,,,,,,,,"2007-05-17"
"72793024233","2020-11-01T05:53:00","FM-15","7",,,,,,,,,,,,,,,,,,,,,,,,,,,,,,,,,,,,,,,"30.25","41","43","0.00",,,,"93","30.28","CLR:00","29.78","10.00","42","010",,"13",,,,,,,,,,,,,,,,,,,,,,,,,,,,,,,,,,,,,"MET09711/01/20 05:53:02 METAR KSEA 011353Z 01011KT 10SM CLR 06/05 A3025 RMK AO2 SLP253 T00610050 $ (LZ)","FM-15","7",,,,,,,,,,,,,,,,,,,,,,,,,,,"2007-05-17"
"72793024233","2020-11-01T06:53:00","FM-15","7",,,,,,,,,,,,,,,,,,,,,,,,,,,,,,,,,,,,,,,"30.25","40","42","0.00",,"+0.02","6","92","30.27","CLR:00","29.78","9.00","41","020",,"9",,,,,,,,,,,,,,,,,,,,,,,,,,,,,,,,,,,,,"MET10211/01/20 06:53:02 METAR KSEA 011453Z 02008KT 9SM CLR 06/04 A3025 RMK AO2 SLP251 T00560044 56007 $ (LZ)","FM-15","7",,,,,,,,,,,,,,,,,,,,,,,,,,,"2007-05-17"
"72793024233","2020-11-01T07:53:00","FM-15","7",,,,,,,,,,,,,,,,,,,,,,,,,,,,,,,,,,,,,,,"30.25","41","44","0.00",,,,"89","30.27","CLR:00","29.78","10.00","43","010",,"9",,,,,,,,,,,,,,,,,,,,,,,,,,,,,,,,,,,,,"MET09711/01/20 07:53:02 METAR KSEA 011553Z 01008KT 10SM CLR 07/05 A3025 RMK AO2 SLP251 T00670050 $ (LZ)","FM-15","7",,,,,,,,,,,,,,,,,,,,,,,,,,,"2007-05-17"
"72793024233","2020-11-01T08:53:00","FM-15","7",,,,,,,,,,,,,,,,,,,,,,,,,,,,,,,,,,,,,,,"30.25","41","47","0.00",,,,"80","30.27","CLR:00","29.78","10.00","44","010",,"6",,,,,,,,,,,,,,,,,,,,,,,,,,,,,,,,,,,,,"MET09711/01/20 08:53:02 METAR KSEA 011653Z 01005KT 10SM CLR 08/05 A3025 RMK AO2 SLP251 T00830050 $ (LZ)","FM-15","7",,,,,,,,,,,,,,,,,,,,,,,,,,,"2007-05-17"
"72793024233","2020-11-01T09:53:00","FM-15","7",,,,,,,,,,,,,,,,,,,,,,,,,,,,,,,,,,,,,,,"30.24","40","50","0.00",,"+0.01","8","68","30.26","CLR:00","29.77","10.00","45","020",,"10",,,,,,,,,,,,,,,,,,,,,,,,,,,,,,,,,,,,,"MET11511/01/20 09:53:02 METAR KSEA 011753Z 02009KT 10SM CLR 10/04 A3024 RMK AO2 SLP247 T01000044 10100 20056 58002 $ (LZ)","FM-15","7",,,,,,,,,,,,,,,,,,,,,,,,,,,"2007-05-17"
"72793024233","2020-11-01T10:00:00","FM-12","4",,,,,,,,,,,,,,,,,,,,,,,,,,,,,,,,,,,,,,,,"40","50",,,"+0.01","8","68","30.26",,"29.75","9.94","45","020",,"10",,,,,,,,,,,,,,,,,,,,,,,,,,,,,,,,,,,,,"SYN08072793 32966 00209 10100 20044 30076 40247 58002 91753 333 10100 20056 555 90118=","FM-12","4",,,,,,,,,,,,,,,,,,,,,,,,,,,"2007-05-17"
"72793024233","2020-11-01T10:53:00","FM-15","7",,,,,,,,,,,,,,,,,,,,,,,,,,,,,,,,,,,,,,,"30.23","41","53","0.00",,,,"64","30.25","CLR:00","29.76","10.00","47","010",,"7",,,,,,,,,,,,,,,,,,,,,,,,,,,,,,,,,,,,,"MET09711/01/20 10:53:02 METAR KSEA 011853Z 01006KT 10SM CLR 12/05 A3023 RMK AO2 SLP245 T01170050 $ (LZ)","FM-15","7",,,,,,,,,,,,,,,,,,,,,,,,,,,"2007-05-17"
"72793024233","2020-11-01T11:53:00","FM-15","7",,,,,,,,,,,,,,,,,,,,,,,,,,,,,,,,,,,,,,,"30.22","40","57","0.00",,,,"53","30.24","CLR:00","29.75","10.00","49","030",,"3",,,,,,,,,,,,,,,,,,,,,,,,,,,,,,,,,,,,,"MET09711/01/20 11:53:02 METAR KSEA 011953Z 03003KT 10SM CLR 14/04 A3022 RMK AO2 SLP241 T01390044 $ (LZ)","FM-15","7",,,,,,,,,,,,,,,,,,,,,,,,,,,"2007-05-17"
"72793024233","2020-11-01T12:53:00","FM-15","7",,,,,,,,,,,,,,,,,,,,,,,,,,,,,,,,,,,,,,,"30.21","44","57","0.00",,"+0.03","8","62","30.23","CLR:00","29.74","10.00","50","320",,"7",,,,,,,,,,,,,,,,,,,,,,,,,,,,,,,,,,,,,"MET10311/01/20 12:53:02 METAR KSEA 012053Z 32006KT 10SM CLR 14/07 A3021 RMK AO2 SLP237 T01390067 58010 $ (LZ)","FM-15","7",,,,,,,,,,,,,,,,,,,,,,,,,,,"2007-05-17"
"72793024233","2020-11-01T13:53:00","FM-15","7",,,,,,,,,,,,,,,,,,,,,,,,,,,,,,,,,,,,,,,"30.19","43","59","0.00",,,,"56","30.21","CLR:00","29.72","10.00","51","350",,"3",,,,,,,,,,,,,,,,,,,,,,,,,,,,,,,,,,,,,"MET09711/01/20 13:53:02 METAR KSEA 012153Z 35003KT 10SM CLR 15/06 A3019 RMK AO2 SLP229 T01500061 $ (LZ)","FM-15","7",,,,,,,,,,,,,,,,,,,,,,,,,,,"2007-05-17"
"72793024233","2020-11-01T14:53:00","FM-15","7",,,,,,,,,,,,,,,,,,,,,,,,,,,,,,,,,,,,,,,"30.18","43","57","0.00",,,,"60","30.20","CLR:00","29.71","10.00","50","280",,"8",,,,,,,,,,,,,,,,,,,,,,,,,,,,,,,,,,,,,"MET09711/01/20 14:53:02 METAR KSEA 012253Z 28007KT 10SM CLR 14/06 A3018 RMK AO2 SLP228 T01390061 $ (TL)","FM-15","7",,,,,,,,,,,,,,,,,,,,,,,,,,,"2007-05-17"
"72793024233","2020-11-01T15:53:00","FM-15","7",,,,,,,,,,,,,,,,,,,,,,,,,,,,,,,,,,,,,,,"30.16","41","57","0.00",,"+0.05","6","55","30.18","CLR:00","29.69","10.00","49","000",,"0",,,,,,,,,,,,,,,,,,,,,,,,,,,,,,,,,,,,,"MET11511/01/20 15:53:02 METAR KSEA 012353Z 00000KT 10SM CLR 14/05 A3016 RMK AO2 SLP221 T01390050 10161 20100 56016 $ (TL)","FM-15","7",,,,,,,,,,,,,,,,,,,,,,,,,,,"2007-05-17"
"72793024233","2020-11-01T16:00:00","FM-12","4",,,,,,,,,,,,,,,,,,,,,,,,,,,,,,,,,,,,,,,,"41","57",,,"+0.05","6","55","30.18",,"29.68","9.94","49","000",,"0",,,,,,,,,,,,,,,,,,,,,,,,,,,,,,,,,,,,,"SYN08072793 32966 00000 10139 20050 30050 40221 56016 92353 333 10161 20067 555 90200=","FM-12","4",,,,,,,,,,,,,,,,,,,,,,,,,,,"2007-05-17"
"72793024233","2020-11-01T16:53:00","FM-15","7",,,,,,,,,,,,,,,,,,,,,,,,,,,,,,,,,,,,,,,"30.16","41","53","0.00",,,,"64","30.19","CLR:00","29.69","10.00","47","310",,"5",,,,,,,,,,,,,,,,,,,,,,,,,,,,,,,,,,,,,"MET09211/01/20 16:53:01 METAR KSEA 020053Z 31004KT 10SM CLR 12/05 A3016 RMK AO2 SLP222 T01170050 $","FM-15","7",,,,,,,,,,,,,,,,,,,,,,,,,,,"2007-05-17"
"72793024233","2020-11-01T17:53:00","FM-15","7",,,,,,,,,,,,,,,,,,,,,,,,,,,,,,,,,,,,,,,"30.16","39","52","0.00",,,,"61","30.18","CLR:00","29.69","10.00","46","000",,"0",,,,,,,,,,,,,,,,,,,,,,,,,,,,,,,,,,,,,"MET09211/01/20 17:53:01 METAR KSEA 020153Z 00000KT 10SM CLR 11/04 A3016 RMK AO2 SLP219 T01110039 $","FM-15","7",,,,,,,,,,,,,,,,,,,,,,,,,,,"2007-05-17"
"72793024233","2020-11-01T18:53:00","FM-15","7",,,,,,,,,,,,,,,,,,,,,,,,,,,,,,,,,,,,,,,"30.15","40","51","0.00",,"+0.01","8","66","30.17","CLR:00","29.68","10.00","46","000",,"0",,,,,,,,,,,,,,,,,,,,,,,,,,,,,,,,,,,,,"MET09811/01/20 18:53:01 METAR KSEA 020253Z 00000KT 10SM CLR 11/04 A3015 RMK AO2 SLP218 T01060044 58003 $","FM-15","7",,,,,,,,,,,,,,,,,,,,,,,,,,,"2007-05-17"
"72793024233","2020-11-01T19:53:00","FM-15","7",,,,,,,,,,,,,,,,,,,,,,,,,,,,,,,,,,,,,,,"30.16","44","48","0.00",,,,"86","30.18","CLR:00","29.69","10.00","46","000",,"0",,,,,,,,,,,,,,,,,,,,,,,,,,,,,,,,,,,,,"MET09211/01/20 19:53:01 METAR KSEA 020353Z 00000KT 10SM CLR 09/07 A3016 RMK AO2 SLP220 T00890067 $","FM-15","7",,,,,,,,,,,,,,,,,,,,,,,,,,,"2007-05-17"
"72793024233","2020-11-01T20:53:00","FM-15","7",,,,,,,,,,,,,,,,,,,,,,,,,,,,,,,,,,,,,,,"30.16","42","51","0.00",,,,"71","30.18","CLR:00","29.69","10.00","47","140",,"3",,,,,,,,,,,,,,,,,,,,,,,,,,,,,,,,,,,,,"MET09211/01/20 20:53:02 METAR KSEA 020453Z 14003KT 10SM CLR 11/06 A3016 RMK AO2 SLP219 T01060056 $","FM-15","7",,,,,,,,,,,,,,,,,,,,,,,,,,,"2007-05-17"
"72793024233","2020-11-01T21:53:00","FM-15","7",,,,,,,,,,,,,,,,,,,,,,,,,,,,,,,,,,,,,,,"30.16","42","48","0.00",,"-0.01","2","80","30.18","CLR:00","29.69","10.00","45","130",,"7",,,,,,,,,,,,,,,,,,,,,,,,,,,,,,,,,,,,,"MET11011/01/20 21:53:02 METAR KSEA 020553Z 13006KT 10SM CLR 09/06 A3016 RMK AO2 SLP220 T00890056 10139 20083 52002 $","FM-15","7",,,,,,,,,,,,,,,,,,,,,,,,,,,"2007-05-17"
"72793024233","2020-11-01T22:00:00","FM-12","4",,,,,,,,,,,,,,,,,,,,,,,,,,,,,,,,,,,,,,,,"42","48",,,"-0.01","2","80","30.18",,"29.68","9.94","45","130",,"7",,,,,,,,,,,,,,,,,,,,,,,,,,,,,,,,,,,,,"SYN08072793 32966 01306 10089 20056 30050 40220 52002 90553 333 10139 20067 555 90206=","FM-12","4",,,,,,,,,,,,,,,,,,,,,,,,,,,"2007-05-17"
"72793024233","2020-11-01T22:53:00","FM-15","7",,,,,,,,,,,,,,,,,,,,,,,,,,,,,,,,,,,,,,,"30.16","42","48","0.00",,,,"80","30.18","CLR:00","29.69","10.00","45","150",,"3",,,,,,,,,,,,,,,,,,,,,,,,,,,,,,,,,,,,,"MET09211/01/20 22:53:02 METAR KSEA 020653Z 15003KT 10SM CLR 09/06 A3016 RMK AO2 SLP221 T00890056 $","FM-15","7",,,,,,,,,,,,,,,,,,,,,,,,,,,"2007-05-17"
"72793024233","2020-11-01T23:53:00","FM-15","7",,,,,,,,,,,,,,,,,,,,,,,,,,,,,,,,,,,,,,,"30.16","42","47","0.00",,,,"83","30.17","CLR:00","29.69","10.00","45","130",,"6",,,,,,,,,,,,,,,,,,,,,,,,,,,,,,,,,,,,,"MET10211/01/20 23:53:02 METAR KSEA 020753Z 13005KT 10SM CLR 08/06 A3016 RMK AO2 SLP218 T00830056 401610056 $","FM-15","7",,,,,,,,,,,,,,,,,,,,,,,,,,,"2007-05-17"
"72793024233","2020-11-01T23:59:00","SOD  ","6",,,,,,,,,,,,,,,,,"42","52","76","30.23","29.73","46","6.8","0","3.3","13","61","42","020","19","0.00","0","0.0","020","16",,,,,,,,,,,,,,,,,,,,,,,,,,,,,,,,,,,,,,,,,,,,,,,,,,,,,,,,"SOD73924 HR PRECIPITATION (IN): 0.00 SNOW DEPTH (IN):0     24 HR SNOWFALL (IN):0.0  24 HR MAX TEMP (F): 6124 HR MIN TEMP (F): 42AVERAGE STATION PRESSURE:29.735 MINIMUM SEA LEVEL PRESSURE:30.17 TIME OF OCCURRENCE:2358 PEAK WIND SPEED (MPH): 19 PEAK WIND DIR (DEG): 20 PEAK WIND TIME (LST):      FASTEST 2MIN SPEED (MPH): 16FASTEST 2MIN DIR (DEG): 20 FASTEST 2MIN TIME (LST):     AVERAGE WIND SPEED (MPH): 6.8 24 HR AVG TEMP (F): 52DEPART FROM NORMAL:  3  HEATING DEGREE DAYS: 13 COOLING DEGREE DAYS:  0 LATEST DAY MAX TEMP (0700-1900 LST):61  LATEST NIGHT MIN TEMP(1900-0800 LST):42 HOURLY INCREMENTAL PRECIPITATION VALUES (IN):.00 0.00 0.00 0.00 0.00 0.00 0.00 0.00 0.00 0.00 0.00 0.00 0.00 0.00 0.00 0.00 0.00 0.00 0.00 0.00 0.00 0.00 0.00 0.00","SOD  ","6",,,,,,,,,,,,,,,,,,,,,,,,,"0654","1651","2007-05-17"
